name,name:en,name:ja-Latn,name:ja,name:ja-Hira,name:es,name:zh,Jurisdiction,AreaName,ID,CD,address,addr:province,addr:city,addre:quarter,addr:neighbourhood,addr:block_number,addr:housenumber,access,memo,latitude,longitude
防火水槽,Water Tank,Bōkasuisō,防火水槽,ぼうかすいそう,cistermas,消防水箱,本署,本署１管区,020-101-1,213005002,大和市下鶴間二丁目２ ,神奈川県,大和市,下鶴間,二丁目,2,,長堀２号公園,公設,35.49076209,139.4608397
防火水槽,Water Tank,Bōkasuisō,防火水槽,ぼうかすいそう,cistermas,消防水箱,本署,本署１管区,020-101-2,213014000,大和市深見５０１－１ ,神奈川県,大和市,深見,,501,1,,公設,35.48829328,139.4653707
防火水槽,Water Tank,Bōkasuisō,防火水槽,ぼうかすいそう,cistermas,消防水箱,本署,本署１管区,020-101-3,213024002,大和市深見東二丁目３－１５ ,神奈川県,大和市,深見東,二丁目,3,15,,公設,35.48202045,139.4663304
防火水槽,Water Tank,Bōkasuisō,防火水槽,ぼうかすいそう,cistermas,消防水箱,本署,本署１管区,020-101-4,213012001,大和市鶴間一丁目５－１１ ,神奈川県,大和市,鶴間,一丁目,5,11,鶴間台自治会館,公設,35.48867611,139.4539593
防火水槽,Water Tank,Bōkasuisō,防火水槽,ぼうかすいそう,cistermas,消防水箱,本署,本署１管区,020-101-5,213023002,大和市深見西二丁目４－３４ ,神奈川県,大和市,深見西,二丁目,4,34,,公設,35.47624507,139.463416
防火水槽,Water Tank,Bōkasuisō,防火水槽,ぼうかすいそう,cistermas,消防水箱,本署,本署１管区,020-101-6,213012001,大和市鶴間一丁目２４－１０ ,神奈川県,大和市,鶴間,一丁目,24,10,,公設,35.48763142,139.4556134
防火水槽,Water Tank,Bōkasuisō,防火水槽,ぼうかすいそう,cistermas,消防水箱,本署,本署１管区,020-101-7,213012001,大和市鶴間一丁目１８ ,神奈川県,大和市,鶴間,一丁目,18,,市営鶴間台住宅,公設,35.48622594,139.4541289
防火水槽,Water Tank,Bōkasuisō,防火水槽,ぼうかすいそう,cistermas,消防水箱,本署,本署１管区,020-101-8,213023007,大和市深見西七丁目５ ,神奈川県,大和市,深見西,七丁目,5,,市立大和中学校,公設,35.48644537,139.456314
防火水槽,Water Tank,Bōkasuisō,防火水槽,ぼうかすいそう,cistermas,消防水箱,本署,本署１管区,020-101-9,213014000,大和市深見６７７ ,神奈川県,大和市,深見,,677,,,公設,35.48679964,139.4680917
防火水槽,Water Tank,Bōkasuisō,防火水槽,ぼうかすいそう,cistermas,消防水箱,本署,本署１管区,020-101-10,213023003,大和市深見西三丁目１－１１ ,神奈川県,大和市,深見西,三丁目,1,11,,公設,35.47856823,139.4573593
防火水槽,Water Tank,Bōkasuisō,防火水槽,ぼうかすいそう,cistermas,消防水箱,本署,本署１管区,020-101-11,213005001,大和市下鶴間一丁目１－１ ,神奈川県,大和市,下鶴間,一丁目,1,1,大和市役所,公設,35.48695386,139.4575142
防火水槽,Water Tank,Bōkasuisō,防火水槽,ぼうかすいそう,cistermas,消防水箱,本署,本署１管区,020-101-12,213023003,大和市深見西三丁目１－２２ ,神奈川県,大和市,深見西,三丁目,1,22,,公設,35.47914286,139.4590581
防火水槽,Water Tank,Bōkasuisō,防火水槽,ぼうかすいそう,cistermas,消防水箱,本署,本署１管区,020-101-13,213023002,大和市深見西二丁目７－４１ ,神奈川県,大和市,深見西,二丁目,7,41,,公設,35.47813379,139.462889
防火水槽,Water Tank,Bōkasuisō,防火水槽,ぼうかすいそう,cistermas,消防水箱,本署,本署１管区,020-101-14,213012001,大和市鶴間一丁目１３ ,神奈川県,大和市,鶴間,一丁目,13,,分団機械器具置場,公設,35.48724511,139.4537866
防火水槽,Water Tank,Bōkasuisō,防火水槽,ぼうかすいそう,cistermas,消防水箱,本署,本署１管区,020-101-15,213023001,大和市深見西一丁目４－１９ ,神奈川県,大和市,深見西,一丁目,4,19,,公設,35.47705813,139.4598987
防火水槽,Water Tank,Bōkasuisō,防火水槽,ぼうかすいそう,cistermas,消防水箱,本署,本署１管区,020-101-16,213014000,大和市深見５０８－１ ,神奈川県,大和市,深見,,508,1,,公設,35.48682119,139.4657149
防火水槽,Water Tank,Bōkasuisō,防火水槽,ぼうかすいそう,cistermas,消防水箱,本署,本署１管区,020-101-17,213023006,大和市深見西六丁目２４ ,神奈川県,大和市,深見西,六丁目,24,,ライオンズマンション大和B棟,公設,35.48532116,139.4629776
防火水槽,Water Tank,Bōkasuisō,防火水槽,ぼうかすいそう,cistermas,消防水箱,本署,本署１管区,020-101-18,213005002,大和市下鶴間二丁目５－２２ ,神奈川県,大和市,下鶴間,二丁目,5,22,大和原自治会館,公設,35.48830365,139.4618356
防火水槽,Water Tank,Bōkasuisō,防火水槽,ぼうかすいそう,cistermas,消防水箱,本署,本署１管区,020-101-19,213005002,大和市下鶴間二丁目１１－１４ ,神奈川県,大和市,下鶴間,二丁目,11,14,大和原１号公園,公設,35.49084383,139.4624237
防火水槽,Water Tank,Bōkasuisō,防火水槽,ぼうかすいそう,cistermas,消防水箱,本署,本署１管区,020-101-20,213023004,大和市深見西四丁目８－２８ ,神奈川県,大和市,深見西,四丁目,8,28,木もれ日公園21世樹,公設,35.48239638,139.4642382
防火水槽,Water Tank,Bōkasuisō,防火水槽,ぼうかすいそう,cistermas,消防水箱,本署,本署１管区,020-101-22,213014000,大和市深見４８４－１ ,神奈川県,大和市,深見,,484,,一之関公園,公設,35.48879233,139.4656423
防火水槽,Watar Tank,Bōkasuisō,防火水槽,ぼうかすいそう,cistermas,消防水箱,本署,本署１管区,020-101-23,213023004,大和市深見西四丁目６ ,神奈川県,大和市,深見西,四丁目,6,,庚申塚公園,公設,35.48239659,139.4624536
防火水槽,Watar Tank,Bōkasuisō,防火水槽,ぼうかすいそう,cistermas,消防水箱,本署,本署１管区,020-101-24,213023008,大和市深見西八丁目４ ,神奈川県,大和市,深見西,八丁目,4,,なぎ原１号公園,公設,35.48572479,139.4597052
防火水槽,Watar Tank,Bōkasuisō,防火水槽,ぼうかすいそう,cistermas,消防水箱,本署,本署１管区,020-101-25,213012001,大和市鶴間一丁目３０６１－７ ,神奈川県,大和市,鶴間,一丁目,3061,7,鶴間2号公園,公設,35.48753643,139.4547427
防火水槽,Watar Tank,Bōkasuisō,防火水槽,ぼうかすいそう,cistermas,消防水箱,本署,本署２管区,020-102-2,213020003,大和市大和東三丁目９－１ ,神奈川県,大和市,大和東,三丁目,9,1,ハマヤスポ－ツ,公設,35.47299163,139.4624845
防火水槽,Watar Tank,Bōkasuisō,防火水槽,ぼうかすいそう,cistermas,消防水箱,本署,本署２管区,020-102-3,213015004,大和市深見台四丁目２－１０ ,神奈川県,大和市,深見台,四丁目,2,10,,公設,35.47236988,139.4666855
防火水槽,Watar Tank,Bōkasuisō,防火水槽,ぼうかすいそう,cistermas,消防水箱,本署,本署２管区,020-102-4,213014000,大和市深見２２４２ ,神奈川県,大和市,深見,,2242,,深見台第二アパ－ト,公設,35.47171004,139.469622
防火水槽,Watar Tank,Bōkasuisō,防火水槽,ぼうかすいそう,cistermas,消防水箱,本署,本署２管区,020-102-5,213015004,大和市深見台四丁目１ ,神奈川県,大和市,深見台,四丁目,1,,しんわ自治会館,公設,35.47142396,139.4662294
防火水槽,Watar Tank,Bōkasuisō,防火水槽,ぼうかすいそう,cistermas,消防水箱,本署,本署２管区,020-102-6,213020001,大和市大和東一丁目８－１ ,神奈川県,大和市,大和東,一丁目,8,1,横浜銀行大和支店,公設,35.47013118,139.46214
防火水槽,Watar Tank,Bōkasuisō,防火水槽,ぼうかすいそう,cistermas,消防水箱,本署,本署２管区,020-102-7,213015002,大和市深見台二丁目１０－２３ ,神奈川県,大和市,深見台,二丁目,10,23,,公設,35.46956242,139.4696282
防火水槽,Watar Tank,Bōkasuisō,防火水槽,ぼうかすいそう,cistermas,消防水箱,本署,本署２管区,020-102-9,213015002,大和市深見台二丁目９－１ ,神奈川県,大和市,深見台,二丁目,9,1,市立深見小学校 正門,公設,35.46761994,139.4692228
防火水槽,Watar Tank,Bōkasuisō,防火水槽,ぼうかすいそう,cistermas,消防水箱,本署,本署２管区,020-102-10,213021002,大和市大和南二丁目８－３２ ,神奈川県,大和市,大和南,二丁目,8,32,サン熱帯魚,公設,35.46646005,139.4638455
防火水槽,Watar Tank,Bōkasuisō,防火水槽,ぼうかすいそう,cistermas,消防水箱,本署,本署２管区,020-102-11,213015003,大和市深見台三丁目１ ,神奈川県,大和市,深見台,三丁目,1,,東京ガスエネルギ-㈱大和支社,公設,35.47055416,139.4680705
防火水槽,Watar Tank,Bōkasuisō,防火水槽,ぼうかすいそう,cistermas,消防水箱,本署,本署２管区,020-102-12,213015001,大和市深見台一丁目１ ,神奈川県,大和市,深見台,一丁目,1,,ダイクマ大和店,公設,35.46762909,139.4669959
防火水槽,Watar Tank,Bōkasuisō,防火水槽,ぼうかすいそう,cistermas,消防水箱,本署,本署２管区,020-102-13,213021002,大和市大和南二丁目１０－２４ ,神奈川県,大和市,大和南,二丁目,10,24,,公設,35.46468257,139.4659622
防火水槽,Watar Tank,Bōkasuisō,防火水槽,ぼうかすいそう,cistermas,消防水箱,本署,本署２管区,020-102-14,213015004,大和市深見台四丁目１５ ,神奈川県,大和市,深見台,四丁目,15,,焼肉レストラン・安楽亭,公設,35.47443635,139.4657485
防火水槽,Watar Tank,Bōkasuisō,防火水槽,ぼうかすいそう,cistermas,消防水箱,本署,本署２管区,020-102-15,213014000,大和市深見３３６７ ,神奈川県,大和市,深見,,3367,,深見神社,公設,35.46810628,139.4712638
防火水槽,Watar Tank,Bōkasuisō,防火水槽,ぼうかすいそう,cistermas,消防水箱,本署,本署２管区,020-102-16,213015002,大和市深見台二丁目９－１ ,神奈川県,大和市,深見台,二丁目,9,1,市立深見小学校　北,公設,35.46811072,139.4708018
防火水槽,Watar Tank,Bōkasuisō,防火水槽,ぼうかすいそう,cistermas,消防水箱,本署,本書２管区,020-102-17,213014000,大和市深見３２０８ ,神奈川県,大和市,深見,,3208,,かしま２号公園,公設,35.46751862,139.472844
防火水槽,Watar Tank,Bōkasuisō,防火水槽,ぼうかすいそう,cistermas,消防水箱,本署,本署２管区,020-102-18,213020002,大和市大和東二丁目４ ,神奈川県,大和市,大和東,二丁目,4,,大和東公園,公設,35.472056,139.4611666
防火水槽,Watar Tank,Bōkasuisō,防火水槽,ぼうかすいそう,cistermas,消防水箱,本署,本署３管区,020-103-1,213013004,大和市西鶴間四丁目２ ,神奈川県,大和市,西鶴間,四丁目,2,,大和市 慰霊塔公園,公設,35.48614087,139.4493328
防火水槽,Watar Tank,Bōkasuisō,防火水槽,ぼうかすいそう,cistermas,消防水箱,本署,本署３管区,020-103-2,213001007,大和市上草柳七丁目４ ,神奈川県,大和市,上草柳,七丁目,4,,大野原小学校,公設,35.48372403,139.452418
防火水槽,Watar Tank,Bōkasuisō,防火水槽,ぼうかすいそう,cistermas,消防水箱,本署,本署３管区,020-103-3,213001008,大和市上草柳八丁目１１－１０ ,神奈川県,大和市,上草柳,八丁目,11,10,ヤマト空調(井上),公設,35.48192296,139.4478077
防火水槽,Watar Tank,Bōkasuisō,防火水槽,ぼうかすいそう,cistermas,消防水箱,本署,本署３管区,020-103-4,213003003,大和市桜森三丁目７ ,神奈川県,大和市,桜森,三丁目,7,,,公設,35.47211496,139.4402505
防火水槽,Watar Tank,Bōkasuisō,防火水槽,ぼうかすいそう,cistermas,消防水箱,本署,本署３管区,020-103-5,213003002,大和市桜森二丁目６－１４ ,神奈川県,大和市,桜森,二丁目,6,14,レゾンロイヤル相模大塚,公設,35.46972594,139.4394703
防火水槽,Watar Tank,Bōkasuisō,防火水槽,ぼうかすいそう,cistermas,消防水箱,本署,本署３管区,020-103-6,213001006,大和市上草柳六丁目１４ ,神奈川県,大和市,上草柳,六丁目,14,,丸送倉庫,公設,35.47940362,139.4497669
防火水槽,Watar Tank,Bōkasuisō,防火水槽,ぼうかすいそう,cistermas,消防水箱,本署,本署３管区,020-103-7,213003003,大和市桜森三丁目８ ,神奈川県,大和市,桜森,三丁目,8,,城南信用金庫相模大塚支店,公設,35.47139315,139.4405549
防火水槽,Watar Tank,Bōkasuisō,防火水槽,ぼうかすいそう,cistermas,消防水箱,本署,本署３管区,020-103-8,213001000,大和市上草柳１９０－５ ,神奈川県,大和市,上草柳,,190,5,,公設,35.47261184,139.4458509
防火水槽,Watar Tank,Bōkasuisō,防火水槽,ぼうかすいそう,cistermas,消防水箱,本署,本署３管区,020-103-9,213013005,大和市西鶴間五丁目１４－２ ,神奈川県,大和市,西鶴間,五丁目,14,2,,公設,35.48361508,139.443776
防火水槽,Watar Tank,Bōkasuisō,防火水槽,ぼうかすいそう,cistermas,消防水箱,本署,本署３管区,020-103-10,213001007,大和市上草柳七丁目１０－１２ ,神奈川県,大和市,上草柳,七丁目,10,12,,公設,35.48421056,139.4516797
防火水槽,Watar Tank,Bōkasuisō,防火水槽,ぼうかすいそう,cistermas,消防水箱,本署,本署３管区,020-103-11,213001000,大和市上草柳３３５－２０ ,神奈川県,大和市,上草柳,,335,20,相栄フ－ズ㈱,公設,35.47208327,139.4367727
防火水槽,Watar Tank,Bōkasuisō,防火水槽,ぼうかすいそう,cistermas,消防水箱,本署,本署３管区,020-103-12,213003003,大和市桜森三丁目９ ,神奈川県,大和市,桜森,三丁目,9,,アミティ－ライフ桜森,公設,35.47120983,139.4386798
防火水槽,Watar Tank,Bōkasuisō,防火水槽,ぼうかすいそう,cistermas,消防水箱,本署,本署３管区,020-103-13,213001009,大和市上草柳九丁目３－２ ,神奈川県,大和市,上草柳,九丁目,3,2,レオパレス鶴間第８,公設,35.47955712,139.4452038
防火水槽,Watar Tank,Bōkasuisō,防火水槽,ぼうかすいそう,cistermas,消防水箱,本署,本署３管区,020-103-14,213001000,大和市上草柳５３１－１ ,神奈川県,大和市,上草柳,,531,1,佐々木製作所,公設,35.4775559,139.4379161
防火水槽,Watar Tank,Bōkasuisō,防火水槽,ぼうかすいそう,cistermas,消防水箱,本署,本署３管区,020-103-15,213003003,大和市桜森三丁目１６－３１ ,神奈川県,大和市,桜森,三丁目,16,31,市立文ヶ岡小学校,公設,35.47402154,139.4383706
防火水槽,Watar Tank,Bōkasuisō,防火水槽,ぼうかすいそう,cistermas,消防水箱,本署,本署３管区,020-103-16,213001009,大和市上草柳九丁目１０ ,神奈川県,大和市,上草柳,九丁目,10,,子安２号公園,公設,35.48222871,139.4457468
防火水槽,Watar Tank,Bōkasuisō,防火水槽,ぼうかすいそう,cistermas,消防水箱,本署,本署３管区,020-103-17,213001000,大和市上草柳１７７７ ,神奈川県,大和市,上草柳,,10,,泉の森（古民家）,公設,35.47691046,139.4414353
防火水槽,Watar Tank,Bōkasuisō,防火水槽,ぼうかすいそう,cistermas,消防水箱,本署,本署３管区,020-103-18,213003003,大和市桜森三丁目９ ,神奈川県,大和市,桜森,三丁目,9,,桜森わいわい公園,公設,35.47214105,139.438882
防火水槽,Watar Tank,Bōkasuisō,防火水槽,ぼうかすいそう,cistermas,消防水箱,本署,本署３管区,020-103-19,213001000,大和市上草柳３５０－６ ,神奈川県,大和市,上草柳,,350,6,桜森2号公園内,公設,35.47363494,139.437302
防火水槽,Watar Tank,Bōkasuisō,防火水槽,ぼうかすいそう,cistermas,消防水箱,本署,本署４管区,020-104-1,213009003,大和市中央三丁目６－１ ,神奈川県,大和市,中央,三丁目,6,1,市立草柳小学校,公設,35.47127069,139.4557905
防火水槽,Watar Tank,Bōkasuisō,防火水槽,ぼうかすいそう,cistermas,消防水箱,本署,本署４管区,020-104-2,213009002,大和市中央二丁目６－１ ,神奈川県,大和市,中央,二丁目,6,1,フコク生命ビル,公設,35.47107173,139.4585437
防火水槽,Watar Tank,Bōkasuisō,防火水槽,ぼうかすいそう,cistermas,消防水箱,本署,本署４管区,020-104-3,213009004,大和市中央四丁目１４ ,神奈川県,大和市,中央,四丁目,14,,中央７号公園,公設,35.46929159,139.4551656
防火水槽,Watar Tank,Bōkasuisō,防火水槽,ぼうかすいそう,cistermas,消防水箱,本署,本署４管区,020-104-4,213009001,大和市中央一丁目３－１ ,神奈川県,大和市,中央,一丁目,3,1,大和ショップ,公設,35.46851697,139.4619147
防火水槽,Watar Tank,Bōkasuisō,防火水槽,ぼうかすいそう,cistermas,消防水箱,本署,本署４管区,020-104-5,213007002,大和市草柳二丁目５－５ ,神奈川県,大和市,上草柳,二丁目,5,5,草柳３号公園,公設,35.46389493,139.4574914
防火水槽,Watar Tank,Bōkasuisō,防火水槽,ぼうかすいそう,cistermas,消防水箱,本署,本署４管区,020-104-6,213009005,大和市中央五丁目１２－１１ ,神奈川県,大和市,中央,五丁目,12,11,中央５丁目自治会館,公設,35.46558809,139.458358
防火水槽,Watar Tank,Bōkasuisō,防火水槽,ぼうかすいそう,cistermas,消防水箱,本署,本署４管区,020-104-8,213009006,大和市中央六丁目９－１３ ,神奈川県,大和市,中央,六丁目,9,13,若葉会自治会館,公設,35.46091435,139.4610341
防火水槽,Watar Tank,Bōkasuisō,防火水槽,ぼうかすいそう,cistermas,消防水箱,本署,本署４管区,020-104-9,213001004,大和市上草柳四丁目２－４ ,神奈川県,大和市,上草柳,四丁目,2,4,高橋酒店,公設,35.4762559,139.4546873
防火水槽,Watar Tank,Bōkasuisō,防火水槽,ぼうかすいそう,cistermas,消防水箱,本署,本署４管区,020-104-10,213001004,大和市上草柳四丁目７ ,神奈川県,大和市,上草柳,四丁目,7,,東名大和バス停,公設,35.47868836,139.4536387
防火水槽,Watar Tank,Bōkasuisō,防火水槽,ぼうかすいそう,cistermas,消防水箱,本署,本署４管区,020-104-11,213009002,大和市中央二丁目４ ,神奈川県,大和市,中央,二丁目,4,,大和駅西口ロ－タリ－,公設,35.4705133,139.4607428
防火水槽,Watar Tank,Bōkasuisō,防火水槽,ぼうかすいそう,cistermas,消防水箱,本署,本署４管区,020-104-12,213009002,大和市中央二丁目１３－１８ ,神奈川県,大和市,中央,二丁目,13,18,サニ－ハイツ大和,公設,35.47409129,139.4585689
防火水槽,Watar Tank,Bōkasuisō,防火水槽,ぼうかすいそう,cistermas,消防水箱,本署,本署４管区,020-104-13,213001003,大和市上草柳三丁目１１－１９ ,神奈川県,大和市,上草柳,三丁目,11,19,,公設,35.47608164,139.4515397
防火水槽,Watar Tank,Bōkasuisō,防火水槽,ぼうかすいそう,cistermas,消防水箱,本署,本署４管区,020-104-14,213009003,大和市中央三丁目８－２１ ,神奈川県,大和市,中央,三丁目,8,21,ベタ－ハウス大和,公設,35.47280205,139.4566387
防火水槽,Watar Tank,Bōkasuisō,防火水槽,ぼうかすいそう,cistermas,消防水箱,本署,本署４管区,020-104-15,213009003,大和市中央三丁目８ ,神奈川県,大和市,中央,三丁目,8,,中央４号公園,公設,35.4722244,139.4565754
防火水槽,Watar Tank,Bōkasuisō,防火水槽,ぼうかすいそう,cistermas,消防水箱,本署,本署４管区,020-104-16,213009005,大和市中央五丁目９－５ ,神奈川県,大和市,中央,五丁目,9,5,やなぎ幼稚園,公設,35.46614797,139.4573986
防火水槽,Watar Tank,Bōkasuisō,防火水槽,ぼうかすいそう,cistermas,消防水箱,本署,本署４管区,020-104-17,213007001,大和市草柳一丁目２２－４ ,神奈川県,大和市,草柳,一丁目,22,4,ルックハイツ大和,公設,35.46758617,139.4536334
防火水槽,Watar Tank,Bōkasuisō,防火水槽,ぼうかすいそう,cistermas,消防水箱,本署,本署４管区,020-104-18,213009004,大和市中央四丁目５ ,神奈川県,大和市,中央,四丁目,5,,中央６号公園,公設,35.46943174,139.4579579
防火水槽,Watar Tank,Bōkasuisō,防火水槽,ぼうかすいそう,cistermas,消防水箱,本署,本署４管区,020-104-19,213007001,大和市草柳一丁目１９－１０ ,神奈川県,大和市,草柳,一丁目,19,10,大和スカイハイツ,公設,35.46571229,139.4544387
防火水槽,Watar Tank,Bōkasuisō,防火水槽,ぼうかすいそう,cistermas,消防水箱,本署,本署４管区,020-104-20,213009005,大和市中央五丁目７ ,神奈川県,大和市,中央,五丁目,7,,恒陽大和マンション,公設,35.46824976,139.4548209
防火水槽,Watar Tank,Bōkasuisō,防火水槽,ぼうかすいそう,cistermas,消防水箱,本署,本署４管区,020-104-21,213009006,大和市中央六丁目８ ,神奈川県,大和市,中央,六丁目,8,,,公設,35.46209415,139.4594447
防火水槽,Watar Tank,Bōkasuisō,防火水槽,ぼうかすいそう,cistermas,消防水箱,本署,本署４管区,020-104-22,213009004,大和市中央四丁目６ ,神奈川県,大和市,中央,四丁目,6,,伴ビル,公設,35.47000823,139.4563449
防火水槽,Watar Tank,Bōkasuisō,防火水槽,ぼうかすいそう,cistermas,消防水箱,本署,本署４管区,020-104-23,213007001,大和市草柳一丁目１１ ,神奈川県,大和市,草柳,一丁目,11,,草柳２号公園,公設,35.46395817,139.4559778
防火水槽,Watar Tank,Bōkasuisō,防火水槽,ぼうかすいそう,cistermas,消防水箱,本署,本署４管区,020-104-24,213001004,大和市上草柳四丁目１ ,神奈川県,大和市,上草柳,四丁目,1,,上草柳４丁目公園,公設,35.4775601,139.4562466
防火水槽,Watar Tank,Bōkasuisō,防火水槽,ぼうかすいそう,cistermas,消防水箱,本署,本署４管区,020-104-25,213009001,大和市中央一丁目５ ,神奈川県,大和市,中央,一丁目,5,,やまと公園,公設,35.46688746,139.4617023
防火水槽,Watar Tank,Bōkasuisō,防火水槽,ぼうかすいそう,cistermas,消防水箱,本署,本署４管区,020-104-26,213009007,大和市中央七丁目１０ ,神奈川県,大和市,中央,七丁目,10,,,公設,35.46311136,139.4640445
防火水槽,Watar Tank,Bōkasuisō,防火水槽,ぼうかすいそう,cistermas,消防水箱,本署,本署４管区,020-104-27,213009005,大和市中央五丁目１６ ,神奈川県,大和市,中央,五丁目,16,,市営やよい住宅２,公設,35.46584337,139.4589235
防火水槽,Watar Tank,Bōkasuisō,防火水槽,ぼうかすいそう,cistermas,消防水箱,本署,本署４管区,020-104-28,213001003,大和市上草柳三丁目１６ ,神奈川県,大和市,上草柳,三丁目,16,,上草柳３丁目公園,公設,35.47731034,139.4534084
防火水槽,Watar Tank,Bōkasuisō,防火水槽,ぼうかすいそう,cistermas,消防水箱,本署,本署４管区,020-104-29,213009002,大和市中央二丁目１４ ,神奈川県,大和市,中央,二丁目,14,,中央５号公園,公設,35.47279241,139.4581934
防火水槽,Watar Tank,Bōkasuisō,防火水槽,ぼうかすいそう,cistermas,消防水箱,本署,本署４管区,020-104-30,213007001,大和市草柳一丁目２０－２ ,神奈川県,大和市,草柳,一丁目,20,2,草柳１号公園,公設,35.46602589,139.4547723
防火水槽,Watar Tank,Bōkasuisō,防火水槽,ぼうかすいそう,cistermas,消防水箱,本署,本署４管区,020-104-31,213009002,大和市中央二丁目５３１－３０ ,神奈川県,大和市,中央,二丁目,531,30,中央３号公園,公設,35.47342863,139.4578578
防火水槽,Watar Tank,Bōkasuisō,防火水槽,ぼうかすいそう,cistermas,消防水箱,本署,本署４管区,020-104-32,213001002,大和市上草柳二丁目５４０－４ ,神奈川県,大和市,上草柳,二丁目,540,4,大東公園,公設,35.4741141,139.4536438
防火水槽,Watar Tank,Bōkasuisō,防火水槽,ぼうかすいそう,cistermas,消防水箱,北分署,北分署１管区,023-201-1,213005000,大和市下鶴間３７９－２ ,神奈川県,大和市,下鶴間,,379,2,浅間公園,公設,35.51660063,139.4614452
防火水槽,Watar Tank,Bōkasuisō,防火水槽,ぼうかすいそう,cistermas,消防水箱,北分署,北分署１管区,023-201-2,213005000,大和市下鶴間８０－７２ ,神奈川県,大和市,下鶴間,,80,72,つきみ野わいわい公園内,公設,35.51581828,139.4581132
防火水槽,Watar Tank,Bōkasuisō,防火水槽,ぼうかすいそう,cistermas,消防水箱,北分署,北分署１管区,023-201-4,213005000,大和市下鶴間２６７ ,神奈川県,大和市,下鶴間,,267,,レオパレスゴ-ルドレジデンス･タカ,公設,35.51538239,139.4630187
防火水槽,Watar Tank,Bōkasuisō,防火水槽,ぼうかすいそう,cistermas,消防水箱,北分署,北分署１管区,023-201-5,213005000,大和市下鶴間６８５ ,神奈川県,大和市,下鶴間,,685,,市立北大和小学校,公設,35.50902298,139.4613025
防火水槽,Watar Tank,Bōkasuisō,防火水槽,ぼうかすいそう,cistermas,消防水箱,北分署,北分署１管区,023-201-6,213005000,大和市下鶴間２１７０－９ ,神奈川県,大和市,下鶴間,,2170,9,山谷自治会館,公設,35.50607038,139.4652625
防火水槽,Watar Tank,Bōkasuisō,防火水槽,ぼうかすいそう,cistermas,消防水箱,北分署,北分署１管区,023-201-7,213010006,大和市中央林間六丁目７－１３ ,神奈川県,大和市,中央林間,六丁目,7,13,大和中央幼稚園,公設,35.51109381,139.4464333
防火水槽,Watar Tank,Bōkasuisō,防火水槽,ぼうかすいそう,cistermas,消防水箱,北分署,北分署１管区,023-201-8,213010002,大和市中央林間二丁目１６－４３ ,神奈川県,大和市,中央林間,二丁目,16,43,中央林間１号公園,公設,35.50266966,139.4471694
防火水槽,Watar Tank,Bōkasuisō,防火水槽,ぼうかすいそう,cistermas,消防水箱,北分署,北分署１管区,023-201-9,213011006,大和市つきみ野六丁目９－８ ,神奈川県,大和市,つきみ野,六丁目,9,8,つきみ野文化会館駐車場,公設,35.51120579,139.4546411
防火水槽,Watar Tank,Bōkasuisō,防火水槽,ぼうかすいそう,cistermas,消防水箱,北分署,北分署１管区,023-201-10,213010004,大和市中央林間四丁目２０ ,神奈川県,大和市,中央林間,四丁目,20,,ライオンズマンション中央林間第3,公設,35.50600764,139.4475551
防火水槽,Watar Tank,Bōkasuisō,防火水槽,ぼうかすいそう,cistermas,消防水箱,北分署,北分署１管区,023-201-11,213010002,大和市中央林間二丁目７－１１ ,神奈川県,大和市,中央林間,二丁目,7,11,エステ－トピア道,公設,35.50263832,139.4459126
防火水槽,Watar Tank,Bōkasuisō,防火水槽,ぼうかすいそう,cistermas,消防水箱,北分署,北分署１管区,023-201-12,213005000,大和市下鶴間９５ ,神奈川県,大和市,下鶴間,,95,,第１分団,公設,35.51615501,139.4603177
防火水槽,Watar Tank,Bōkasuisō,防火水槽,ぼうかすいそう,cistermas,消防水箱,北分署,北分署１管区,023-201-13,213005000,大和市下鶴間１５６１－４ ,神奈川県,大和市,下鶴間,,1561,4,つきみ野園芸,公設,35.51215981,139.451873
防火水槽,Watar Tank,Bōkasuisō,防火水槽,ぼうかすいそう,cistermas,消防水箱,北分署,北分署１管区,023-201-14,213010006,大和市中央林間六丁目２ ,神奈川県,大和市,中央林間,六丁目,2,,センチュリｰフォレスト,公設,35.5106812,139.4448787
防火水槽,Watar Tank,Bōkasuisō,防火水槽,ぼうかすいそう,cistermas,消防水箱,北分署,北分署１管区,023-201-15,213011003,大和市つきみ野三丁目２５ ,神奈川県,大和市,つきみ野,三丁目,25,,大木酒店,公設,35.50891389,139.4581613
防火水槽,Watar Tank,Bōkasuisō,防火水槽,ぼうかすいそう,cistermas,消防水箱,北分署,北分署１管区,023-201-16,213005000,大和市下鶴間６８１－１０ ,神奈川県,大和市,下鶴間,,681,10,,公設,35.50976077,139.4610063
防火水槽,Watar Tank,Bōkasuisō,防火水槽,ぼうかすいそう,cistermas,消防水箱,北分署,北分署１管区,023-201-17,213005000,大和市下鶴間６４４－１０ ,神奈川県,大和市,下鶴間,,644,10,,公設,35.51074146,139.4621029
防火水槽,Watar Tank,Bōkasuisō,防火水槽,ぼうかすいそう,cistermas,消防水箱,北分署,北分署１管区,023-201-18,213011008,大和市つきみ野八丁目１４－４２ ,神奈川県,大和市,つきみ野,八丁目,14,42,つきみ野スカイハイツ,公設,35.51807318,139.4538968
防火水槽,Watar Tank,Bōkasuisō,防火水槽,ぼうかすいそう,cistermas,消防水箱,北分署,北分署１管区,023-201-19,213011008,大和市つきみ野八丁目１４－４０ ,神奈川県,大和市,つきみ野,八丁目,14,40,つきみ野７号公園,公設,35.51760464,139.4535102
防火水槽,Watar Tank,Bōkasuisō,防火水槽,ぼうかすいそう,cistermas,消防水箱,北分署,北分署１管区,023-201-20,213011004,大和市つきみ野四丁目７－５ ,神奈川県,大和市,つきみ野,四丁目,7,5,東急ドエルつきみ野ビレジD-2,公設,35.50913521,139.4593823
防火水槽,Watar Tank,Bōkasuisō,防火水槽,ぼうかすいそう,cistermas,消防水箱,北分署,北分署１管区,023-201-21,213010004,大和市中央林間四丁目２０－２２ ,神奈川県,大和市,中央林間,四丁目,20,22,,公設,35.50590851,139.4467168
防火水槽,Watar Tank,Bōkasuisō,防火水槽,ぼうかすいそう,cistermas,消防水箱,北分署,北分署１管区,023-201-22,213011008,大和市つきみ野八丁目６－３７ ,神奈川県,大和市,つきみ野,八丁目,6,37,,公設,35.51640208,139.4517073
防火水槽,Watar Tank,Bōkasuisō,防火水槽,ぼうかすいそう,cistermas,消防水箱,北分署,北分署１管区,023-201-23,213011005,大和市つきみ野五丁目８－４ ,神奈川県,大和市,つきみ野,五丁目,8,4,東急ドエルつきみ野ビレジA棟,公設,35.5111621,139.4580778
防火水槽,Watar Tank,Bōkasuisō,防火水槽,ぼうかすいそう,cistermas,消防水箱,北分署,北分署１管区,023-201-24,213005000,大和市下鶴間７４１－４ ,神奈川県,大和市,下鶴間,,741,4,,公設,35.51015363,139.46472
防火水槽,Watar Tank,Bōkasuisō,防火水槽,ぼうかすいそう,cistermas,消防水箱,北分署,北分署１管区,023-201-25,213011001,大和市つきみ野一丁目１０ ,神奈川県,大和市,つきみ野,一丁目,10,,,公設,35.50512199,139.4576971
防火水槽,Watar Tank,Bōkasuisō,防火水槽,ぼうかすいそう,cistermas,消防水箱,北分署,北分署１管区,023-201-26,213005000,大和市下鶴間１６１４－８０ ,神奈川県,大和市,下鶴間,,1614,80,光文書院,公設,35.50736976,139.4492127
防火水槽,Watar Tank,Bōkasuisō,防火水槽,ぼうかすいそう,cistermas,消防水箱,北分署,北分署１管区,023-201-27,213005000,大和市下鶴間１６１３－１２ ,神奈川県,大和市,下鶴間,,1613,12,,公設,35.50752053,139.4507072
防火水槽,Watar Tank,Bōkasuisō,防火水槽,ぼうかすいそう,cistermas,消防水箱,北分署,北分署１管区,023-201-28,213011005,大和市つきみ野五丁目３ ,神奈川県,大和市,つきみ野,五丁目,3,,市営つきみ野住宅１号,公設,35.50969069,139.4537563
防火水槽,Watar Tank,Bōkasuisō,防火水槽,ぼうかすいそう,cistermas,消防水箱,北分署,北分署１管区,023-201-29,213011003,大和市つきみ野三丁目１－１ ,神奈川県,大和市,つきみ野,三丁目,1,1,,公設,35.5050437,139.4541074
防火水槽,Watar Tank,Bōkasuisō,防火水槽,ぼうかすいそう,cistermas,消防水箱,北分署,北分署１管区,023-201-30,213010004,大和市中央林間四丁目１４ ,神奈川県,大和市,中央林間,四丁目,14,,中央林間児童遊園,公設,35.50816962,139.4456654
防火水槽,Watar Tank,Bōkasuisō,防火水槽,ぼうかすいそう,cistermas,消防水箱,北分署,北分署１管区,023-201-31,213011005,大和市つきみ野五丁目３ ,神奈川県,大和市,つきみ野,五丁目,3,,つきみ野文化会館,公設,35.51055348,139.4544631
防火水槽,Watar Tank,Bōkasuisō,防火水槽,ぼうかすいそう,cistermas,消防水箱,北分署,北分署１管区,023-201-32,213010004,大和市中央林間四丁目６ ,神奈川県,大和市,中央林間,四丁目,6,,東急中央林間駅東口,公設,35.50736763,139.4451886
防火水槽,Watar Tank,Bōkasuisō,防火水槽,ぼうかすいそう,cistermas,消防水箱,北分署,北分署１管区,023-201-33,213011005,大和市つきみ野五丁目７－１１ ,神奈川県,大和市,つきみ野,五丁目,7,11,東急ドエルつきみ野セドラス,公設,35.51047595,139.4569943
防火水槽,Watar Tank,Bōkasuisō,防火水槽,ぼうかすいそう,cistermas,消防水箱,北分署,北分署１管区,023-201-34,213010004,大和市中央林間四丁目７ ,神奈川県,大和市,中央林間,四丁目,7,,東急ドエル中央林間エクシｰドA棟,公設,35.50630486,139.4453253
防火水槽,Watar Tank,Bōkasuisō,防火水槽,ぼうかすいそう,cistermas,消防水箱,北分署,北分署１管区,023-201-35,213011004,大和市つきみ野四丁目２ ,神奈川県,大和市,つきみ野,四丁目,2,,東急ドエル中央林間エクシｰドB棟,公設,35.50598859,139.4443579
防火水槽,Watar Tank,Bōkasuisō,防火水槽,ぼうかすいそう,cistermas,消防水箱,北分署,北分署１管区,023-201-36,213011007,大和市つきみ野七丁目１４ ,神奈川県,大和市,つきみ野,七丁目,14,,つきみ野３号公園,公設,35.51376973,139.4557037
防火水槽,Watar Tank,Bōkasuisō,防火水槽,ぼうかすいそう,cistermas,消防水箱,北分署,北分署１管区,023-201-37,213011008,大和市つきみ野八丁目３－１ ,神奈川県,大和市,つきみ野,,3,1,つきみ野９号公園,公設,35.51639264,139.4505541
防火水槽,Watar Tank,Bōkasuisō,防火水槽,ぼうかすいそう,cistermas,消防水箱,北分署,北分署１管区,023-201-38,213011008,大和市つきみ野八丁目１１ ,神奈川県,大和市,つきみ野,八丁目,11,,つきみ野２号公園,公設,35.51661288,139.4532908
防火水槽,Watar Tank,Bōkasuisō,防火水槽,ぼうかすいそう,cistermas,消防水箱,北分署,北分署１管区,023-201-39,213011001,大和市つきみ野一丁目４ ,神奈川県,大和市,つきみ野,一丁目,4,,つきみ野10号公園,公設,35.50521308,139.4565861
防火水槽,Watar Tank,Bōkasuisō,防火水槽,ぼうかすいそう,cistermas,消防水箱,北分署,北分署１管区,023-201-40,213011001,大和市つきみ野一丁目１２ ,神奈川県,大和市,つきみ野,一丁目,12,,つきみ野５号公園,公設,35.50480319,139.4593314
防火水槽,Watar Tank,Bōkasuisō,防火水槽,ぼうかすいそう,cistermas,消防水箱,北分署,北分署１管区,023-201-41,213011006,大和市つきみ野六丁目２－１０ ,神奈川県,大和市,つきみ野,六丁目,2,10,つきみ野６号公園,公設,35.51280356,139.4531684
防火水槽,Watar Tank,Bōkasuisō,防火水槽,ぼうかすいそう,cistermas,消防水箱,北分署,北分署１管区,023-201-42,213011003,大和市つきみ野三丁目１６ ,神奈川県,大和市,つきみ野,三丁目,16,,つきみ野４号公園,公設,35.5062461,139.4572454
防火水槽,Watar Tank,Bōkasuisō,防火水槽,ぼうかすいそう,cistermas,消防水箱,北分署,北分署１管区,023-201-43,213010006,大和市中央林間六丁目４３７７－３１ ,神奈川県,大和市,中央林間,六丁目,4377,31,セ・パルレ中央林間公園内　（公園）,公設,35.51011687,139.4459273
防火水槽,Watar Tank,Bōkasuisō,防火水槽,ぼうかすいそう,cistermas,消防水箱,北分署,北分署１管区,023-201-44,213005000,大和市下鶴間２１２ ,神奈川県,大和市,下鶴間,,212,,高木地区公園,公設,35.51885477,139.4591047
防火水槽,Watar Tank,Bōkasuisō,防火水槽,ぼうかすいそう,cistermas,消防水箱,北分署,北分署１管区,023-201-45,213005000,大和市下鶴間７５３ ,神奈川県,大和市,下鶴間,,753,,山谷地区公園,公設,35.50872049,139.465244
防火水槽,Watar Tank,Bōkasuisō,防火水槽,ぼうかすいそう,cistermas,消防水箱,北分署,北分署１管区,023-201-46,213011003,大和市つきみ野三丁目１－５ ,神奈川県,大和市,つきみ野,三丁目,1,5,宅地造成道路上,公設,35.50590623,139.4545578
防火水槽,Watar Tank,Bōkasuisō,防火水槽,ぼうかすいそう,cistermas,消防水箱,北分署,北分署１管区,023-201-47,213005000,大和市下鶴間７９３ ,神奈川県,大和市,下鶴間,,793,,松の久保土地区画,公設,35.50604717,139.466286
防火水槽,Watar Tank,Bōkasuisō,防火水槽,ぼうかすいそう,cistermas,消防水箱,北分署,北分署２管区,023-202-1,213022002,大和市林間二丁目６－１１ ,神奈川県,大和市,林間,二丁目,6,11,D　グラフォート中央林間,公設,35.49903568,139.4472176
防火水槽,Watar Tank,Bōkasuisō,防火水槽,ぼうかすいそう,cistermas,消防水箱,北分署,北分署２管区,023-202-2,213022001,大和市林間一丁目５ ,神奈川県,大和市,林間,一丁目,5,,市立林間小学校,公設,35.49587243,139.4494257
防火水槽,Watar Tank,Bōkasuisō,防火水槽,ぼうかすいそう,cistermas,消防水箱,北分署,北分署２管区,023-202-3,213005000,大和市下鶴間２９９５ ,神奈川県,大和市,下鶴間,,2995,,山王原子供広場,公設,35.49782192,139.456026
防火水槽,Watar Tank,Bōkasuisō,防火水槽,ぼうかすいそう,cistermas,消防水箱,北分署,北分署２管区,023-202-4,213005000,大和市下鶴間２７７７－４ ,神奈川県,大和市,下鶴間,,2777,4,リラの丘公園,公設,35.49266978,139.4566384
防火水槽,Watar Tank,Bōkasuisō,防火水槽,ぼうかすいそう,cistermas,消防水箱,北分署,北分署２管区,023-202-5,213012002,大和市鶴間二丁目３１１４－１１ ,神奈川県,大和市,鶴間,二丁目,3114,11,鶴間２号児童遊園,公設,35.49121651,139.4525721
防火水槽,Watar Tank,Bōkasuisō,防火水槽,ぼうかすいそう,cistermas,消防水箱,北分署,北分署２管区,023-202-6,213005000,大和市下鶴間２９６６ ,神奈川県,大和市,下鶴間,,2966,,山王社,公設,35.4973493,139.4588777
防火水槽,Watar Tank,Bōkasuisō,防火水槽,ぼうかすいそう,cistermas,消防水箱,北分署,北分署２管区,023-202-7,213005000,大和市下鶴間２８８１ ,神奈川県,大和市,下鶴間,,2881,,諏訪神社,公設,35.49791207,139.4613742
防火水槽,Watar Tank,Bōkasuisō,防火水槽,ぼうかすいそう,cistermas,消防水箱,北分署,北分署２管区,023-202-8,213005000,大和市下鶴間２８５０ ,神奈川県,大和市,下鶴間,,2850,,クリナ－ズ東京,公設,35.49488899,139.4603953
防火水槽,Watar Tank,Bōkasuisō,防火水槽,ぼうかすいそう,cistermas,消防水箱,北分署,北分署２管区,023-202-9,213012002,大和市鶴間二丁目１２－３５ ,神奈川県,大和市,鶴間,二丁目,12,35,コミセン鶴間会館,公設,35.49104492,139.4547717
防火水槽,Watar Tank,Bōkasuisō,防火水槽,ぼうかすいそう,cistermas,消防水箱,北分署,北分署２管区,023-202-10,213005000,大和市下鶴間２９７５ ,神奈川県,大和市,下鶴間,,2975,,,公設,35.49889355,139.4561423
防火水槽,Watar Tank,Bōkasuisō,防火水槽,ぼうかすいそう,cistermas,消防水箱,北分署,北分署２管区,023-202-11,213022002,大和市林間二丁目６－４１ ,神奈川県,大和市,林間,二丁目,6,41,ソフトタウン南林間,公設,35.50103012,139.4477036
防火水槽,Watar Tank,Bōkasuisō,防火水槽,ぼうかすいそう,cistermas,消防水箱,北分署,北分署２管区,023-202-12,213022001,大和市林間一丁目１９－１６ ,神奈川県,大和市,林間,一丁目,19,16,,公設,35.49739507,139.4519132
防火水槽,Watar Tank,Bōkasuisō,防火水槽,ぼうかすいそう,cistermas,消防水箱,北分署,北分署２管区,023-202-13,213005000,大和市下鶴間３０１６ ,神奈川県,大和市,下鶴間,,3016,,市立鶴間中学校,公設,35.49601688,139.4552475
防火水槽,Watar Tank,Bōkasuisō,防火水槽,ぼうかすいそう,cistermas,消防水箱,北分署,北分署２管区,023-202-14,213005000,大和市下鶴間１８５３－１５ ,神奈川県,大和市,下鶴間,,1853,15,,公設,35.50089028,139.46017
防火水槽,Watar Tank,Bōkasuisō,防火水槽,ぼうかすいそう,cistermas,消防水箱,北分署,北分署２管区,023-202-15,213005000,大和市下鶴間１７８４－３２ ,神奈川県,大和市,下鶴間,,1789,32,スカイラ－ク南林間店,公設,35.50120453,139.45135
防火水槽,Watar Tank,Bōkasuisō,防火水槽,ぼうかすいそう,cistermas,消防水箱,北分署,北分署２管区,023-202-16,213022001,大和市林間一丁目１５－７ ,神奈川県,大和市,林間,一丁目,15,7,㈲マックス21,公設,35.49507907,139.4522839
防火水槽,Watar Tank,Bōkasuisō,防火水槽,ぼうかすいそう,cistermas,消防水箱,北分署,北分署２管区,023-202-17,213005000,大和市下鶴間２３５９ ,神奈川県,大和市,下鶴間,,2359,,第２分団,公設,35.50070762,139.4642964
防火水槽,Watar Tank,Bōkasuisō,防火水槽,ぼうかすいそう,cistermas,消防水箱,北分署,北分署２管区,023-202-18,213005000,大和市下鶴間２３５４－９ ,神奈川県,大和市,下鶴間,,2354,9,宿町自治会館,公設,35.50119089,139.4652025
防火水槽,Watar Tank,Bōkasuisō,防火水槽,ぼうかすいそう,cistermas,消防水箱,北分署,北分署２管区,023-202-19,213012002,大和市鶴間二丁目１５－１２ ,神奈川県,大和市,鶴間,二丁目,15,12,ふるみち公園,公設,35.49402213,139.4521428
防火水槽,Watar Tank,Bōkasuisō,防火水槽,ぼうかすいそう,cistermas,消防水箱,北分署,北分署２管区,023-202-20,213005000,大和市下鶴間２８７１－１ ,神奈川県,大和市,下鶴間,,2871,1,,公設,35.49724218,139.4602452
防火水槽,Watar Tank,Bōkasuisō,防火水槽,ぼうかすいそう,cistermas,消防水箱,北分署,北分署２管区,023-202-21,213005000,大和市下鶴間１９４５ ,神奈川県,大和市,下鶴間,,1945,,目黒公園,公設,35.50189464,139.4626431
防火水槽,Watar Tank,Bōkasuisō,防火水槽,ぼうかすいそう,cistermas,消防水箱,北分署,北分署２管区,023-202-22,213005000,大和市下鶴間２０５０－３ ,神奈川県,大和市,下鶴間,,2050,3,コトｰつきみ野モンヴラｰジュ,公設,35.50397109,139.4637507
防火水槽,Watar Tank,Bōkasuisō,防火水槽,ぼうかすいそう,cistermas,消防水箱,北分署,北分署２管区,023-202-23,213005000,大和市下鶴間１７８６－１ ,神奈川県,大和市,下鶴間,,1786,1,ライオンズマンション中央林間坂上2号公園,公設,35.50085991,139.45232
防火水槽,Watar Tank,Bōkasuisō,防火水槽,ぼうかすいそう,cistermas,消防水箱,北分署,北分署２管区,023-202-24,213005000,大和市下鶴間２９５２ ,神奈川県,大和市,下鶴間,,2952,,山王原公園,公設,35.49552093,139.4570352
防火水槽,Watar Tank,Bōkasuisō,防火水槽,ぼうかすいそう,cistermas,消防水箱,北分署,北分署２管区,023-202-25,213005000,大和市下鶴間２５７０－１ ,神奈川県,大和市,下鶴間,,2570,1,ダイアパレス鶴間,公設,35.49441984,139.4628471
防火水槽,Watar Tank,Bōkasuisō,防火水槽,ぼうかすいそう,cistermas,消防水箱,北分署,北分署２管区,023-202-26,213005000,大和市下鶴間２７８６－４ ,神奈川県,大和市,下鶴間,,2786,4,山王原西公園,公設,35.49380973,139.4554304
防火水槽,Watar Tank,Bōkasuisō,防火水槽,ぼうかすいそう,cistermas,消防水箱,北分署,北分署２管区,023-202-27,213005000,大和市下鶴間２５００－７ ,神奈川県,大和市,下鶴間,,2500,7,両替山公園,公設,35.49541118,139.4621813
防火水槽,Watar Tank,Bōkasuisō,防火水槽,ぼうかすいそう,cistermas,消防水箱,北分署,北分署２管区,023-202-28,213005000,大和市下鶴間１８２６ ,神奈川県,大和市,下鶴間,,1826,,坂上公園,公設,35.50034758,139.4575457
防火水槽,Watar Tank,Bōkasuisō,防火水槽,ぼうかすいそう,cistermas,消防水箱,北分署,北分署２管区,023-202-29,213022002,大和市林間二丁目３２７０－７３ ,神奈川県,大和市,林間,二丁目,3207,73,林間１号公園,公設,35.5001762,139.4479917
防火水槽,Watar Tank,Bōkasuisō,防火水槽,ぼうかすいそう,cistermas,消防水箱,北分署,北分署３管区,023-203-1,213010005,大和市中央林間五丁目１６－１４ ,神奈川県,大和市,中央林間,五丁目,16,14,,公設,35.5095378,139.4399506
防火水槽,Watar Tank,Bōkasuisō,防火水槽,ぼうかすいそう,cistermas,消防水箱,北分署,北分署３管区,023-203-2,213010005,大和市中央林間五丁目７－１３ ,神奈川県,大和市,中央林間,五丁目,7,13,セリ－ヌ中央林間,公設,35.50972489,139.4421632
防火水槽,Watar Tank,Bōkasuisō,防火水槽,ぼうかすいそう,cistermas,消防水箱,北分署,北分署３管区,023-203-3,213010005,大和市中央林間五丁目１ ,神奈川県,大和市,中央林間,五丁目,1,,中央林間交番,公設,35.5088634,139.4437461
防火水槽,Watar Tank,Bōkasuisō,防火水槽,ぼうかすいそう,cistermas,消防水箱,北分署,北分署３管区,023-203-4,213026004,大和市中央林間西四丁目３０－２２ ,神奈川県,大和市,中央林間,四丁目,30,22,フォ－ウル青木,公設,35.50615624,139.4397105
防火水槽,Watar Tank,Bōkasuisō,防火水槽,ぼうかすいそう,cistermas,消防水箱,北分署,北分署３管区,023-203-5,213010001,大和市中央林間一丁目４ ,神奈川県,大和市,中央林間,一丁目,4,,市営緑野住宅３号棟,公設,35.50458344,139.443668
防火水槽,Watar Tank,Bōkasuisō,防火水槽,ぼうかすいそう,cistermas,消防水箱,北分署,北分署３管区,023-203-6,213010001,大和市中央林間一丁目１０－１５ ,神奈川県,大和市,中央林間,一丁目,10,15,サトウ理容店,公設,35.50234022,139.4424743
防火水槽,Watar Tank,Bōkasuisō,防火水槽,ぼうかすいそう,cistermas,消防水箱,北分署,北分署３管区,023-203-7,213026005,大和市中央林間西五丁目１－１９ ,神奈川県,大和市,中央林間,五丁目,1,19,鶴間新町自治会館,公設,35.50122819,139.4387688
防火水槽,Watar Tank,Bōkasuisō,防火水槽,ぼうかすいそう,cistermas,消防水箱,北分署,北分署３管区,023-203-8,213026001,大和市中央林間西一丁目８－６ ,神奈川県,大和市,中央林間,一丁目,8,6,ニュースプリングハイツ,公設,35.49953269,139.442015
防火水槽,Watar Tank,Bōkasuisō,防火水槽,ぼうかすいそう,cistermas,消防水箱,北分署,北分署３管区,023-203-9,213018008,大和市南林間八丁目２３－３ ,神奈川県,大和市,南林間,八丁目,23,3,,公設,35.49487079,139.4380108
防火水槽,Watar Tank,Bōkasuisō,防火水槽,ぼうかすいそう,cistermas,消防水箱,北分署,北分署３管区,023-203-10,213026004,大和市中央林間西四丁目２６－９ ,神奈川県,大和市,中央林間,四丁目,26,9,グリーンハイツ,公設,35.50446561,139.4393359
防火水槽,Watar Tank,Bōkasuisō,防火水槽,ぼうかすいそう,cistermas,消防水箱,北分署,北分署３管区,023-203-11,213010005,大和市中央林間五丁目５ ,神奈川県,大和市,中央林間,五丁目,5,,中央林間２号公園,公設,35.51088207,139.4423626
防火水槽,Watar Tank,Bōkasuisō,防火水槽,ぼうかすいそう,cistermas,消防水箱,北分署,北分署３管区,023-203-12,213018002,大和市南林間二丁目１１－６ ,神奈川県,大和市,林間,二丁目,11,6,洋菓子ボルドン,公設,35.49538394,139.4464179
防火水槽,Watar Tank,Bōkasuisō,防火水槽,ぼうかすいそう,cistermas,消防水箱,北分署,北分署３管区,023-203-13,213026006,大和市中央林間西六丁目９－２５ ,神奈川県,大和市,中央林間,六丁目,9,25,,公設,35.50399861,139.432614
防火水槽,Watar Tank,Bōkasuisō,防火水槽,ぼうかすいそう,cistermas,消防水箱,北分署,北分署３管区,023-203-14,213026006,大和市中央林間西六丁目１０－７ ,神奈川県,大和市,中央林間,六丁目,10,7,,公設,35.50397806,139.4325223
防火水槽,Watar Tank,Bōkasuisō,防火水槽,ぼうかすいそう,cistermas,消防水箱,北分署,北分署３管区,023-203-15,213026004,大和市中央林間西四丁目１１ ,神奈川県,大和市,中央林間,四丁目,11,,緑野緑地,公設,35.50359257,139.4381524
防火水槽,Watar Tank,Bōkasuisō,防火水槽,ぼうかすいそう,cistermas,消防水箱,北分署,北分署３管区,023-203-16,213026005,大和市中央林間西五丁目３ ,神奈川県,大和市,中央林間,五丁目,3,,市立緑野小学校,公設,35.50301717,139.4382152
防火水槽,Watar Tank,Bōkasuisō,防火水槽,ぼうかすいそう,cistermas,消防水箱,北分署,北分署３管区,023-203-17,213018009,大和市南林間九丁目３－２ ,神奈川県,大和市,南林間,九丁目,3,2,市立南林間小学校,公設,35.49690556,139.4370175
防火水槽,Watar Tank,Bōkasuisō,防火水槽,ぼうかすいそう,cistermas,消防水箱,北分署,北分署３管区,023-203-18,213018007,大和市南林間七丁目８ ,神奈川県,大和市,南林間,七丁目,8,,南林間西北公園,公設,35.49313674,139.4392874
防火水槽,Watar Tank,Bōkasuisō,防火水槽,ぼうかすいそう,cistermas,消防水箱,北分署,北分署３管区,023-203-19,213010005,大和市中央林間五丁目５－１３ ,神奈川県,大和市,中央林間,五丁目,5,13,新生どんぐり公園,公設,35.51071079,139.4406569
防火水槽,Watar Tank,Bōkasuisō,防火水槽,ぼうかすいそう,cistermas,消防水箱,北分署,北分署３管区,023-203-20,213018002,大和市南林間二丁目１９ ,神奈川県,大和市,南林間,二丁目,19,,南林間中央公園,公設,35.49546067,139.444255
防火水槽,Watar Tank,Bōkasuisō,防火水槽,ぼうかすいそう,cistermas,消防水箱,北分署,北分署３管区,023-203-21,213026003,大和市中央林間西三丁目９－１０ ,神奈川県,大和市,中央林間,三丁目,9,10,テクノプラザ公園,公設,35.49826176,139.4334863
防火水槽,Watar Tank,Bōkasuisō,防火水槽,ぼうかすいそう,cistermas,消防水箱,北分署,北分署３管区,023-203-22,213026005,大和市中央林間西五丁目２５ ,神奈川県,大和市,中央林間,五丁目,25,,若葉公園内,公設,35.50460741,139.4353593
防火水槽,Watar Tank,Bōkasuisō,防火水槽,ぼうかすいそう,cistermas,消防水箱,北分署,北分署３管区,023-203-23,213010001,大和市中央林間一丁目４２６５－１ ,神奈川県,大和市,中央林間,一丁目,4265,1,やまぼうし公園内,公設,35.50110468,139.4436792
防火水槽,Watar Tank,Bōkasuisō,防火水槽,ぼうかすいそう,cistermas,消防水箱,北分署,北分署３管区,023-203-24,213026005,大和市中央林間西五丁目２ ,神奈川県,大和市,中央林間,五丁目,2,,コンツェルトパーク内,公設,35.50223794,139.4381313
防火水槽,Watar Tank,Bōkasuisō,防火水槽,ぼうかすいそう,cistermas,消防水箱,北分署,北分署３管区,023-203-25,213018002,大和市南林間二丁目４－１ ,神奈川県,大和市,南林間,二丁目,4,1,,公設,35.49791849,139.4467022
防火水槽,Watar Tank,Bōkasuisō,防火水槽,ぼうかすいそう,cistermas,消防水箱,北分署,北分署３管区,023-203-26,213026003,大和市中央林間西三丁目３－２５ ,神奈川県,大和市,中央林間,三丁目,3,25,オアシスパーク,公設,35.50552959,139.4433071
防火水槽,Watar Tank,Bōkasuisō,防火水槽,ぼうかすいそう,cistermas,消防水箱,北分署,北分署３管区,023-203-27,213018007,大和市南林間七丁目３６７９ ,神奈川県,大和市,南林間,七丁目,3679,,やすらぎの杜公園,公設,35.49280162,139.4371504
防火水槽,Watar Tank,Bōkasuisō,防火水槽,ぼうかすいそう,cistermas,消防水箱,北分署,北分署４管区,023-204-1,213018006,大和市南林間六丁目２０－１２ ,神奈川県,大和市,南林間,六丁目,20,12,,公設,35.49034637,139.4377279
防火水槽,Watar Tank,Bōkasuisō,防火水槽,ぼうかすいそう,cistermas,消防水箱,北分署,北分署４管区,023-204-2,213013001,大和市西鶴間一丁目１－１ ,神奈川県,大和市,西鶴間,一丁目,1,1,小田急線鶴間駅西口,公設,35.48983408,139.4508442
防火水槽,Watar Tank,Bōkasuisō,防火水槽,ぼうかすいそう,cistermas,消防水箱,北分署,北分署４管区,023-204-3,213018006,大和市南林間六丁目２２－２７ ,神奈川県,大和市,南林間,六丁目,22,27,,公設,35.49160853,139.4387797
防火水槽,Watar Tank,Bōkasuisō,防火水槽,ぼうかすいそう,cistermas,消防水箱,北分署,北分署４管区,023-204-4,213013008,大和市西鶴間八丁目５－２４ ,神奈川県,大和市,西鶴間,八丁目,5,24,,公設,35.4850526,139.4394924
防火水槽,Watar Tank,Bōkasuisō,防火水槽,ぼうかすいそう,cistermas,消防水箱,北分署,北分署４管区,023-204-5,213018006,大和市南林間六丁目８ ,神奈川県,大和市,南林間,六丁目,8,,南林間２号児童公園,公設,35.48900995,139.4409791
防火水槽,Watar Tank,Bōkasuisō,防火水槽,ぼうかすいそう,cistermas,消防水箱,北分署,北分署４管区,023-204-6,213013002,大和市西鶴間二丁目１１－２８ ,神奈川県,大和市,西鶴間,二丁目,11,28,ドルミ鶴間,公設,35.48759686,139.4478242
防火水槽,Watar Tank,Bōkasuisō,防火水槽,ぼうかすいそう,cistermas,消防水箱,北分署,北分署４管区,023-204-7,213013006,大和市西鶴間六丁目２８－１４ ,神奈川県,大和市,西鶴間,六丁目,28,14,,公設,35.48714849,139.4406389
防火水槽,Watar Tank,Bōkasuisō,防火水槽,ぼうかすいそう,cistermas,消防水箱,北分署,北分署４管区,023-204-8,213018004,大和市南林間四丁目１５－２４ ,神奈川県,大和市,南林間,四丁目,15,24,レオパレス南林間第３,公設,35.49299275,139.4430524
防火水槽,Watar Tank,Bōkasuisō,防火水槽,ぼうかすいそう,cistermas,消防水箱,北分署,北分署４管区,023-204-9,213013006,大和市西鶴間六丁目１１－２０ ,神奈川県,大和市,西鶴間,六丁目,11,20,,公設,35.48931897,139.4433961
防火水槽,Watar Tank,Bōkasuisō,防火水槽,ぼうかすいそう,cistermas,消防水箱,北分署,北分署４管区,023-204-10,213013002,大和市西鶴間二丁目２６ ,神奈川県,大和市,西鶴間,二丁目,26,,コ－ポ下鶴間２号棟,公設,35.48704924,139.4452461
防火水槽,Watar Tank,Bōkasuisō,防火水槽,ぼうかすいそう,cistermas,消防水箱,北分署,北分署４管区,023-204-11,213018001,大和市南林間一丁目１５－１１ ,神奈川県,大和市,南林間,一丁目,15,11,岩崎理容室,公設,35.49264941,139.4459283
防火水槽,Watar Tank,Bōkasuisō,防火水槽,ぼうかすいそう,cistermas,消防水箱,北分署,北分署４管区,023-204-12,213013008,大和市西鶴間八丁目４ ,神奈川県,大和市,西鶴間,八丁目,4,,間島石材作業場,公設,35.48489319,139.4397391
防火水槽,Watar Tank,Bōkasuisō,防火水槽,ぼうかすいそう,cistermas,消防水箱,北分署,北分署４管区,023-204-13,213013002,大和市西鶴間二丁目１１－８ ,神奈川県,大和市,西鶴間,二丁目,11,8,,公設,35.48833775,139.4467917
防火水槽,Watar Tank,Bōkasuisō,防火水槽,ぼうかすいそう,cistermas,消防水箱,北分署,北分署４管区,023-204-14,213013007,大和市西鶴間七丁目７－１３ ,神奈川県,大和市,西鶴間,七丁目,7,13,,公設,35.48725934,139.4387138
防火水槽,Watar Tank,Bōkasuisō,防火水槽,ぼうかすいそう,cistermas,消防水箱,北分署,北分署４管区,023-204-15,213013006,大和市西鶴間六丁目１１－１３ ,神奈川県,大和市,西鶴間,六丁目,11,13,,公設,35.4896514,139.4427509
防火水槽,Watar Tank,Bōkasuisō,防火水槽,ぼうかすいそう,cistermas,消防水箱,北分署,北分署４管区,023-204-16,213013006,大和市西鶴間六丁目１－１ ,神奈川県,大和市,西鶴間,六丁目,1,1,ガスト大和鶴間店,公設,35.48642553,139.4445545
防火水槽,Watar Tank,Bōkasuisō,防火水槽,ぼうかすいそう,cistermas,消防水箱,北分署,北分署４管区,023-204-17,213013002,大和市西鶴間二丁目１８ ,神奈川県,大和市,西鶴間,二丁目,18,,,公設,35.48891488,139.4444988
防火水槽,Watar Tank,Bōkasuisō,防火水槽,ぼうかすいそう,cistermas,消防水箱,北分署,北分署４管区,023-204-18,213013002,大和市西鶴間二丁目２５ ,神奈川県,大和市,西鶴間,二丁目,25,,西鶴間４号公園,公設,35.48854526,139.4443519
防火水槽,Watar Tank,Bōkasuisō,防火水槽,ぼうかすいそう,cistermas,消防水箱,北分署,北分署４管区,023-204-19,213018006,大和市南林間六丁目６ ,神奈川県,大和市,南林間,六丁目,6,,南林間１号公園,公設,35.49062731,139.4412949
防火水槽,Watar Tank,Bōkasuisō,防火水槽,ぼうかすいそう,cistermas,消防水箱,北分署,北分署４管区,023-204-20,213013002,大和市西鶴間二丁目２６ ,神奈川県,大和市,西鶴間,二丁目,26,,西鶴間２号公園,公設,35.48767321,139.4464565
防火水槽,Watar Tank,Bōkasuisō,防火水槽,ぼうかすいそう,cistermas,消防水箱,北分署,北分署４管区,023-204-21,213013007,大和市西鶴間七丁目７ ,神奈川県,大和市,西鶴間,七丁目,7,,西鶴間７丁目児童公園,公設,35.48741261,139.4397515
防火水槽,Watar Tank,Bōkasuisō,防火水槽,ぼうかすいそう,cistermas,消防水箱,北分署,北分署４管区,023-204-22,213013001,大和市西鶴間一丁目２４ ,神奈川県,大和市,西鶴間,一丁目,24,,西鶴間１丁目公園,公設,35.49114396,139.4477607
防火水槽,Watar Tank,Bōkasuisō,防火水槽,ぼうかすいそう,cistermas,消防水箱,北分署,北分署４管区,023-204-23,213013006,大和市西鶴間六丁目２４ ,神奈川県,大和市,西鶴間,六丁目,24,,西鶴間６丁目２号児童公園,公設,35.48558023,139.4413017
防火水槽,Watar Tank,Bōkasuisō,防火水槽,ぼうかすいそう,cistermas,消防水箱,北分署,北分署４管区,023-204-24,213018006,大和市南林間六丁目１７ ,神奈川県,大和市,南林間,六丁目,17,,南林間６丁目児童遊園,公設,35.48980925,139.4388529
防火水槽,Watar Tank,Bōkasuisō,防火水槽,ぼうかすいそう,cistermas,消防水箱,北分署,北分署４管区,023-204-25,213013002,大和市西鶴間二丁目１８ ,神奈川県,大和市,西鶴間,二丁目,18,,西鶴間５号公園,公設,35.48898681,139.4445755
防火水槽,Watar Tank,Bōkasuisō,防火水槽,ぼうかすいそう,cistermas,消防水箱,北分署,北分署４管区,023-204-26,213018004,大和市南林間四丁目９ ,神奈川県,大和市,南林間,四丁目,9,,南林間４丁目公園,公設,35.49196409,139.4444432
防火水槽,Watar Tank,Bōkasuisō,防火水槽,ぼうかすいそう,cistermas,消防水箱,北分署,北分署４管区,023-204-27,213013002,大和市西鶴間二丁目４ ,神奈川県,大和市,西鶴間,二丁目,4,,西鶴間２丁目公園,公設,35.48956327,139.4476169
防火水槽,Watar Tank,Bōkasuisō,防火水槽,ぼうかすいそう,cistermas,消防水箱,南分署,南分署１管区,024-301-1,213014000,大和市深見３５３９ ,神奈川県,大和市,深見,,3539,,,公設,35.46329895,139.4687179
防火水槽,Watar Tank,Bōkasuisō,防火水槽,ぼうかすいそう,cistermas,消防水箱,南分署,南分署１管区,024-301-2,213014000,大和市深見３９１９ ,神奈川県,大和市,深見,,3919,,細田産業㈱大和営業所 (作業用品),公設,35.4620119,139.4675658
防火水槽,Watar Tank,Bōkasuisō,防火水槽,ぼうかすいそう,cistermas,消防水箱,南分署,南分署１管区,024-301-3,213014000,大和市深見３７０７ ,神奈川県,大和市,深見,,3707,,かしま１号公園,公設,35.46147903,139.4712168
防火水槽,Watar Tank,Bōkasuisō,防火水槽,ぼうかすいそう,cistermas,消防水箱,南分署,南分署１管区,024-301-4,213002000,大和市上和田８３２ ,神奈川県,大和市,上和田,,832,,市立桜ヶ丘小学校,公設,35.45241718,139.4683083
防火水槽,Watar Tank,Bōkasuisō,防火水槽,ぼうかすいそう,cistermas,消防水箱,南分署,南分署１管区,024-301-5,213002000,大和市上和田９５８ ,神奈川県,大和市,上和田,,958,,金比羅神社,公設,35.45063404,139.466992
防火水槽,Watar Tank,Bōkasuisō,防火水槽,ぼうかすいそう,cistermas,消防水箱,南分署,南分署１管区,024-301-6,213002000,大和市上和田９８７ ,神奈川県,大和市,上和田,,987,,桜ヶ丘交差点 (467号線),公設,35.44952173,139.467637
防火水槽,Watar Tank,Bōkasuisō,防火水槽,ぼうかすいそう,cistermas,消防水箱,南分署,南分署１管区,024-301-7,213002000,大和市上和田１４８０－１ ,神奈川県,大和市,上和田,,1480,1,宮久保２号公園,公設,35.44839434,139.4779922
防火水槽,Watar Tank,Bōkasuisō,防火水槽,ぼうかすいそう,cistermas,消防水箱,南分署,南分署１管区,024-301-8,213002000,大和市上和田１８３６ ,神奈川県,大和市,上和田,,1835,,,公設,35.44546263,139.4684266
防火水槽,Watar Tank,Bōkasuisō,防火水槽,ぼうかすいそう,cistermas,消防水箱,南分署,南分署１管区,024-301-9,213002000,大和市上和田２５７７ ,神奈川県,大和市,上和田,,2577,,,公設,35.44150853,139.4734448
防火水槽,Watar Tank,Bōkasuisō,防火水槽,ぼうかすいそう,cistermas,消防水箱,南分署,南分署１管区,024-301-10,213002000,大和市上和田１７２０ ,神奈川県,大和市,上和田,,1720,,,公設,35.44952959,139.4694176
防火水槽,Watar Tank,Bōkasuisō,防火水槽,ぼうかすいそう,cistermas,消防水箱,南分署,南分署１管区,024-301-11,213002000,大和市上和田１６６３ ,神奈川県,大和市,上和田,,1663,,宝幸水産㈱･ロルフ大和工場,公設,35.44843433,139.471782
防火水槽,Watar Tank,Bōkasuisō,防火水槽,ぼうかすいそう,cistermas,消防水箱,南分署,南分署１管区,024-301-12,213016000,大和市福田２５８９ ,神奈川県,大和市,福田,,2589,,コ－プかながわ・福田店,公設,35.44472456,139.4665131
防火水槽,Watar Tank,Bōkasuisō,防火水槽,ぼうかすいそう,cistermas,消防水箱,南分署,南分署１管区,024-301-13,213002000,大和市上和田２０７７ ,神奈川県,大和市,上和田,,2077,,鹿島建設㈱・東門,公設,35.44704343,139.4741041
防火水槽,Watar Tank,Bōkasuisō,防火水槽,ぼうかすいそう,cistermas,消防水箱,南分署,南分署１管区,024-301-14,213016000,大和市福田５６７６－１８ ,神奈川県,大和市,福田,,5676,18,山口住設,公設,35.45450737,139.4667405
防火水槽,Watar Tank,Bōkasuisō,防火水槽,ぼうかすいそう,cistermas,消防水箱,南分署,南分署１管区,024-301-15,213014000,大和市深見３６１４－５ ,神奈川県,大和市,深見,,3614,5,,公設,35.46237582,139.470807
防火水槽,Watar Tank,Bōkasuisō,防火水槽,ぼうかすいそう,cistermas,消防水箱,南分署,南分署１管区,024-301-16,213002000,大和市上和田１１９１－１ ,神奈川県,大和市,上和田,,1191,1,第１０分団３班,公設,35.45207602,139.4741737
防火水槽,Watar Tank,Bōkasuisō,防火水槽,ぼうかすいそう,cistermas,消防水箱,南分署,南分署１管区,024-301-17,213002000,大和市上和田２１５３－３３ ,神奈川県,大和市,上和田,,2153,33,,公設,35.44457042,139.4784834
防火水槽,Watar Tank,Bōkasuisō,防火水槽,ぼうかすいそう,cistermas,消防水箱,南分署,南分署１管区,024-301-18,213002000,大和市上和田９３０－４ ,神奈川県,大和市,上和田,,930,4,朝倉,公設,35.45173759,139.4689591
防火水槽,Watar Tank,Bōkasuisō,防火水槽,ぼうかすいそう,cistermas,消防水箱,南分署,南分署１管区,024-301-19,213002000,大和市上和田１８２４－１９ ,神奈川県,大和市,上和田,,1824,19,日本通運㈱大和支店,公設,35.44366001,139.4675067
防火水槽,Watar Tank,Bōkasuisō,防火水槽,ぼうかすいそう,cistermas,消防水箱,南分署,南分署１管区,024-301-20,213002000,大和市上和田１２５１ ,神奈川県,大和市,上和田,,1251,,宮久保１号公園,公設,35.45167444,139.4775263
防火水槽,Watar Tank,Bōkasuisō,防火水槽,ぼうかすいそう,cistermas,消防水箱,南分署,南分署１管区,024-301-21,213002000,大和市上和田９４７－５ ,神奈川県,大和市,上和田,,947,5,第１０分団１班,公設,35.45108872,139.4674487
防火水槽,Watar Tank,Bōkasuisō,防火水槽,ぼうかすいそう,cistermas,消防水箱,南分署,南分署１管区,024-301-22,213002000,大和市上和田４３３ ,神奈川県,大和市,上和田,,433,,新道１号公園,公設,35.45616487,139.4740782
防火水槽,Watar Tank,Bōkasuisō,防火水槽,ぼうかすいそう,cistermas,消防水箱,南分署,南分署１管区,024-301-23,213002000,大和市上和田８０４ ,神奈川県,大和市,上和田,,804,,久田自治会館,公設,35.45380326,139.4727095
防火水槽,Watar Tank,Bōkasuisō,防火水槽,ぼうかすいそう,cistermas,消防水箱,南分署,南分署１管区,024-301-24,213002000,大和市上和田１９１ ,神奈川県,大和市,上和田,,191,,かしま３号公園,公設,35.45941688,139.4730712
防火水槽,Watar Tank,Bōkasuisō,防火水槽,ぼうかすいそう,cistermas,消防水箱,南分署,南分署１管区,024-301-25,213014000,大和市深見３９２７－２ ,神奈川県,大和市,深見,,3927,2,なかよし公園,公設,35.46201131,139.4662736
防火水槽,Watar Tank,Bōkasuisō,防火水槽,ぼうかすいそう,cistermas,消防水箱,南分署,南分署１管区,024-301-26,213002000,大和市上和田１３２３ ,神奈川県,大和市,上和田,,1323,,上和田宮久保造成地,公設,35.44751363,139.4795615
防火水槽,Watar Tank,Bōkasuisō,防火水槽,ぼうかすいそう,cistermas,消防水箱,南分署,南分署２管区,024-302-1,213006000,大和市下和田１２９１ ,神奈川県,大和市,下和田,,1291,,コ－ポコトブキ,公設,35.43399142,139.4694567
防火水槽,Watar Tank,Bōkasuisō,防火水槽,ぼうかすいそう,cistermas,消防水箱,南分署,南分署２管区,024-302-2,213006000,大和市下和田９２９ ,神奈川県,大和市,下和田,,929,,渋谷５号公園（予定地）,公設,35.43055922,139.4675068
防火水槽,Watar Tank,Bōkasuisō,防火水槽,ぼうかすいそう,cistermas,消防水箱,南分署,南分署２管区,024-302-4,213002000,大和市上和田３３２４－１ ,神奈川県,大和市,上和田,,3324,1,,公設,35.43560604,139.4711275
防火水槽,Watar Tank,Bōkasuisō,防火水槽,ぼうかすいそう,cistermas,消防水箱,南分署,南分署２管区,024-302-5,213025001,大和市渋谷一丁目９ ,神奈川県,大和市,渋谷,一丁目,9,,,公設,35.43741198,139.465501
防火水槽,Watar Tank,Bōkasuisō,防火水槽,ぼうかすいそう,cistermas,消防水箱,南分署,南分署２管区,024-302-6,213006000,大和市下和田８９３ ,神奈川県,大和市,下和田,,893,,,公設,35.4278681,139.4667388
防火水槽,Watar Tank,Bōkasuisō,防火水槽,ぼうかすいそう,cistermas,消防水箱,南分署,南分署２管区,024-302-7,213016000,大和市福田２３６４ ,神奈川県,大和市,福田,,2364,,日神パレステ-ジ桜ヶ丘 ポケットパ-ク,公設,35.44064386,139.4659234
防火水槽,Watar Tank,Bōkasuisō,防火水槽,ぼうかすいそう,cistermas,消防水箱,南分署,南分署２管区,024-302-9,213006000,大和市下和田１２１１ 78街区,神奈川県,大和市,下和田,,1211,78,渋谷６号公園,公設,35.43387186,139.4663696
防火水槽,Watar Tank,Bōkasuisō,防火水槽,ぼうかすいそう,cistermas,消防水箱,南分署,南分署２管区,024-302-10,213006000,大和市下和田２６２ ,神奈川県,大和市,下和田,,262,,いちょう団地59号棟,公設,35.42513774,139.4709437
防火水槽,Watar Tank,Bōkasuisō,防火水槽,ぼうかすいそう,cistermas,消防水箱,南分署,南分署２管区,024-302-11,213006000,大和市下和田１０８７ ,神奈川県,大和市,下和田,,1087,,,公設,35.42920253,139.4701653
防火水槽,Watar Tank,Bōkasuisō,防火水槽,ぼうかすいそう,cistermas,消防水箱,南分署,南分署２管区,024-302-12,213002000,大和市上和田２６９５ ,神奈川県,大和市,上和田,,2695,,市立上和田小学校,公設,35.4407041,139.4705161
防火水槽,Watar Tank,Bōkasuisō,防火水槽,ぼうかすいそう,cistermas,消防水箱,南分署,南分署２管区,024-302-13,213025001,大和市渋谷一丁目１４ ,神奈川県,大和市,渋谷,一丁目,14,,旭ヶ丘１号公園,公設,35.43918735,139.4657526
防火水槽,Watar Tank,Bōkasuisō,防火水槽,ぼうかすいそう,cistermas,消防水箱,南分署,南分署２管区,024-302-14,213006000,大和市下和田２６２ ,神奈川県,大和市,下和田,,262,,いちょう団地２号公園,公設,35.42964006,139.4727222
防火水槽,Watar Tank,Bōkasuisō,防火水槽,ぼうかすいそう,cistermas,消防水箱,南分署,南分署２管区,024-302-15,213006000,大和市下和田２６２ ,神奈川県,大和市,下和田,,262,,いちょう団地１号公園,公設,35.4257077,139.4715273
防火水槽,Watar Tank,Bōkasuisō,防火水槽,ぼうかすいそう,cistermas,消防水箱,南分署,南分署２管区,024-302-16,213006000,大和市下和田４９ ,神奈川県,大和市,下和田,,49,,市立渋谷中学校,公設,35.43052468,139.4725305
防火水槽,Watar Tank,Bōkasuisō,防火水槽,ぼうかすいそう,cistermas,消防水箱,南分署,南分署２管区,024-302-17,213002000,大和市上和田３４６７－１ ,神奈川県,大和市,上和田,,3467,1,上和田ひまわり公園,公設,35.43712496,139.4691173
防火水槽,Watar Tank,Bōkasuisō,防火水槽,ぼうかすいそう,cistermas,消防水箱,南分署,南分署２管区,024-302-18,213025006,大和市渋谷六丁目１ ,神奈川県,大和市,渋谷,六丁目,1,,大和南ハイツ,公設,35.43624852,139.4659491
防火水槽,Watar Tank,Bōkasuisō,防火水槽,ぼうかすいそう,cistermas,消防水箱,南分署,南分署３管区,024-303-1,213019004,大和市柳橋四丁目７－８ ,神奈川県,大和市,柳橘,四丁目,7,8,共同電気㈱,公設,35.4586863,139.4608956
防火水槽,Watar Tank,Bōkasuisō,防火水槽,ぼうかすいそう,cistermas,消防水箱,南分署,南分署３管区,024-303-2,213019002,大和市柳橋二丁目４－８ ,神奈川県,大和市,柳橘,二丁目,4,8,,公設,35.4582551,139.4646471
防火水槽,Watar Tank,Bōkasuisō,防火水槽,ぼうかすいそう,cistermas,消防水箱,南分署,南分署３管区,024-303-3,213019003,大和市柳橋三丁目２６－１ ,神奈川県,大和市,柳橘,三丁目,26,1,県営ハイム桜ヶ丘5号棟 西,公設,35.45450389,139.4634092
防火水槽,Watar Tank,Bōkasuisō,防火水槽,ぼうかすいそう,cistermas,消防水箱,南分署,南分署３管区,024-303-4,213019003,大和市柳橋三丁目２－８ ,神奈川県,大和市,柳橘,三丁目,2,8,小田急桜ヶ丘マンションA棟,公設,35.45547022,139.465113
防火水槽,Watar Tank,Bōkasuisō,防火水槽,ぼうかすいそう,cistermas,消防水箱,南分署,南分署３管区,024-303-5,213019001,大和市柳橋一丁目１１ ,神奈川県,大和市,柳橘,一丁目,11,,柳橋２号公園,公設,35.45939306,139.4661104
防火水槽,Watar Tank,Bōkasuisō,防火水槽,ぼうかすいそう,cistermas,消防水箱,南分署,南分署３管区,024-303-6,213019004,大和市柳橋四丁目５０００ ,神奈川県,大和市,柳橘,四丁目,5000,,引地台公園（北側ロータリー）,公設,35.45690154,139.4610823
防火水槽,Watar Tank,Bōkasuisō,防火水槽,ぼうかすいそう,cistermas,消防水箱,南分署,南分署３管区,024-303-7,213019002,大和市柳橋二丁目１２－１ ,神奈川県,大和市,柳橘,二丁目,12,1,コミセン柳橋会館,公設,35.45658638,139.4632553
防火水槽,Watar Tank,Bōkasuisō,防火水槽,ぼうかすいそう,cistermas,消防水箱,南分署,南分署３管区,024-303-8,213019001,大和市柳橋一丁目１８ ,神奈川県,大和市,柳橘,一丁目,18,,柳橋３号公園,公設,35.45974319,139.4631896
防火水槽,Watar Tank,Bōkasuisō,防火水槽,ぼうかすいそう,cistermas,消防水箱,南分署,南分署３管区,024-303-9,213019004,大和市柳橋四丁目５０００ ,神奈川県,大和市,柳橘,四丁目,5000,,引地台公園,公設,35.45436959,139.4598932
防火水槽,Watar Tank,Bōkasuisō,防火水槽,ぼうかすいそう,cistermas,消防水箱,南分署,南分署３管区,024-303-10,213016002,大和市福田二丁目３３ ,神奈川県,大和市,福田,二丁目,33,,富士見橋公園,公設,35.45025606,139.4621524
防火水槽,Watar Tank,Bōkasuisō,防火水槽,ぼうかすいそう,cistermas,消防水箱,南分署,南分署３管区,024-303-11,213019003,大和市柳橋三丁目１６－５ ,神奈川県,大和市,柳橘,三丁目,16,5,県営ハイム桜ヶ丘４号棟,公設,35.45340657,139.464225
防火水槽,Watar Tank,Bōkasuisō,防火水槽,ぼうかすいそう,cistermas,消防水箱,南分署,南分署３管区,024-303-12,213019003,大和市柳橋三丁目１４－７ ,神奈川県,大和市,柳橘,三丁目,14,7,県営ハイム桜ヶ丘１号棟,公設,35.45255423,139.4651456
防火水槽,Watar Tank,Bōkasuisō,防火水槽,ぼうかすいそう,cistermas,消防水箱,南分署,南分署３管区,024-303-13,213019003,大和市柳橋三丁目１８－５ ,神奈川県,大和市,柳橘,三丁目,18,5,県営ハイム桜ヶ丘5号棟 北,公設,35.45477747,139.4635711
防火水槽,Watar Tank,Bōkasuisō,防火水槽,ぼうかすいそう,cistermas,消防水箱,南分署,南分署３管区,024-303-14,213007003,大和市草柳三丁目４－１ ,神奈川県,大和市,草柳,三丁目,4,1,草柳５号公園,公設,35.45861373,139.4588845
防火水槽,Watar Tank,Bōkasuisō,防火水槽,ぼうかすいそう,cistermas,消防水箱,南分署,南分署３管区,024-303-15,213019003,大和市柳橋三丁目１９－４ ,神奈川県,大和市,柳橘,三丁目,19,4,県営ハイム桜ヶ丘７号棟,公設,35.45550154,139.4635739
防火水槽,Watar Tank,Bōkasuisō,防火水槽,ぼうかすいそう,cistermas,消防水箱,南分署,南分署３管区,024-303-16,213019002,大和市柳橋二丁目２０ ,神奈川県,大和市,柳橘,二丁目,20,,,公設,35.45891773,139.462973
防火水槽,Watar Tank,Bōkasuisō,防火水槽,ぼうかすいそう,cistermas,消防水箱,南分署,南分署３管区,024-303-17,213016007,大和市福田七丁目３２－１ ,神奈川県,大和市,福田,七丁目,32,1,モアステ-ジ桜ヶ丘 外記屋敷公園,公設,35.45072825,139.45768
防火水槽,Watar Tank,Bōkasuisō,防火水槽,ぼうかすいそう,cistermas,消防水箱,南分署,南分署３管区,024-303-18,213019003,大和市柳橋三丁目２６－７ ,神奈川県,大和市,柳橘,三丁目,26,7,県営ハイム桜ヶ丘９号棟,公設,35.45313129,139.4633151
防火水槽,Watar Tank,Bōkasuisō,防火水槽,ぼうかすいそう,cistermas,消防水箱,南分署,南分署３管区,024-303-19,213019003,大和市柳橋三丁目３１ ,神奈川県,大和市,柳橘,三丁目,31,,青葉公園,公設,35.45530178,139.4619126
防火水槽,Watar Tank,Bōkasuisō,防火水槽,ぼうかすいそう,cistermas,消防水箱,南分署,南分署３管区,024-303-20,213019005,大和市柳橋五丁目５－４ ,神奈川県,大和市,柳橘,五丁目,5,4,山王山公園,公設,35.45349785,139.4570902
防火水槽,Watar Tank,Bōkasuisō,防火水槽,ぼうかすいそう,cistermas,消防水箱,南分署,南分署３管区,024-303-21,213016007,大和市福田七丁目３８－１ ,神奈川県,大和市,福田,七丁目,38,1,御嶽山公園,公設,35.44777848,139.4595837
防火水槽,Watar Tank,Bōkasuisō,防火水槽,ぼうかすいそう,cistermas,消防水箱,南分署,南分署３管区,024-303-22,213019002,大和市柳橋二丁目１０－４ ,神奈川県,大和市,柳橘,二丁目,10,4,県営ハイム桜ヶ丘８号棟,公設,35.45607622,139.4642986
防火水槽,Watar Tank,Bōkasuisō,防火水槽,ぼうかすいそう,cistermas,消防水箱,南分署,南分署３管区,024-303-23,213019003,大和市柳橋三丁目２６－９ ,神奈川県,大和市,柳橘,三丁目,26,9,県営ハイム桜ヶ丘１６号棟,公設,35.45418418,139.4626017
防火水槽,Watar Tank,Bōkasuisō,防火水槽,ぼうかすいそう,cistermas,消防水箱,南分署,南分署３管区,024-303-24,213016008,大和市福田八丁目８－１ ,神奈川県,大和市,福田,八丁目,8,1,宮ノ下公園,公設,35.45250574,139.4615788
防火水槽,Watar Tank,Bōkasuisō,防火水槽,ぼうかすいそう,cistermas,消防水箱,南分署,南分署４管区,024-304-1,213008001,大和市代官一丁目１４－１ ,神奈川県,大和市,代官,一丁目,14,1,日建工業㈱,公設,35.44310739,139.4594774
防火水槽,Watar Tank,Bōkasuisō,防火水槽,ぼうかすいそう,cistermas,消防水箱,南分署,南分署４管区,024-304-2,213008004,大和市代官四丁目１１－１ ,神奈川県,大和市,代官,四丁目,11,1,,公設,35.43876084,139.4567763
防火水槽,Watar Tank,Bōkasuisō,防火水槽,ぼうかすいそう,cistermas,消防水箱,南分署,南分署４管区,024-304-3,213025002,大和市渋谷二丁目２７－１ ,神奈川県,大和市,渋谷,二丁目,27,1,レオパレス・エムス,公設,35.43921916,139.463168
防火水槽,Watar Tank,Bōkasuisō,防火水槽,ぼうかすいそう,cistermas,消防水箱,南分署,南分署４管区,024-304-4,213016000,大和市福田１９８６－２ ,神奈川県,大和市,福田,,1986,2,渋谷３号公園,公設,35.43313177,139.4623251
防火水槽,Watar Tank,Bōkasuisō,防火水槽,ぼうかすいそう,cistermas,消防水箱,南分署,南分署４管区,024-304-6,213016000,大和市福田１６０７ ,神奈川県,大和市,福田,,1607,,ヤマザキショップ,公設,35.42578352,139.4641496
防火水槽,Watar Tank,Bōkasuisō,防火水槽,ぼうかすいそう,cistermas,消防水箱,南分署,南分署４管区,024-304-7,213016000,大和市福田４０３６ ,神奈川県,大和市,福田,,4036,,島村工務店,公設,35.43499283,139.4537193
防火水槽,Watar Tank,Bōkasuisō,防火水槽,ぼうかすいそう,cistermas,消防水箱,南分署,南分署４管区,024-304-8,213016000,大和市福田１６６３－３５ ,神奈川県,大和市,福田,,1663,35,ﾌﾘｰﾀﾞﾑｽｸｪｱ丘の街公園,公設,35.42794495,139.4645117
防火水槽,Watar Tank,Bōkasuisō,防火水槽,ぼうかすいそう,cistermas,消防水箱,南分署,南分署４管区,024-304-9,213016000,大和市福田１９３７ ,神奈川県,大和市,福田,,1937,,渋谷４号公園,公設,35.43059184,139.4636809
防火水槽,Watar Tank,Bōkasuisō,防火水槽,ぼうかすいそう,cistermas,消防水箱,南分署,南分署４管区,024-304-10,213016000,大和市福田３５－３ ,神奈川県,大和市,福田,,35,3,,公設,35.42650887,139.4544425
防火水槽,Watar Tank,Bōkasuisō,防火水槽,ぼうかすいそう,cistermas,消防水箱,南分署,南分署４管区,024-304-11,213016000,大和市福田４４９－４ ,神奈川県,大和市,福田,,449,4,,公設,35.43123613,139.4552452
防火水槽,Watar Tank,Bōkasuisō,防火水槽,ぼうかすいそう,cistermas,消防水箱,南分署,南分署４管区,024-304-12,213016000,大和市福田３９７０－２９ ,神奈川県,大和市,福田,,3970,29,,公設,35.43709318,139.4548384
防火水槽,Watar Tank,Bōkasuisō,防火水槽,ぼうかすいそう,cistermas,消防水箱,南分署,南分署４管区,024-304-13,213008003,大和市代官三丁目８ ,神奈川県,大和市,代官,三丁目,8,,,公設,35.43941299,139.4568543
防火水槽,Watar Tank,Bōkasuisō,防火水槽,ぼうかすいそう,cistermas,消防水箱,南分署,南分署４管区,024-304-14,213008003,大和市代官三丁目１５－９ ,神奈川県,大和市,代官,三丁目,15,9,代官マンション,公設,35.44108433,139.454506
防火水槽,Watar Tank,Bōkasuisō,防火水槽,ぼうかすいそう,cistermas,消防水箱,南分署,南分署４管区,024-304-15,213016000,大和市福田５７０ ,神奈川県,大和市,福田,,570,,市立下福田小学校,公設,35.43120759,139.4568926
防火水槽,Watar Tank,Bōkasuisō,防火水槽,ぼうかすいそう,cistermas,消防水箱,南分署,南分署４管区,024-304-16,213008001,大和市代官一丁目２０ ,神奈川県,大和市,代官,一丁目,20,,田中１号公園,公設,35.44109464,139.4605794
防火水槽,Watar Tank,Bōkasuisō,防火水槽,ぼうかすいそう,cistermas,消防水箱,南分署,南分署４管区,024-304-17,213025002,大和市渋谷二丁目１９ ,神奈川県,大和市,渋谷,二丁目,19,,札の辻２号公園,公設,35.43765103,139.4635277
防火水槽,Watar Tank,Bōkasuisō,防火水槽,ぼうかすいそう,cistermas,消防水箱,南分署,南分署４管区,024-304-18,213025003,大和市渋谷三丁目５ ,神奈川県,大和市,渋谷,三丁目,5,,札の辻１号公園,公設,35.43918157,139.4612825
防火水槽,Watar Tank,Bōkasuisō,防火水槽,ぼうかすいそう,cistermas,消防水箱,南分署,南分署４管区,024-304-19,213016000,大和市福田１５６９－１ ,神奈川県,大和市,福田,,1569,1,市立下福田中学校,公設,35.42507071,139.4613003
防火水槽,Watar Tank,Bōkasuisō,防火水槽,ぼうかすいそう,cistermas,消防水箱,南分署,南分署４管区,024-304-20,213016000,大和市福田１７１６ ,神奈川県,大和市,福田,,1716,,あきしの台公園,公設,35.42806759,139.4611341
防火水槽,Watar Tank,Bōkasuisō,防火水槽,ぼうかすいそう,cistermas,消防水箱,南分署,南分署４管区,024-304-21,213016000,大和市福田３７５５－１２ ,神奈川県,大和市,福田,,3755,12,田中３号公園,公設,35.43842206,139.4581029
防火水槽,Watar Tank,Bōkasuisō,防火水槽,ぼうかすいそう,cistermas,消防水箱,南分署,南分署４管区,024-304-22,213016003,大和市福田三丁目１５－１ ,神奈川県,大和市,福田,三丁目,15,1,松ヶ丘公園,公設,35.44668474,139.4646958
防火水槽,Watar Tank,Bōkasuisō,防火水槽,ぼうかすいそう,cistermas,消防水箱,南分署,南分署４管区,024-304-23,213016004,大和市福田四丁目４－１ ,神奈川県,大和市,福田,四丁目,4,1,４号公園,公設,35.44084738,139.4644621
防火水槽,Watar Tank,Bōkasuisō,防火水槽,ぼうかすいそう,cistermas,消防水箱,南分署,南分署４管区,024-304-24,213016000,大和市福田５０５ ,神奈川県,大和市,福田,,505,,神明公園,公設,35.43260246,139.4576314
防火水槽,Watar Tank,Bōkasuisō,防火水槽,ぼうかすいそう,cistermas,消防水箱,南分署,南分署４管区,024-304-25,213016000,大和市福田９５５ ,神奈川県,大和市,福田,,955,,下福田南公園,公設,35.42813531,139.4600592
防火水槽,Watar Tank,Bōkasuisō,防火水槽,ぼうかすいそう,cistermas,消防水箱,南分署,南分署４管区,024-304-26,213008003,大和市代官三丁目１１ ,神奈川県,大和市,代官,三丁目,11,,代官３丁目公園,公設,35.44034393,139.4557291
防火水槽,Watar Tank,Bōkasuisō,防火水槽,ぼうかすいそう,cistermas,消防水箱,南分署,南分署４管区,024-304-27,213016000,大和市福田１３１９ ,神奈川県,大和市,福田,,1319,,下福田南なかよし公園,公設,35.42559601,139.4564847
防火水槽,Watar Tank,Bōkasuisō,防火水槽,ぼうかすいそう,cistermas,消防水箱,南分署,南分署４管区,024-304-28,213016000,大和市福田１８０７－２ ,神奈川県,大和市,福田,,1807,2,帰属公園内,公設,35.43019768,139.4627882
防火水槽,Watar Tank,Bōkasuisō,防火水槽,ぼうかすいそう,cistermas,消防水箱,南分署,南分署４管区,024-304-29,213016000,大和市福田２０７１ 11街区,神奈川県,大和市,福田,,2071,11,渋谷１号公園,公設,35.43550154,139.4633661