{"type": "FeatureCollection", "features": [{"type":"Feature","geometry":{"type":"Point","coordinates":[139.46736,35.449001]},"properties":{"cartodb_id":3,"addr_block_number":1790,"id":3,"addr_housenumber":"1","addr_neighbourhood":"","addr_quarter":"上和田","addr_city":"大和市","addr_province":"神奈川県","adress":"大和市上和田1790－1","fire_horse_landmark_xxx_description":"ローソン桜ヶ丘南店","website":"https://youtu.be/QyTJKyvb8uE","type":"コンビニ ","name_zh":"竖管","name_es":"soporte de tubo","name_ja_hira":"すたんどぱいぷ","name_ja_latn":"sutandopaipu","name_en":"Stand Pipe","name":"スタンドパイプ","latitude":35.44900069,"longitude":139.4673603}},{"type":"Feature","geometry":{"type":"Point","coordinates":[139.450743,35.483176]},"properties":{"cartodb_id":1,"addr_block_number":16,"id":1,"addr_housenumber":"18","addr_neighbourhood":"八丁目","addr_quarter":"上草柳","addr_city":"大和市","addr_province":"神奈川県","adress":"大和市上草柳8－16－18","fire_horse_landmark_xxx_description":"ローソン上草柳八丁目店","website":"https://youtu.be/QyTJKyvb8uE","type":"コンビニ ","name_zh":"竖管","name_es":"soporte de tubo","name_ja_hira":"すたんどぱいぷ","name_ja_latn":"sutandopaipu","name_en":"Stand Pipe","name":"スタンドパイプ","latitude":35.48317571,"longitude":139.4507432}},{"type":"Feature","geometry":{"type":"Point","coordinates":[139.435933,35.501021]},"properties":{"cartodb_id":2,"addr_block_number":17,"id":2,"addr_housenumber":"22","addr_neighbourhood":"二丁目","addr_quarter":"中央林間西","addr_city":"大和市","addr_province":"神奈川県","adress":"大和市中央林間西2－17－22","fire_horse_landmark_xxx_description":"ローソン大和中央林間西二丁目店","website":"https://youtu.be/QyTJKyvb8uE","type":"コンビニ ","name_zh":"竖管","name_es":"soporte de tubo","name_ja_hira":"すたんどぱいぷ","name_ja_latn":"sutandopaipu","name_en":"Stand Pipe","name":"スタンドパイプ","latitude":35.50102121,"longitude":139.4359326}},{"type":"Feature","geometry":{"type":"Point","coordinates":[139.437532,35.491449]},"properties":{"cartodb_id":4,"addr_block_number":13,"id":4,"addr_housenumber":"9","addr_neighbourhood":"七丁目","addr_quarter":"南林間","addr_city":"大和市","addr_province":"神奈川県","adress":"大和市南林間7－13－9","fire_horse_landmark_xxx_description":"ローソンストア100南林間十一条店","website":"https://youtu.be/QyTJKyvb8uE","type":"コンビニ ","name_zh":"竖管","name_es":"soporte de tubo","name_ja_hira":"すたんどぱいぷ","name_ja_latn":"sutandopaipu","name_en":"Stand Pipe","name":"スタンドパイプ","latitude":35.49144864,"longitude":139.4375321}},{"type":"Feature","geometry":{"type":"Point","coordinates":[139.465122,35.477413]},"properties":{"cartodb_id":5,"addr_block_number":1,"id":5,"addr_housenumber":"13","addr_neighbourhood":"一丁目","addr_quarter":"深見東","addr_city":"大和市","addr_province":"神奈川県","adress":"大和市深見東1－1－13","fire_horse_landmark_xxx_description":"ローソンストア100大和深見東店","website":"https://youtu.be/QyTJKyvb8uE","type":"コンビニ ","name_zh":"竖管","name_es":"soporte de tubo","name_ja_hira":"すたんどぱいぷ","name_ja_latn":"sutandopaipu","name_en":"Stand Pipe","name":"スタンドパイプ","latitude":35.47741281,"longitude":139.4651217}},{"type":"Feature","geometry":{"type":"Point","coordinates":[139.449248,35.488338]},"properties":{"cartodb_id":6,"addr_block_number":13,"id":6,"addr_housenumber":"23","addr_neighbourhood":"三丁目","addr_quarter":"西鶴間","addr_city":"大和市","addr_province":"神奈川県","adress":"大和市西鶴間3-13-23","fire_horse_landmark_xxx_description":"ローソン西鶴間三丁目店","website":"https://youtu.be/QyTJKyvb8uE","type":"コンビニ ","name_zh":"竖管","name_es":"soporte de tubo","name_ja_hira":"すたんどぱいぷ","name_ja_latn":"sutandopaipu","name_en":"Stand Pipe","name":"スタンドパイプ","latitude":35.48833783,"longitude":139.4492482}},{"type":"Feature","geometry":{"type":"Point","coordinates":[139.460577,35.464297]},"properties":{"cartodb_id":7,"addr_block_number":6,"id":7,"addr_housenumber":"27","addr_neighbourhood":"六丁目","addr_quarter":"中央","addr_city":"大和市","addr_province":"神奈川県","adress":"大和市中央6-6-27","fire_horse_landmark_xxx_description":"ローソンストア100大和中央六丁目店","website":"https://youtu.be/QyTJKyvb8uE","type":"コンビニ ","name_zh":"竖管","name_es":"soporte de tubo","name_ja_hira":"すたんどぱいぷ","name_ja_latn":"sutandopaipu","name_en":"Stand Pipe","name":"スタンドパイプ","latitude":35.46429722,"longitude":139.460577}},{"type":"Feature","geometry":{"type":"Point","coordinates":[139.45717,35.46312]},"properties":{"cartodb_id":8,"addr_block_number":21,"id":8,"addr_housenumber":"1","addr_neighbourhood":"二丁目","addr_quarter":"草柳","addr_city":"大和市","addr_province":"神奈川県","adress":"大和市草柳2-21-1","fire_horse_landmark_xxx_description":"ローソン大和草柳二丁目店","website":"https://youtu.be/QyTJKyvb8uE","type":"コンビニ ","name_zh":"竖管","name_es":"soporte de tubo","name_ja_hira":"すたんどぱいぷ","name_ja_latn":"sutandopaipu","name_en":"Stand Pipe","name":"スタンドパイプ","latitude":35.46311959,"longitude":139.4571699}},{"type":"Feature","geometry":{"type":"Point","coordinates":[139.462277,35.508013]},"properties":{"cartodb_id":9,"addr_block_number":697,"id":9,"addr_housenumber":"1","addr_neighbourhood":"","addr_quarter":"下鶴間","addr_city":"大和市","addr_province":"神奈川県","adress":"大和市下鶴間697－1","fire_horse_landmark_xxx_description":"ローソンつきみ野店","website":"https://youtu.be/QyTJKyvb8uE","type":"コンビニ ","name_zh":"竖管","name_es":"soporte de tubo","name_ja_hira":"すたんどぱいぷ","name_ja_latn":"sutandopaipu","name_en":"Stand Pipe","name":"スタンドパイプ","latitude":35.50801304,"longitude":139.4622775}},{"type":"Feature","geometry":{"type":"Point","coordinates":[139.438173,35.475133]},"properties":{"cartodb_id":10,"addr_block_number":170,"id":10,"addr_housenumber":"5","addr_neighbourhood":"","addr_quarter":"上草柳","addr_city":"大和市","addr_province":"神奈川県","adress":"大和市上草柳170-5","fire_horse_landmark_xxx_description":"ミニストップ大和上草柳店","website":"https://youtu.be/QyTJKyvb8uE","type":"コンビニ ","name_zh":"竖管","name_es":"soporte de tubo","name_ja_hira":"すたんどぱいぷ","name_ja_latn":"sutandopaipu","name_en":"Stand Pipe","name":"スタンドパイプ","latitude":35.47513315,"longitude":139.4381731}},{"type":"Feature","geometry":{"type":"Point","coordinates":[139.457652,35.459916]},"properties":{"cartodb_id":11,"addr_block_number":22,"id":11,"addr_housenumber":"1","addr_neighbourhood":"三丁目","addr_quarter":"草柳","addr_city":"大和市","addr_province":"神奈川県","adress":"大和市草柳3-22-1","fire_horse_landmark_xxx_description":"ミニストップ大和草柳３丁目店","website":"https://youtu.be/QyTJKyvb8uE","type":"コンビニ ","name_zh":"竖管","name_es":"soporte de tubo","name_ja_hira":"すたんどぱいぷ","name_ja_latn":"sutandopaipu","name_en":"Stand Pipe","name":"スタンドパイプ","latitude":35.45991646,"longitude":139.4576517}},{"type":"Feature","geometry":{"type":"Point","coordinates":[139.464419,35.457551]},"properties":{"cartodb_id":12,"addr_block_number":15,"id":12,"addr_housenumber":"5","addr_neighbourhood":"二丁目","addr_quarter":"柳橘","addr_city":"大和市","addr_province":"神奈川県","adress":"大和市柳橋2-15-5","fire_horse_landmark_xxx_description":"ミニストップ大和柳橋店","website":"https://youtu.be/QyTJKyvb8uE","type":"コンビニ ","name_zh":"竖管","name_es":"soporte de tubo","name_ja_hira":"すたんどぱいぷ","name_ja_latn":"sutandopaipu","name_en":"Stand Pipe","name":"スタンドパイプ","latitude":35.45755129,"longitude":139.4644194}},{"type":"Feature","geometry":{"type":"Point","coordinates":[139.458246,35.440514]},"properties":{"cartodb_id":13,"addr_block_number":6,"id":13,"addr_housenumber":"6","addr_neighbourhood":"二丁目","addr_quarter":"代官","addr_city":"大和市","addr_province":"神奈川県","adress":"大和市代官2-6-6","fire_horse_landmark_xxx_description":"ミニストップ大和代官二丁目店","website":"https://youtu.be/QyTJKyvb8uE","type":"コンビニ ","name_zh":"竖管","name_es":"soporte de tubo","name_ja_hira":"すたんどぱいぷ","name_ja_latn":"sutandopaipu","name_en":"Stand Pipe","name":"スタンドパイプ","latitude":35.44051408,"longitude":139.4582458}},{"type":"Feature","geometry":{"type":"Point","coordinates":[139.45206,35.501223]},"properties":{"cartodb_id":14,"addr_block_number":1785,"id":14,"addr_housenumber":"10","addr_neighbourhood":"","addr_quarter":"下鶴間","addr_city":"大和市","addr_province":"神奈川県","adress":"大和市下鶴間1785-10","fire_horse_landmark_xxx_description":"ミニストップ大和下鶴間店","website":"https://youtu.be/QyTJKyvb8uE","type":"コンビニ ","name_zh":"竖管","name_es":"soporte de tubo","name_ja_hira":"すたんどぱいぷ","name_ja_latn":"sutandopaipu","name_en":"Stand Pipe","name":"スタンドパイプ","latitude":35.50122303,"longitude":139.4520599}},{"type":"Feature","geometry":{"type":"Point","coordinates":[139.464039,35.475394]},"properties":{"cartodb_id":15,"addr_block_number":2,"id":15,"addr_housenumber":"2","addr_neighbourhood":"二丁目","addr_quarter":"深見西","addr_city":"大和市","addr_province":"神奈川県","adress":"大和市深見西2－2－2","fire_horse_landmark_xxx_description":"ファミリーマート深見西店","website":"https://youtu.be/QyTJKyvb8uE","type":"コンビニ ","name_zh":"竖管","name_es":"soporte de tubo","name_ja_hira":"すたんどぱいぷ","name_ja_latn":"sutandopaipu","name_en":"Stand Pipe","name":"スタンドパイプ","latitude":35.47539444,"longitude":139.464039}},{"type":"Feature","geometry":{"type":"Point","coordinates":[139.456795,35.491794]},"properties":{"cartodb_id":16,"addr_block_number":2777,"id":16,"addr_housenumber":"5","addr_neighbourhood":"","addr_quarter":"下鶴間","addr_city":"大和市","addr_province":"神奈川県","adress":"大和市下鶴間2777－5－6－B","fire_horse_landmark_xxx_description":"ファミリーマート大和下鶴間店","website":"https://youtu.be/QyTJKyvb8uE","type":"コンビニ ","name_zh":"竖管","name_es":"soporte de tubo","name_ja_hira":"すたんどぱいぷ","name_ja_latn":"sutandopaipu","name_en":"Stand Pipe","name":"スタンドパイプ","latitude":35.49179437,"longitude":139.4567954}},{"type":"Feature","geometry":{"type":"Point","coordinates":[139.447449,35.495331]},"properties":{"cartodb_id":17,"addr_block_number":7,"id":17,"addr_housenumber":"14","addr_neighbourhood":"一丁目","addr_quarter":"南林間","addr_city":"大和市","addr_province":"神奈川県","adress":"大和市南林間1－7－14","fire_horse_landmark_xxx_description":"ファミリーマート南林間駅前店","website":"https://youtu.be/QyTJKyvb8uE","type":"コンビニ ","name_zh":"竖管","name_es":"soporte de tubo","name_ja_hira":"すたんどぱいぷ","name_ja_latn":"sutandopaipu","name_en":"Stand Pipe","name":"スタンドパイプ","latitude":35.49533058,"longitude":139.447449}},{"type":"Feature","geometry":{"type":"Point","coordinates":[139.460715,35.474719]},"properties":{"cartodb_id":18,"addr_block_number":2,"id":18,"addr_housenumber":"32","addr_neighbourhood":"一丁目","addr_quarter":"深見西","addr_city":"大和市","addr_province":"神奈川県","adress":"大和市深見西1－2－32","fire_horse_landmark_xxx_description":"ファミリーマート深見西一丁目店","website":"https://youtu.be/QyTJKyvb8uE","type":"コンビニ ","name_zh":"竖管","name_es":"soporte de tubo","name_ja_hira":"すたんどぱいぷ","name_ja_latn":"sutandopaipu","name_en":"Stand Pipe","name":"スタンドパイプ","latitude":35.47471904,"longitude":139.4607155}},{"type":"Feature","geometry":{"type":"Point","coordinates":[139.444913,35.471909]},"properties":{"cartodb_id":19,"addr_block_number":104,"id":19,"addr_housenumber":"3","addr_neighbourhood":"","addr_quarter":"上草柳","addr_city":"大和市","addr_province":"神奈川県","adress":"大和市上草柳104-3","fire_horse_landmark_xxx_description":"ファミリーマート大和上草柳店","website":"https://youtu.be/QyTJKyvb8uE","type":"コンビニ ","name_zh":"竖管","name_es":"soporte de tubo","name_ja_hira":"すたんどぱいぷ","name_ja_latn":"sutandopaipu","name_en":"Stand Pipe","name":"スタンドパイプ","latitude":35.47190859,"longitude":139.4449126}},{"type":"Feature","geometry":{"type":"Point","coordinates":[139.446165,35.508004]},"properties":{"cartodb_id":20,"addr_block_number":14,"id":20,"addr_housenumber":"20","addr_neighbourhood":"四丁目","addr_quarter":"中央林間","addr_city":"大和市","addr_province":"神奈川県","adress":"大和市中央林間4－14－20","fire_horse_landmark_xxx_description":"ファミリーマート中央林間駅東口店","website":"https://youtu.be/QyTJKyvb8uE","type":"コンビニ ","name_zh":"竖管","name_es":"soporte de tubo","name_ja_hira":"すたんどぱいぷ","name_ja_latn":"sutandopaipu","name_en":"Stand Pipe","name":"スタンドパイプ","latitude":35.50800374,"longitude":139.4461647}},{"type":"Feature","geometry":{"type":"Point","coordinates":[139.458061,35.458614]},"properties":{"cartodb_id":21,"addr_block_number":2,"id":21,"addr_housenumber":"4","addr_neighbourhood":"三丁目","addr_quarter":"草柳","addr_city":"大和市","addr_province":"神奈川県","adress":"大和市草柳3－2－4","fire_horse_landmark_xxx_description":"ファミリーマート大和草柳三丁目店","website":"https://youtu.be/QyTJKyvb8uE","type":"コンビニ ","name_zh":"竖管","name_es":"soporte de tubo","name_ja_hira":"すたんどぱいぷ","name_ja_latn":"sutandopaipu","name_en":"Stand Pipe","name":"スタンドパイプ","latitude":35.45861428,"longitude":139.4580608}},{"type":"Feature","geometry":{"type":"Point","coordinates":[139.456311,35.516238]},"properties":{"cartodb_id":22,"addr_block_number":44,"id":22,"addr_housenumber":"1","addr_neighbourhood":"","addr_quarter":"下鶴間","addr_city":"大和市","addr_province":"神奈川県","adress":"大和市下鶴間44－1","fire_horse_landmark_xxx_description":"ファミリーマートつきみ野入口店","website":"https://youtu.be/QyTJKyvb8uE","type":"コンビニ ","name_zh":"竖管","name_es":"soporte de tubo","name_ja_hira":"すたんどぱいぷ","name_ja_latn":"sutandopaipu","name_en":"Stand Pipe","name":"スタンドパイプ","latitude":35.51623849,"longitude":139.4563111}},{"type":"Feature","geometry":{"type":"Point","coordinates":[139.458127,35.439586]},"properties":{"cartodb_id":23,"addr_block_number":17,"id":23,"addr_housenumber":"4","addr_neighbourhood":"二丁目","addr_quarter":"代官","addr_city":"大和市","addr_province":"神奈川県","adress":"大和市代官2－17－4","fire_horse_landmark_xxx_description":"ファミリーマート大和代官二丁目店","website":"https://youtu.be/QyTJKyvb8uE","type":"コンビニ ","name_zh":"竖管","name_es":"soporte de tubo","name_ja_hira":"すたんどぱいぷ","name_ja_latn":"sutandopaipu","name_en":"Stand Pipe","name":"スタンドパイプ","latitude":35.43958642,"longitude":139.4581271}},{"type":"Feature","geometry":{"type":"Point","coordinates":[139.453846,35.439087]},"properties":{"cartodb_id":24,"addr_block_number":18,"id":24,"addr_housenumber":"6","addr_neighbourhood":"四丁目","addr_quarter":"代官","addr_city":"大和市","addr_province":"神奈川県","adress":"大和市代官4－18－6","fire_horse_landmark_xxx_description":"ファミリーマート大和代官四丁目店","website":"https://youtu.be/QyTJKyvb8uE","type":"コンビニ ","name_zh":"竖管","name_es":"soporte de tubo","name_ja_hira":"すたんどぱいぷ","name_ja_latn":"sutandopaipu","name_en":"Stand Pipe","name":"スタンドパイプ","latitude":35.43908654,"longitude":139.4538464}},{"type":"Feature","geometry":{"type":"Point","coordinates":[139.435623,35.49097]},"properties":{"cartodb_id":25,"addr_block_number":25,"id":25,"addr_housenumber":"11","addr_neighbourhood":"七丁目","addr_quarter":"南林間","addr_city":"大和市","addr_province":"神奈川県","adress":"大和市南林間7－25－11","fire_horse_landmark_xxx_description":"セブンイレブン大和南林間7丁目店","website":"https://youtu.be/QyTJKyvb8uE","type":"コンビニ ","name_zh":"竖管","name_es":"soporte de tubo","name_ja_hira":"すたんどぱいぷ","name_ja_latn":"sutandopaipu","name_en":"Stand Pipe","name":"スタンドパイプ","latitude":35.49097008,"longitude":139.4356229}},{"type":"Feature","geometry":{"type":"Point","coordinates":[139.463975,35.46093]},"properties":{"cartodb_id":26,"addr_block_number":5,"id":26,"addr_housenumber":"1","addr_neighbourhood":"一丁目","addr_quarter":"柳橘","addr_city":"大和市","addr_province":"神奈川県","adress":"大和市柳橋1－5－1","fire_horse_landmark_xxx_description":"セブンイレブン大和柳橋1丁目店","website":"https://youtu.be/QyTJKyvb8uE","type":"コンビニ ","name_zh":"竖管","name_es":"soporte de tubo","name_ja_hira":"すたんどぱいぷ","name_ja_latn":"sutandopaipu","name_en":"Stand Pipe","name":"スタンドパイプ","latitude":35.46092984,"longitude":139.4639753}},{"type":"Feature","geometry":{"type":"Point","coordinates":[139.455849,35.486762]},"properties":{"cartodb_id":27,"addr_block_number":20,"id":27,"addr_housenumber":"2","addr_neighbourhood":"一丁目","addr_quarter":"鶴間","addr_city":"大和市","addr_province":"神奈川県","adress":"大和市鶴間1－20－24","fire_horse_landmark_xxx_description":"セブンイレブン大和鶴間1丁目店","website":"https://youtu.be/QyTJKyvb8uE","type":"コンビニ ","name_zh":"竖管","name_es":"soporte de tubo","name_ja_hira":"すたんどぱいぷ","name_ja_latn":"sutandopaipu","name_en":"Stand Pipe","name":"スタンドパイプ","latitude":35.48676202,"longitude":139.455849}},{"type":"Feature","geometry":{"type":"Point","coordinates":[139.454014,35.494764]},"properties":{"cartodb_id":28,"addr_block_number":2793,"id":28,"addr_housenumber":"","addr_neighbourhood":"","addr_quarter":"下鶴間","addr_city":"大和市","addr_province":"神奈川県","adress":"大和市下鶴間2793","fire_horse_landmark_xxx_description":"セブンイレブン大和下鶴間店","website":"https://youtu.be/QyTJKyvb8uE","type":"コンビニ ","name_zh":"竖管","name_es":"soporte de tubo","name_ja_hira":"すたんどぱいぷ","name_ja_latn":"sutandopaipu","name_en":"Stand Pipe","name":"スタンドパイプ","latitude":35.49476436,"longitude":139.4540144}},{"type":"Feature","geometry":{"type":"Point","coordinates":[139.461858,35.43454]},"properties":{"cartodb_id":29,"addr_block_number":1995,"id":29,"addr_housenumber":"1","addr_neighbourhood":"","addr_quarter":"福田","addr_city":"大和市","addr_province":"神奈川県","adress":"大和市福田1995－1","fire_horse_landmark_xxx_description":"セブンイレブン大和福田店","website":"https://youtu.be/QyTJKyvb8uE","type":"コンビニ ","name_zh":"竖管","name_es":"soporte de tubo","name_ja_hira":"すたんどぱいぷ","name_ja_latn":"sutandopaipu","name_en":"Stand Pipe","name":"スタンドパイプ","latitude":35.43454038,"longitude":139.4618576}},{"type":"Feature","geometry":{"type":"Point","coordinates":[139.450892,35.495254]},"properties":{"cartodb_id":30,"addr_block_number":3217,"id":30,"addr_housenumber":"16","addr_neighbourhood":"一丁目","addr_quarter":"林間","addr_city":"大和市","addr_province":"神奈川県","adress":"大和市林間1－3217－16","fire_horse_landmark_xxx_description":"セブンイレブン大和林間1丁目店","website":"https://youtu.be/QyTJKyvb8uE","type":"コンビニ ","name_zh":"竖管","name_es":"soporte de tubo","name_ja_hira":"すたんどぱいぷ","name_ja_latn":"sutandopaipu","name_en":"Stand Pipe","name":"スタンドパイプ","latitude":35.49525412,"longitude":139.4508918}},{"type":"Feature","geometry":{"type":"Point","coordinates":[139.463429,35.485196]},"properties":{"cartodb_id":31,"addr_block_number":5,"id":31,"addr_housenumber":"4","addr_neighbourhood":"六丁目","addr_quarter":"深見西","addr_city":"大和市","addr_province":"神奈川県","adress":"大和市深見西6-5-4","fire_horse_landmark_xxx_description":"セブンイレブン大和深見西6丁目店","website":"https://youtu.be/QyTJKyvb8uE","type":"コンビニ ","name_zh":"竖管","name_es":"soporte de tubo","name_ja_hira":"すたんどぱいぷ","name_ja_latn":"sutandopaipu","name_en":"Stand Pipe","name":"スタンドパイプ","latitude":35.48519558,"longitude":139.4634287}},{"type":"Feature","geometry":{"type":"Point","coordinates":[139.461856,35.492578]},"properties":{"cartodb_id":32,"addr_block_number":9,"id":32,"addr_housenumber":"12","addr_neighbourhood":"二丁目","addr_quarter":"下鶴間","addr_city":"大和市","addr_province":"神奈川県","adress":"大和市下鶴間2-9-12","fire_horse_landmark_xxx_description":"セブンイレブン大和下鶴間２丁目店","website":"https://youtu.be/QyTJKyvb8uE","type":"コンビニ ","name_zh":"竖管","name_es":"soporte de tubo","name_ja_hira":"すたんどぱいぷ","name_ja_latn":"sutandopaipu","name_en":"Stand Pipe","name":"スタンドパイプ","latitude":35.49257834,"longitude":139.4618563}},{"type":"Feature","geometry":{"type":"Point","coordinates":[139.443212,35.502094]},"properties":{"cartodb_id":33,"addr_block_number":1,"id":33,"addr_housenumber":"9","addr_neighbourhood":"","addr_quarter":"中央林間","addr_city":"大和市","addr_province":"神奈川県","adress":"大和市中央林間１－９","fire_horse_landmark_xxx_description":"セブンイレブン大和中央林間１丁目店","website":"https://youtu.be/QyTJKyvb8uE","type":"コンビニ ","name_zh":"竖管","name_es":"soporte de tubo","name_ja_hira":"すたんどぱいぷ","name_ja_latn":"sutandopaipu","name_en":"Stand Pipe","name":"スタンドパイプ","latitude":35.50209359,"longitude":139.4432124}},{"type":"Feature","geometry":{"type":"Point","coordinates":[139.466767,35.455906]},"properties":{"cartodb_id":34,"addr_block_number":5682,"id":34,"addr_housenumber":"6","addr_neighbourhood":"","addr_quarter":"福田","addr_city":"大和市","addr_province":"神奈川県","adress":"大和市福田5682-6","fire_horse_landmark_xxx_description":"セブンイレブン大和福田東店","website":"https://youtu.be/QyTJKyvb8uE","type":"コンビニ ","name_zh":"竖管","name_es":"soporte de tubo","name_ja_hira":"すたんどぱいぷ","name_ja_latn":"sutandopaipu","name_en":"Stand Pipe","name":"スタンドパイプ","latitude":35.45590587,"longitude":139.4667665}},{"type":"Feature","geometry":{"type":"Point","coordinates":[139.451468,35.484935]},"properties":{"cartodb_id":35,"addr_block_number":394,"id":35,"addr_housenumber":"7","addr_neighbourhood":"七丁目","addr_quarter":"上草柳","addr_city":"大和市","addr_province":"神奈川県","adress":"大和市上草柳7-394-7","fire_horse_landmark_xxx_description":"セブンイレブン大和上草柳７丁目店","website":"https://youtu.be/QyTJKyvb8uE","type":"コンビニ ","name_zh":"竖管","name_es":"soporte de tubo","name_ja_hira":"すたんどぱいぷ","name_ja_latn":"sutandopaipu","name_en":"Stand Pipe","name":"スタンドパイプ","latitude":35.48493529,"longitude":139.4514679}},{"type":"Feature","geometry":{"type":"Point","coordinates":[139.46578,35.440284]},"properties":{"cartodb_id":36,"addr_block_number":2339,"id":36,"addr_housenumber":"12","addr_neighbourhood":"","addr_quarter":"福田","addr_city":"大和市","addr_province":"神奈川県","adress":"大和市福田2339-12","fire_horse_landmark_xxx_description":"セブンイレブン大和福田中央店","website":"https://youtu.be/QyTJKyvb8uE","type":"コンビニ ","name_zh":"竖管","name_es":"soporte de tubo","name_ja_hira":"すたんどぱいぷ","name_ja_latn":"sutandopaipu","name_en":"Stand Pipe","name":"スタンドパイプ","latitude":35.4402844,"longitude":139.4657796}},{"type":"Feature","geometry":{"type":"Point","coordinates":[139.471973,35.431187]},"properties":{"cartodb_id":37,"addr_block_number":104,"id":37,"addr_housenumber":"","addr_neighbourhood":"","addr_quarter":"下和田","addr_city":"大和市","addr_province":"神奈川県","adress":"大和市下和田104","fire_horse_landmark_xxx_description":"セブンイレブン大和いちょう団地店","website":"https://youtu.be/QyTJKyvb8uE","type":"コンビニ ","name_zh":"竖管","name_es":"soporte de tubo","name_ja_hira":"すたんどぱいぷ","name_ja_latn":"sutandopaipu","name_en":"Stand Pipe","name":"スタンドパイプ","latitude":35.43118669,"longitude":139.471973}},{"type":"Feature","geometry":{"type":"Point","coordinates":[139.442469,35.511894]},"properties":{"cartodb_id":38,"addr_block_number":4,"id":38,"addr_housenumber":"16","addr_neighbourhood":"五丁目","addr_quarter":"中央林間","addr_city":"大和市","addr_province":"神奈川県","adress":"大和市中央林間5－4－16","fire_horse_landmark_xxx_description":"セブンイレブン大和中央林間5丁目店","website":"https://youtu.be/QyTJKyvb8uE","type":"コンビニ ","name_zh":"竖管","name_es":"soporte de tubo","name_ja_hira":"すたんどぱいぷ","name_ja_latn":"sutandopaipu","name_en":"Stand Pipe","name":"スタンドパイプ","latitude":35.51189421,"longitude":139.4424686}},{"type":"Feature","geometry":{"type":"Point","coordinates":[139.437464,35.473006]},"properties":{"cartodb_id":39,"addr_block_number":12,"id":39,"addr_housenumber":"18","addr_neighbourhood":"三丁目","addr_quarter":"桜森","addr_city":"大和市","addr_province":"神奈川県","adress":"大和市桜森3－12－18","fire_horse_landmark_xxx_description":"セブンイレブン大和桜森店","website":"https://youtu.be/QyTJKyvb8uE","type":"コンビニ ","name_zh":"竖管","name_es":"soporte de tubo","name_ja_hira":"すたんどぱいぷ","name_ja_latn":"sutandopaipu","name_en":"Stand Pipe","name":"スタンドパイプ","latitude":35.47300628,"longitude":139.4374642}},{"type":"Feature","geometry":{"type":"Point","coordinates":[139.460735,35.462583]},"properties":{"cartodb_id":40,"addr_block_number":9,"id":40,"addr_housenumber":"1","addr_neighbourhood":"六丁目","addr_quarter":"中央","addr_city":"大和市","addr_province":"神奈川県","adress":"大和市中央6－9－1","fire_horse_landmark_xxx_description":"セブンイレブン大和中央6丁目店","website":"https://youtu.be/QyTJKyvb8uE","type":"コンビニ ","name_zh":"竖管","name_es":"soporte de tubo","name_ja_hira":"すたんどぱいぷ","name_ja_latn":"sutandopaipu","name_en":"Stand Pipe","name":"スタンドパイプ","latitude":35.46258316,"longitude":139.4607346}},{"type":"Feature","geometry":{"type":"Point","coordinates":[139.453931,35.490432]},"properties":{"cartodb_id":41,"addr_block_number":31,"id":41,"addr_housenumber":"3","addr_neighbourhood":"一丁目","addr_quarter":"鶴間","addr_city":"大和市","addr_province":"神奈川県","adress":"大和市鶴間1－31－3","fire_horse_landmark_xxx_description":"セブンイレブン大和市鶴間駅前店","website":"https://youtu.be/QyTJKyvb8uE","type":"コンビニ ","name_zh":"竖管","name_es":"soporte de tubo","name_ja_hira":"すたんどぱいぷ","name_ja_latn":"sutandopaipu","name_en":"Stand Pipe","name":"スタンドパイプ","latitude":35.49043235,"longitude":139.4539308}},{"type":"Feature","geometry":{"type":"Point","coordinates":[139.474336,35.449271]},"properties":{"cartodb_id":42,"addr_block_number":1626,"id":42,"addr_housenumber":"1","addr_neighbourhood":"","addr_quarter":"上和田","addr_city":"大和市","addr_province":"神奈川県","adress":"大和市上和田1626－1","fire_horse_landmark_xxx_description":"セブンイレブン大和上和田中央店","website":"https://youtu.be/QyTJKyvb8uE","type":"コンビニ ","name_zh":"竖管","name_es":"soporte de tubo","name_ja_hira":"すたんどぱいぷ","name_ja_latn":"sutandopaipu","name_en":"Stand Pipe","name":"スタンドパイプ","latitude":35.44927058,"longitude":139.4743363}},{"type":"Feature","geometry":{"type":"Point","coordinates":[139.461828,35.438017]},"properties":{"cartodb_id":43,"addr_block_number":9,"id":43,"addr_housenumber":"1","addr_neighbourhood":"三丁目","addr_quarter":"渋谷","addr_city":"大和市","addr_province":"神奈川県","adress":"大和市渋谷3－9－1","fire_horse_landmark_xxx_description":"セブンイレブン大和渋谷3丁目店","website":"https://youtu.be/QyTJKyvb8uE","type":"コンビニ ","name_zh":"竖管","name_es":"soporte de tubo","name_ja_hira":"すたんどぱいぷ","name_ja_latn":"sutandopaipu","name_en":"Stand Pipe","name":"スタンドパイプ","latitude":35.43801742,"longitude":139.4618282}},{"type":"Feature","geometry":{"type":"Point","coordinates":[139.450892,35.495254]},"properties":{"cartodb_id":44,"addr_block_number":3217,"id":44,"addr_housenumber":"16","addr_neighbourhood":"","addr_quarter":"林間","addr_city":"大和市","addr_province":"神奈川県","adress":"大和市林間1－3217－16","fire_horse_landmark_xxx_description":"セブンイレブン大和林間1丁目店","website":"https://youtu.be/QyTJKyvb8uE","type":"コンビニ ","name_zh":"竖管","name_es":"soporte de tubo","name_ja_hira":"すたんどぱいぷ","name_ja_latn":"sutandopaipu","name_en":"Stand Pipe","name":"スタンドパイプ","latitude":35.49525412,"longitude":139.4508918}},{"type":"Feature","geometry":{"type":"Point","coordinates":[139.471303,35.43694]},"properties":{"cartodb_id":45,"addr_block_number":3294,"id":45,"addr_housenumber":"","addr_neighbourhood":"","addr_quarter":"上和田","addr_city":"大和市","addr_province":"神奈川県","adress":"大和市上和田3294","fire_horse_landmark_xxx_description":"スリーエフ大和上和田団地店","website":"https://youtu.be/QyTJKyvb8uE","type":"コンビニ ","name_zh":"竖管","name_es":"soporte de tubo","name_ja_hira":"すたんどぱいぷ","name_ja_latn":"sutandopaipu","name_en":"Stand Pipe","name":"スタンドパイプ","latitude":35.43694035,"longitude":139.4713031}},{"type":"Feature","geometry":{"type":"Point","coordinates":[139.449425,35.485452]},"properties":{"cartodb_id":46,"addr_block_number":7,"id":46,"addr_housenumber":"5","addr_neighbourhood":"四丁目","addr_quarter":"西鶴間","addr_city":"大和市","addr_province":"神奈川県","adress":"大和市西鶴間4－7－5","fire_horse_landmark_xxx_description":"スリーエフ大和西鶴間店","website":"https://youtu.be/QyTJKyvb8uE","type":"コンビニ ","name_zh":"竖管","name_es":"soporte de tubo","name_ja_hira":"すたんどぱいぷ","name_ja_latn":"sutandopaipu","name_en":"Stand Pipe","name":"スタンドパイプ","latitude":35.48545223,"longitude":139.4494255}},{"type":"Feature","geometry":{"type":"Point","coordinates":[139.462048,35.474008]},"properties":{"cartodb_id":47,"addr_block_number":9,"id":47,"addr_housenumber":"17","addr_neighbourhood":"二丁目","addr_quarter":"大和東","addr_city":"大和市","addr_province":"神奈川県","adress":"大和市大和東2－9－17","fire_horse_landmark_xxx_description":"スリーエフ大和東店","website":"https://youtu.be/QyTJKyvb8uE","type":"コンビニ ","name_zh":"竖管","name_es":"soporte de tubo","name_ja_hira":"すたんどぱいぷ","name_ja_latn":"sutandopaipu","name_en":"Stand Pipe","name":"スタンドパイプ","latitude":35.47400799,"longitude":139.4620479}},{"type":"Feature","geometry":{"type":"Point","coordinates":[139.43999,35.470312]},"properties":{"cartodb_id":48,"addr_block_number":8,"id":48,"addr_housenumber":"15","addr_neighbourhood":"二丁目","addr_quarter":"桜森","addr_city":"大和市","addr_province":"神奈川県","adress":"大和市桜森2－8－15","fire_horse_landmark_xxx_description":"スリーエフ相模大塚駅前店","website":"https://youtu.be/QyTJKyvb8uE","type":"コンビニ ","name_zh":"竖管","name_es":"soporte de tubo","name_ja_hira":"すたんどぱいぷ","name_ja_latn":"sutandopaipu","name_en":"Stand Pipe","name":"スタンドパイプ","latitude":35.4703119,"longitude":139.4399903}},{"type":"Feature","geometry":{"type":"Point","coordinates":[139.447818,35.493486]},"properties":{"cartodb_id":49,"addr_block_number":2,"id":49,"addr_housenumber":"14","addr_neighbourhood":"一丁目","addr_quarter":"南林間","addr_city":"大和市","addr_province":"神奈川県","adress":"大和市南林間1-2-14","fire_horse_landmark_xxx_description":"サンクス南林間店","website":"https://youtu.be/QyTJKyvb8uE","type":"コンビニ ","name_zh":"竖管","name_es":"soporte de tubo","name_ja_hira":"すたんどぱいぷ","name_ja_latn":"sutandopaipu","name_en":"Stand Pipe","name":"スタンドパイプ","latitude":35.49348583,"longitude":139.4478176}},{"type":"Feature","geometry":{"type":"Point","coordinates":[139.451406,35.510689]},"properties":{"cartodb_id":50,"addr_block_number":1554,"id":50,"addr_housenumber":"5","addr_neighbourhood":"","addr_quarter":"下鶴間","addr_city":"大和市","addr_province":"神奈川県","adress":"大和市下鶴間1554-5","fire_horse_landmark_xxx_description":"サークルＫ大和下鶴間北店","website":"https://youtu.be/QyTJKyvb8uE","type":"コンビニ ","name_zh":"竖管","name_es":"soporte de tubo","name_ja_hira":"すたんどぱいぷ","name_ja_latn":"sutandopaipu","name_en":"Stand Pipe","name":"スタンドパイプ","latitude":35.51068895,"longitude":139.4514056}},{"type":"Feature","geometry":{"type":"Point","coordinates":[139.463783,35.486278]},"properties":{"cartodb_id":51,"addr_block_number":7,"id":51,"addr_housenumber":"25","addr_neighbourhood":"六丁目","addr_quarter":"深見西","addr_city":"大和市","addr_province":"神奈川県","adress":"大和市深見西6-7-25","fire_horse_landmark_xxx_description":"サンクス大和深見西６丁目店","website":"https://youtu.be/QyTJKyvb8uE","type":"コンビニ ","name_zh":"竖管","name_es":"soporte de tubo","name_ja_hira":"すたんどぱいぷ","name_ja_latn":"sutandopaipu","name_en":"Stand Pipe","name":"スタンドパイプ","latitude":35.48627828,"longitude":139.4637828}},{"type":"Feature","geometry":{"type":"Point","coordinates":[139.44124,35.483602]},"properties":{"cartodb_id":52,"addr_block_number":1,"id":52,"addr_housenumber":"5","addr_neighbourhood":"八丁目","addr_quarter":"西鶴間","addr_city":"大和市","addr_province":"神奈川県","adress":"大和市西鶴間8-1-5","fire_horse_landmark_xxx_description":"サンクス大和西鶴間店","website":"https://youtu.be/QyTJKyvb8uE","type":"コンビニ ","name_zh":"竖管","name_es":"soporte de tubo","name_ja_hira":"すたんどぱいぷ","name_ja_latn":"sutandopaipu","name_en":"Stand Pipe","name":"スタンドパイプ","latitude":35.48360153,"longitude":139.44124}},{"type":"Feature","geometry":{"type":"Point","coordinates":[139.468308,35.430306]},"properties":{"cartodb_id":53,"addr_block_number":960,"id":53,"addr_housenumber":"","addr_neighbourhood":"","addr_quarter":"下和田","addr_city":"大和市","addr_province":"神奈川県","adress":"大和市下和田960","fire_horse_landmark_xxx_description":"サンクス大和下和田店","website":"https://youtu.be/QyTJKyvb8uE","type":"コンビニ ","name_zh":"竖管","name_es":"soporte de tubo","name_ja_hira":"すたんどぱいぷ","name_ja_latn":"sutandopaipu","name_en":"Stand Pipe","name":"スタンドパイプ","latitude":35.43030586,"longitude":139.4683083}},{"type":"Feature","geometry":{"type":"Point","coordinates":[139.463783,35.486278]},"properties":{"cartodb_id":54,"addr_block_number":7,"id":54,"addr_housenumber":"25","addr_neighbourhood":"六丁目","addr_quarter":"深見西","addr_city":"大和市","addr_province":"神奈川県","adress":"大和市深見西6-7-25","fire_horse_landmark_xxx_description":"サンクス大和深見西６丁目店","website":"https://youtu.be/QyTJKyvb8uE","type":"コンビニ ","name_zh":"竖管","name_es":"soporte de tubo","name_ja_hira":"すたんどぱいぷ","name_ja_latn":"sutandopaipu","name_en":"Stand Pipe","name":"スタンドパイプ","latitude":35.48627828,"longitude":139.4637828}},{"type":"Feature","geometry":{"type":"Point","coordinates":[139.43932,35.505161]},"properties":{"cartodb_id":55,"addr_block_number":4163,"id":55,"addr_housenumber":"23","addr_neighbourhood":"","addr_quarter":"下鶴間","addr_city":"大和市","addr_province":"神奈川県","adress":"大和市下鶴間4163-23","fire_horse_landmark_xxx_description":"コミュニティセンター緑野会館","website":"https://youtu.be/QyTJKyvb8uE","type":"コミセン ","name_zh":"竖管","name_es":"soporte de tubo","name_ja_hira":"すたんどぱいぷ","name_ja_latn":"sutandopaipu","name_en":"Stand Pipe","name":"スタンドパイプ","latitude":35.50516123,"longitude":139.4393198}},{"type":"Feature","geometry":{"type":"Point","coordinates":[139.43819,35.49234]},"properties":{"cartodb_id":56,"addr_block_number":14,"id":56,"addr_housenumber":"24","addr_neighbourhood":"七丁目","addr_quarter":"南林間","addr_city":"大和市","addr_province":"神奈川県","adress":"大和市南林間7-14-24","fire_horse_landmark_xxx_description":"コミュニティセンター南林間会館","website":"https://youtu.be/QyTJKyvb8uE","type":"コミセン ","name_zh":"竖管","name_es":"soporte de tubo","name_ja_hira":"すたんどぱいぷ","name_ja_latn":"sutandopaipu","name_en":"Stand Pipe","name":"スタンドパイプ","latitude":35.49234023,"longitude":139.4381896}},{"type":"Feature","geometry":{"type":"Point","coordinates":[139.46657,35.473798]},"properties":{"cartodb_id":57,"addr_block_number":10,"id":57,"addr_housenumber":"29","addr_neighbourhood":"四丁目","addr_quarter":"深見台","addr_city":"大和市","addr_province":"神奈川県","adress":"大和市深見台4-10-29","fire_horse_landmark_xxx_description":"コミュニティセンター深見中会館","website":"https://youtu.be/QyTJKyvb8uE","type":"コミセン ","name_zh":"竖管","name_es":"soporte de tubo","name_ja_hira":"すたんどぱいぷ","name_ja_latn":"sutandopaipu","name_en":"Stand Pipe","name":"スタンドパイプ","latitude":35.47379794,"longitude":139.4665704}},{"type":"Feature","geometry":{"type":"Point","coordinates":[139.441049,35.472755]},"properties":{"cartodb_id":58,"addr_block_number":5,"id":58,"addr_housenumber":"21","addr_neighbourhood":"三丁目","addr_quarter":"桜森","addr_city":"大和市","addr_province":"神奈川県","adress":"大和市桜森3-5-21","fire_horse_landmark_xxx_description":"コミュニティセンター桜森会館","website":"https://youtu.be/QyTJKyvb8uE","type":"コミセン ","name_zh":"竖管","name_es":"soporte de tubo","name_ja_hira":"すたんどぱいぷ","name_ja_latn":"sutandopaipu","name_en":"Stand Pipe","name":"スタンドパイプ","latitude":35.47275509,"longitude":139.4410495}},{"type":"Feature","geometry":{"type":"Point","coordinates":[139.470676,35.452652]},"properties":{"cartodb_id":59,"addr_block_number":860,"id":59,"addr_housenumber":"1","addr_neighbourhood":"","addr_quarter":"上和田","addr_city":"大和市","addr_province":"神奈川県","adress":"大和市上和田860-1","fire_horse_landmark_xxx_description":"コミュニティセンター桜丘会館","website":"https://youtu.be/QyTJKyvb8uE","type":"コミセン ","name_zh":"竖管","name_es":"soporte de tubo","name_ja_hira":"すたんどぱいぷ","name_ja_latn":"sutandopaipu","name_en":"Stand Pipe","name":"スタンドパイプ","latitude":35.45265187,"longitude":139.4706756}},{"type":"Feature","geometry":{"type":"Point","coordinates":[139.457002,35.430622]},"properties":{"cartodb_id":60,"addr_block_number":611,"id":60,"addr_housenumber":"1","addr_neighbourhood":"","addr_quarter":"福田","addr_city":"大和市","addr_province":"神奈川県","adress":"大和市福田611-1","fire_horse_landmark_xxx_description":"コミュニティセンター下福田会館","website":"https://youtu.be/QyTJKyvb8uE","type":"コミセン ","name_zh":"竖管","name_es":"soporte de tubo","name_ja_hira":"すたんどぱいぷ","name_ja_latn":"sutandopaipu","name_en":"Stand Pipe","name":"スタンドパイプ","latitude":35.43062214,"longitude":139.4570016}},{"type":"Feature","geometry":{"type":"Point","coordinates":[139.453075,35.479404]},"properties":{"cartodb_id":61,"addr_block_number":3,"id":61,"addr_housenumber":"11","addr_neighbourhood":"五丁目","addr_quarter":"上草柳","addr_city":"大和市","addr_province":"神奈川県","adress":"大和市上草柳5-3-11","fire_horse_landmark_xxx_description":"コミュニティセンター上草柳会館","website":"https://youtu.be/QyTJKyvb8uE","type":"コミセン ","name_zh":"竖管","name_es":"soporte de tubo","name_ja_hira":"すたんどぱいぷ","name_ja_latn":"sutandopaipu","name_en":"Stand Pipe","name":"スタンドパイプ","latitude":35.47940397,"longitude":139.4530747}},{"type":"Feature","geometry":{"type":"Point","coordinates":[139.470915,35.440804]},"properties":{"cartodb_id":62,"addr_block_number":2700,"id":62,"addr_housenumber":"18","addr_neighbourhood":"","addr_quarter":"上和田","addr_city":"大和市","addr_province":"神奈川県","adress":"大和市上和田2700-18","fire_horse_landmark_xxx_description":"コミュニティセンター上和田会館","website":"https://youtu.be/QyTJKyvb8uE","type":"コミセン ","name_zh":"竖管","name_es":"soporte de tubo","name_ja_hira":"すたんどぱいぷ","name_ja_latn":"sutandopaipu","name_en":"Stand Pipe","name":"スタンドパイプ","latitude":35.44080374,"longitude":139.4709149}},{"type":"Feature","geometry":{"type":"Point","coordinates":[139.45889,35.513893]},"properties":{"cartodb_id":63,"addr_block_number":504,"id":63,"addr_housenumber":"１","addr_neighbourhood":"","addr_quarter":"下鶴間","addr_city":"大和市","addr_province":"神奈川県","adress":"大和市下鶴間504-1","fire_horse_landmark_xxx_description":"コミュニティセンター公所会館","website":"https://youtu.be/QyTJKyvb8uE","type":"コミセン ","name_zh":"竖管","name_es":"soporte de tubo","name_ja_hira":"すたんどぱいぷ","name_ja_latn":"sutandopaipu","name_en":"Stand Pipe","name":"スタンドパイプ","latitude":35.51389293,"longitude":139.4588898}},{"type":"Feature","geometry":{"type":"Point","coordinates":[139.459911,35.463821]},"properties":{"cartodb_id":64,"addr_block_number":5,"id":64,"addr_housenumber":"19","addr_neighbourhood":"六丁目","addr_quarter":"中央","addr_city":"大和市","addr_province":"神奈川県","adress":"大和市中央6-5-19","fire_horse_landmark_xxx_description":"コミュニティセンター下草柳会館","website":"https://youtu.be/QyTJKyvb8uE","type":"コミセン ","name_zh":"竖管","name_es":"soporte de tubo","name_ja_hira":"すたんどぱいぷ","name_ja_latn":"sutandopaipu","name_en":"Stand Pipe","name":"スタンドパイプ","latitude":35.46382124,"longitude":139.4599108}},{"type":"Feature","geometry":{"type":"Point","coordinates":[139.462893,35.497798]},"properties":{"cartodb_id":65,"addr_block_number":2516,"id":65,"addr_housenumber":"2","addr_neighbourhood":"","addr_quarter":"下鶴間","addr_city":"大和市","addr_province":"神奈川県","adress":"大和市下鶴間2516-2","fire_horse_landmark_xxx_description":"コミュニティセンター下鶴間会館","website":"https://youtu.be/QyTJKyvb8uE","type":"コミセン ","name_zh":"竖管","name_es":"soporte de tubo","name_ja_hira":"すたんどぱいぷ","name_ja_latn":"sutandopaipu","name_en":"Stand Pipe","name":"スタンドパイプ","latitude":35.49779781,"longitude":139.4628926}},{"type":"Feature","geometry":{"type":"Point","coordinates":[139.469823,35.425567]},"properties":{"cartodb_id":66,"addr_block_number":791,"id":66,"addr_housenumber":"2","addr_neighbourhood":"","addr_quarter":"下和田","addr_city":"大和市","addr_province":"神奈川県","adress":"大和市下和田791-2","fire_horse_landmark_xxx_description":"コミュニティセンター下和田会館","website":"https://youtu.be/QyTJKyvb8uE","type":"コミセン ","name_zh":"竖管","name_es":"soporte de tubo","name_ja_hira":"すたんどぱいぷ","name_ja_latn":"sutandopaipu","name_en":"Stand Pipe","name":"スタンドパイプ","latitude":35.42556684,"longitude":139.4698233}},{"type":"Feature","geometry":{"type":"Point","coordinates":[139.453104,35.471272]},"properties":{"cartodb_id":67,"addr_block_number":552,"id":67,"addr_housenumber":"1","addr_neighbourhood":"","addr_quarter":"下草柳","addr_city":"大和市","addr_province":"神奈川県","adress":"大和市下草柳552-1","fire_horse_landmark_xxx_description":"コミュニティセンター草柳会館","website":"https://youtu.be/QyTJKyvb8uE","type":"コミセン ","name_zh":"竖管","name_es":"soporte de tubo","name_ja_hira":"すたんどぱいぷ","name_ja_latn":"sutandopaipu","name_en":"Stand Pipe","name":"スタンドパイプ","latitude":35.47127207,"longitude":139.4531043}},{"type":"Feature","geometry":{"type":"Point","coordinates":[139.446453,35.512]},"properties":{"cartodb_id":68,"addr_block_number":4444,"id":68,"addr_housenumber":"2","addr_neighbourhood":"","addr_quarter":"下鶴間","addr_city":"大和市","addr_province":"神奈川県","adress":"大和市下鶴間4444-2","fire_horse_landmark_xxx_description":"コミュニティセンター中央林間会館","website":"https://youtu.be/QyTJKyvb8uE","type":"コミセン ","name_zh":"竖管","name_es":"soporte de tubo","name_ja_hira":"すたんどぱいぷ","name_ja_latn":"sutandopaipu","name_en":"Stand Pipe","name":"スタンドパイプ","latitude":35.51200022,"longitude":139.4464528}},{"type":"Feature","geometry":{"type":"Point","coordinates":[139.454624,35.491091]},"properties":{"cartodb_id":69,"addr_block_number":12,"id":69,"addr_housenumber":"35","addr_neighbourhood":"二丁目","addr_quarter":"鶴間","addr_city":"大和市","addr_province":"神奈川県","adress":"大和市鶴間2-12-35","fire_horse_landmark_xxx_description":"コミュニティセンター鶴間会館","website":"https://youtu.be/QyTJKyvb8uE","type":"コミセン ","name_zh":"竖管","name_es":"soporte de tubo","name_ja_hira":"すたんどぱいぷ","name_ja_latn":"sutandopaipu","name_en":"Stand Pipe","name":"スタンドパイプ","latitude":35.49109128,"longitude":139.4546236}},{"type":"Feature","geometry":{"type":"Point","coordinates":[139.447684,35.489701]},"properties":{"cartodb_id":70,"addr_block_number":4,"id":70,"addr_housenumber":"20","addr_neighbourhood":"二丁目","addr_quarter":"西鶴間","addr_city":"大和市","addr_province":"神奈川県","adress":"大和市西鶴間2-4-20","fire_horse_landmark_xxx_description":"コミュニティセンター西鶴間会館","website":"https://youtu.be/QyTJKyvb8uE","type":"コミセン ","name_zh":"竖管","name_es":"soporte de tubo","name_ja_hira":"すたんどぱいぷ","name_ja_latn":"sutandopaipu","name_en":"Stand Pipe","name":"スタンドパイプ","latitude":35.48970076,"longitude":139.4476839}},{"type":"Feature","geometry":{"type":"Point","coordinates":[139.465295,35.486117]},"properties":{"cartodb_id":71,"addr_block_number":498,"id":71,"addr_housenumber":"5","addr_neighbourhood":"","addr_quarter":"深見","addr_city":"大和市","addr_province":"神奈川県","adress":"大和市深見498-5","fire_horse_landmark_xxx_description":"コミュニティセンター深見北会館","website":"https://youtu.be/QyTJKyvb8uE","type":"コミセン ","name_zh":"竖管","name_es":"soporte de tubo","name_ja_hira":"すたんどぱいぷ","name_ja_latn":"sutandopaipu","name_en":"Stand Pipe","name":"スタンドパイプ","latitude":35.4861171,"longitude":139.4652954}},{"type":"Feature","geometry":{"type":"Point","coordinates":[139.469427,35.465327]},"properties":{"cartodb_id":72,"addr_block_number":9,"id":72,"addr_housenumber":"19","addr_neighbourhood":"一丁目","addr_quarter":"深見台","addr_city":"大和市","addr_province":"神奈川県","adress":"大和市深見台1-9-19","fire_horse_landmark_xxx_description":"コミュニティセンター深見南会館","website":"https://youtu.be/QyTJKyvb8uE","type":"コミセン ","name_zh":"竖管","name_es":"soporte de tubo","name_ja_hira":"すたんどぱいぷ","name_ja_latn":"sutandopaipu","name_en":"Stand Pipe","name":"スタンドパイプ","latitude":35.46532732,"longitude":139.4694269}},{"type":"Feature","geometry":{"type":"Point","coordinates":[139.461137,35.441888]},"properties":{"cartodb_id":73,"addr_block_number":22,"id":73,"addr_housenumber":"3","addr_neighbourhood":"一丁目","addr_quarter":"代官","addr_city":"大和市","addr_province":"神奈川県","adress":"大和市代官1-22-3","fire_horse_landmark_xxx_description":"コミュニティセンター福田会館","website":"https://youtu.be/QyTJKyvb8uE","type":"コミセン ","name_zh":"竖管","name_es":"soporte de tubo","name_ja_hira":"すたんどぱいぷ","name_ja_latn":"sutandopaipu","name_en":"Stand Pipe","name":"スタンドパイプ","latitude":35.4418884,"longitude":139.4611369}},{"type":"Feature","geometry":{"type":"Point","coordinates":[139.463324,35.456357]},"properties":{"cartodb_id":74,"addr_block_number":12,"id":74,"addr_housenumber":"2","addr_neighbourhood":"二丁目","addr_quarter":"柳橘","addr_city":"大和市","addr_province":"神奈川県","adress":"大和市柳橋2-12-2","fire_horse_landmark_xxx_description":"コミュニティセンター柳橋会館","website":"https://youtu.be/QyTJKyvb8uE","type":"コミセン ","name_zh":"竖管","name_es":"soporte de tubo","name_ja_hira":"すたんどぱいぷ","name_ja_latn":"sutandopaipu","name_en":"Stand Pipe","name":"スタンドパイプ","latitude":35.45635713,"longitude":139.4633239}},{"type":"Feature","geometry":{"type":"Point","coordinates":[139.461205,35.469949]},"properties":{"cartodb_id":75,"addr_block_number":1,"id":75,"addr_housenumber":"1","addr_neighbourhood":"二丁目","addr_quarter":"中央","addr_city":"大和市","addr_province":"神奈川県","adress":"大和市中央2-1-1","fire_horse_landmark_xxx_description":"相模鉄道株式会社　大和駅","website":"https://youtu.be/QyTJKyvb8uE","type":"駅 ","name_zh":"竖管","name_es":"soporte de tubo","name_ja_hira":"すたんどぱいぷ","name_ja_latn":"sutandopaipu","name_en":"Stand Pipe","name":"スタンドパイプ","latitude":35.46994878,"longitude":139.4612053}},{"type":"Feature","geometry":{"type":"Point","coordinates":[139.461522,35.469684]},"properties":{"cartodb_id":76,"addr_block_number":1,"id":76,"addr_housenumber":"1","addr_neighbourhood":"一丁目","addr_quarter":"大和南","addr_city":"大和市","addr_province":"神奈川県","adress":"大和市大和南1-1-1","fire_horse_landmark_xxx_description":"小田急電鉄株式会社　大和駅","website":"https://youtu.be/QyTJKyvb8uE","type":"駅 ","name_zh":"竖管","name_es":"soporte de tubo","name_ja_hira":"すたんどぱいぷ","name_ja_latn":"sutandopaipu","name_en":"Stand Pipe","name":"スタンドパイプ","latitude":35.46968408,"longitude":139.461522}},{"type":"Feature","geometry":{"type":"Point","coordinates":[139.444982,35.507532]},"properties":{"cartodb_id":77,"addr_block_number":6,"id":77,"addr_housenumber":"3","addr_neighbourhood":"四丁目","addr_quarter":"中央林間","addr_city":"大和市","addr_province":"神奈川県","adress":"大和市中央林間4-6-3","fire_horse_landmark_xxx_description":"東急電鉄株式会社　中央林間駅","website":"https://youtu.be/QyTJKyvb8uE","type":"駅 ","name_zh":"竖管","name_es":"soporte de tubo","name_ja_hira":"すたんどぱいぷ","name_ja_latn":"sutandopaipu","name_en":"Stand Pipe","name":"スタンドパイプ","latitude":35.50753162,"longitude":139.444982}}]}