{"type": "FeatureCollection", "features": [{"type":"Feature","geometry":{"type":"Point","coordinates":[139.458878,35.497349]},"properties":{"cartodb_id":142,"addr_housenumber":null,"addr_block_number":2966,"cd":213005000,"memo":"公設","access":"山王社","addr_neighbourhood":"","addre_quarter":"下鶴間","addr_city":"大和市","addr_province":"神奈川県","address":"大和市下鶴間２９６６ ","id":"023-202-6","areaname":"北分署２管区","jurisdiction":"北分署","name_zh":"消防水箱","name_es":"cistermas","name_ja_hira":"ぼうかすいそう","name_ja":"防火水槽","name_ja_latn":"Bōkasuisō","name_en":"Watar Tank","name":"防火水槽","longitude":139.4588777,"latitude":35.4973493}},{"type":"Feature","geometry":{"type":"Point","coordinates":[139.439951,35.509538]},"properties":{"cartodb_id":166,"addr_housenumber":14,"addr_block_number":16,"cd":213010005,"memo":"公設","access":"","addr_neighbourhood":"五丁目","addre_quarter":"中央林間","addr_city":"大和市","addr_province":"神奈川県","address":"大和市中央林間五丁目１６－１４ ","id":"023-203-1","areaname":"北分署３管区","jurisdiction":"北分署","name_zh":"消防水箱","name_es":"cistermas","name_ja_hira":"ぼうかすいそう","name_ja":"防火水槽","name_ja_latn":"Bōkasuisō","name_en":"Watar Tank","name":"防火水槽","longitude":139.4399506,"latitude":35.5095378}},{"type":"Feature","geometry":{"type":"Point","coordinates":[139.460318,35.516155]},"properties":{"cartodb_id":101,"addr_housenumber":null,"addr_block_number":95,"cd":213005000,"memo":"公設","access":"第１分団","addr_neighbourhood":"","addre_quarter":"下鶴間","addr_city":"大和市","addr_province":"神奈川県","address":"大和市下鶴間９５ ","id":"023-201-12","areaname":"北分署１管区","jurisdiction":"北分署","name_zh":"消防水箱","name_es":"cistermas","name_ja_hira":"ぼうかすいそう","name_ja":"防火水槽","name_ja_latn":"Bōkasuisō","name_en":"Watar Tank","name":"防火水槽","longitude":139.4603177,"latitude":35.51615501}},{"type":"Feature","geometry":{"type":"Point","coordinates":[139.46084,35.490762]},"properties":{"cartodb_id":1,"addr_housenumber":null,"addr_block_number":2,"cd":213005002,"memo":"公設","access":"長堀２号公園","addr_neighbourhood":"二丁目","addre_quarter":"下鶴間","addr_city":"大和市","addr_province":"神奈川県","address":"大和市下鶴間二丁目２ ","id":"020-101-1","areaname":"本署１管区","jurisdiction":"本署","name_zh":"消防水箱","name_es":"cistermas","name_ja_hira":"ぼうかすいそう","name_ja":"防火水槽","name_ja_latn":"Bōkasuisō","name_en":"Water Tank","name":"防火水槽","longitude":139.4608397,"latitude":35.49076209}},{"type":"Feature","geometry":{"type":"Point","coordinates":[139.465371,35.488293]},"properties":{"cartodb_id":2,"addr_housenumber":1,"addr_block_number":501,"cd":213014000,"memo":"公設","access":"","addr_neighbourhood":"","addre_quarter":"深見","addr_city":"大和市","addr_province":"神奈川県","address":"大和市深見５０１－１ ","id":"020-101-2","areaname":"本署１管区","jurisdiction":"本署","name_zh":"消防水箱","name_es":"cistermas","name_ja_hira":"ぼうかすいそう","name_ja":"防火水槽","name_ja_latn":"Bōkasuisō","name_en":"Water Tank","name":"防火水槽","longitude":139.4653707,"latitude":35.48829328}},{"type":"Feature","geometry":{"type":"Point","coordinates":[139.46633,35.48202]},"properties":{"cartodb_id":3,"addr_housenumber":15,"addr_block_number":3,"cd":213024002,"memo":"公設","access":"","addr_neighbourhood":"二丁目","addre_quarter":"深見東","addr_city":"大和市","addr_province":"神奈川県","address":"大和市深見東二丁目３－１５ ","id":"020-101-3","areaname":"本署１管区","jurisdiction":"本署","name_zh":"消防水箱","name_es":"cistermas","name_ja_hira":"ぼうかすいそう","name_ja":"防火水槽","name_ja_latn":"Bōkasuisō","name_en":"Water Tank","name":"防火水槽","longitude":139.4663304,"latitude":35.48202045}},{"type":"Feature","geometry":{"type":"Point","coordinates":[139.453959,35.488676]},"properties":{"cartodb_id":4,"addr_housenumber":11,"addr_block_number":5,"cd":213012001,"memo":"公設","access":"鶴間台自治会館","addr_neighbourhood":"一丁目","addre_quarter":"鶴間","addr_city":"大和市","addr_province":"神奈川県","address":"大和市鶴間一丁目５－１１ ","id":"020-101-4","areaname":"本署１管区","jurisdiction":"本署","name_zh":"消防水箱","name_es":"cistermas","name_ja_hira":"ぼうかすいそう","name_ja":"防火水槽","name_ja_latn":"Bōkasuisō","name_en":"Water Tank","name":"防火水槽","longitude":139.4539593,"latitude":35.48867611}},{"type":"Feature","geometry":{"type":"Point","coordinates":[139.463416,35.476245]},"properties":{"cartodb_id":5,"addr_housenumber":34,"addr_block_number":4,"cd":213023002,"memo":"公設","access":"","addr_neighbourhood":"二丁目","addre_quarter":"深見西","addr_city":"大和市","addr_province":"神奈川県","address":"大和市深見西二丁目４－３４ ","id":"020-101-5","areaname":"本署１管区","jurisdiction":"本署","name_zh":"消防水箱","name_es":"cistermas","name_ja_hira":"ぼうかすいそう","name_ja":"防火水槽","name_ja_latn":"Bōkasuisō","name_en":"Water Tank","name":"防火水槽","longitude":139.463416,"latitude":35.47624507}},{"type":"Feature","geometry":{"type":"Point","coordinates":[139.455613,35.487631]},"properties":{"cartodb_id":6,"addr_housenumber":10,"addr_block_number":24,"cd":213012001,"memo":"公設","access":"","addr_neighbourhood":"一丁目","addre_quarter":"鶴間","addr_city":"大和市","addr_province":"神奈川県","address":"大和市鶴間一丁目２４－１０ ","id":"020-101-6","areaname":"本署１管区","jurisdiction":"本署","name_zh":"消防水箱","name_es":"cistermas","name_ja_hira":"ぼうかすいそう","name_ja":"防火水槽","name_ja_latn":"Bōkasuisō","name_en":"Water Tank","name":"防火水槽","longitude":139.4556134,"latitude":35.48763142}},{"type":"Feature","geometry":{"type":"Point","coordinates":[139.454129,35.486226]},"properties":{"cartodb_id":7,"addr_housenumber":null,"addr_block_number":18,"cd":213012001,"memo":"公設","access":"市営鶴間台住宅","addr_neighbourhood":"一丁目","addre_quarter":"鶴間","addr_city":"大和市","addr_province":"神奈川県","address":"大和市鶴間一丁目１８ ","id":"020-101-7","areaname":"本署１管区","jurisdiction":"本署","name_zh":"消防水箱","name_es":"cistermas","name_ja_hira":"ぼうかすいそう","name_ja":"防火水槽","name_ja_latn":"Bōkasuisō","name_en":"Water Tank","name":"防火水槽","longitude":139.4541289,"latitude":35.48622594}},{"type":"Feature","geometry":{"type":"Point","coordinates":[139.456314,35.486445]},"properties":{"cartodb_id":8,"addr_housenumber":null,"addr_block_number":5,"cd":213023007,"memo":"公設","access":"市立大和中学校","addr_neighbourhood":"七丁目","addre_quarter":"深見西","addr_city":"大和市","addr_province":"神奈川県","address":"大和市深見西七丁目５ ","id":"020-101-8","areaname":"本署１管区","jurisdiction":"本署","name_zh":"消防水箱","name_es":"cistermas","name_ja_hira":"ぼうかすいそう","name_ja":"防火水槽","name_ja_latn":"Bōkasuisō","name_en":"Water Tank","name":"防火水槽","longitude":139.456314,"latitude":35.48644537}},{"type":"Feature","geometry":{"type":"Point","coordinates":[139.468092,35.4868]},"properties":{"cartodb_id":9,"addr_housenumber":null,"addr_block_number":677,"cd":213014000,"memo":"公設","access":"","addr_neighbourhood":"","addre_quarter":"深見","addr_city":"大和市","addr_province":"神奈川県","address":"大和市深見６７７ ","id":"020-101-9","areaname":"本署１管区","jurisdiction":"本署","name_zh":"消防水箱","name_es":"cistermas","name_ja_hira":"ぼうかすいそう","name_ja":"防火水槽","name_ja_latn":"Bōkasuisō","name_en":"Water Tank","name":"防火水槽","longitude":139.4680917,"latitude":35.48679964}},{"type":"Feature","geometry":{"type":"Point","coordinates":[139.457359,35.478568]},"properties":{"cartodb_id":10,"addr_housenumber":11,"addr_block_number":1,"cd":213023003,"memo":"公設","access":"","addr_neighbourhood":"三丁目","addre_quarter":"深見西","addr_city":"大和市","addr_province":"神奈川県","address":"大和市深見西三丁目１－１１ ","id":"020-101-10","areaname":"本署１管区","jurisdiction":"本署","name_zh":"消防水箱","name_es":"cistermas","name_ja_hira":"ぼうかすいそう","name_ja":"防火水槽","name_ja_latn":"Bōkasuisō","name_en":"Water Tank","name":"防火水槽","longitude":139.4573593,"latitude":35.47856823}},{"type":"Feature","geometry":{"type":"Point","coordinates":[139.457514,35.486954]},"properties":{"cartodb_id":11,"addr_housenumber":1,"addr_block_number":1,"cd":213005001,"memo":"公設","access":"大和市役所","addr_neighbourhood":"一丁目","addre_quarter":"下鶴間","addr_city":"大和市","addr_province":"神奈川県","address":"大和市下鶴間一丁目１－１ ","id":"020-101-11","areaname":"本署１管区","jurisdiction":"本署","name_zh":"消防水箱","name_es":"cistermas","name_ja_hira":"ぼうかすいそう","name_ja":"防火水槽","name_ja_latn":"Bōkasuisō","name_en":"Water Tank","name":"防火水槽","longitude":139.4575142,"latitude":35.48695386}},{"type":"Feature","geometry":{"type":"Point","coordinates":[139.459058,35.479143]},"properties":{"cartodb_id":12,"addr_housenumber":22,"addr_block_number":1,"cd":213023003,"memo":"公設","access":"","addr_neighbourhood":"三丁目","addre_quarter":"深見西","addr_city":"大和市","addr_province":"神奈川県","address":"大和市深見西三丁目１－２２ ","id":"020-101-12","areaname":"本署１管区","jurisdiction":"本署","name_zh":"消防水箱","name_es":"cistermas","name_ja_hira":"ぼうかすいそう","name_ja":"防火水槽","name_ja_latn":"Bōkasuisō","name_en":"Water Tank","name":"防火水槽","longitude":139.4590581,"latitude":35.47914286}},{"type":"Feature","geometry":{"type":"Point","coordinates":[139.462889,35.478134]},"properties":{"cartodb_id":13,"addr_housenumber":41,"addr_block_number":7,"cd":213023002,"memo":"公設","access":"","addr_neighbourhood":"二丁目","addre_quarter":"深見西","addr_city":"大和市","addr_province":"神奈川県","address":"大和市深見西二丁目７－４１ ","id":"020-101-13","areaname":"本署１管区","jurisdiction":"本署","name_zh":"消防水箱","name_es":"cistermas","name_ja_hira":"ぼうかすいそう","name_ja":"防火水槽","name_ja_latn":"Bōkasuisō","name_en":"Water Tank","name":"防火水槽","longitude":139.462889,"latitude":35.47813379}},{"type":"Feature","geometry":{"type":"Point","coordinates":[139.453787,35.487245]},"properties":{"cartodb_id":14,"addr_housenumber":null,"addr_block_number":13,"cd":213012001,"memo":"公設","access":"分団機械器具置場","addr_neighbourhood":"一丁目","addre_quarter":"鶴間","addr_city":"大和市","addr_province":"神奈川県","address":"大和市鶴間一丁目１３ ","id":"020-101-14","areaname":"本署１管区","jurisdiction":"本署","name_zh":"消防水箱","name_es":"cistermas","name_ja_hira":"ぼうかすいそう","name_ja":"防火水槽","name_ja_latn":"Bōkasuisō","name_en":"Water Tank","name":"防火水槽","longitude":139.4537866,"latitude":35.48724511}},{"type":"Feature","geometry":{"type":"Point","coordinates":[139.459899,35.477058]},"properties":{"cartodb_id":15,"addr_housenumber":19,"addr_block_number":4,"cd":213023001,"memo":"公設","access":"","addr_neighbourhood":"一丁目","addre_quarter":"深見西","addr_city":"大和市","addr_province":"神奈川県","address":"大和市深見西一丁目４－１９ ","id":"020-101-15","areaname":"本署１管区","jurisdiction":"本署","name_zh":"消防水箱","name_es":"cistermas","name_ja_hira":"ぼうかすいそう","name_ja":"防火水槽","name_ja_latn":"Bōkasuisō","name_en":"Water Tank","name":"防火水槽","longitude":139.4598987,"latitude":35.47705813}},{"type":"Feature","geometry":{"type":"Point","coordinates":[139.465715,35.486821]},"properties":{"cartodb_id":16,"addr_housenumber":1,"addr_block_number":508,"cd":213014000,"memo":"公設","access":"","addr_neighbourhood":"","addre_quarter":"深見","addr_city":"大和市","addr_province":"神奈川県","address":"大和市深見５０８－１ ","id":"020-101-16","areaname":"本署１管区","jurisdiction":"本署","name_zh":"消防水箱","name_es":"cistermas","name_ja_hira":"ぼうかすいそう","name_ja":"防火水槽","name_ja_latn":"Bōkasuisō","name_en":"Water Tank","name":"防火水槽","longitude":139.4657149,"latitude":35.48682119}},{"type":"Feature","geometry":{"type":"Point","coordinates":[139.462978,35.485321]},"properties":{"cartodb_id":17,"addr_housenumber":null,"addr_block_number":24,"cd":213023006,"memo":"公設","access":"ライオンズマンション大和B棟","addr_neighbourhood":"六丁目","addre_quarter":"深見西","addr_city":"大和市","addr_province":"神奈川県","address":"大和市深見西六丁目２４ ","id":"020-101-17","areaname":"本署１管区","jurisdiction":"本署","name_zh":"消防水箱","name_es":"cistermas","name_ja_hira":"ぼうかすいそう","name_ja":"防火水槽","name_ja_latn":"Bōkasuisō","name_en":"Water Tank","name":"防火水槽","longitude":139.4629776,"latitude":35.48532116}},{"type":"Feature","geometry":{"type":"Point","coordinates":[139.461836,35.488304]},"properties":{"cartodb_id":18,"addr_housenumber":22,"addr_block_number":5,"cd":213005002,"memo":"公設","access":"大和原自治会館","addr_neighbourhood":"二丁目","addre_quarter":"下鶴間","addr_city":"大和市","addr_province":"神奈川県","address":"大和市下鶴間二丁目５－２２ ","id":"020-101-18","areaname":"本署１管区","jurisdiction":"本署","name_zh":"消防水箱","name_es":"cistermas","name_ja_hira":"ぼうかすいそう","name_ja":"防火水槽","name_ja_latn":"Bōkasuisō","name_en":"Water Tank","name":"防火水槽","longitude":139.4618356,"latitude":35.48830365}},{"type":"Feature","geometry":{"type":"Point","coordinates":[139.462424,35.490844]},"properties":{"cartodb_id":19,"addr_housenumber":14,"addr_block_number":11,"cd":213005002,"memo":"公設","access":"大和原１号公園","addr_neighbourhood":"二丁目","addre_quarter":"下鶴間","addr_city":"大和市","addr_province":"神奈川県","address":"大和市下鶴間二丁目１１－１４ ","id":"020-101-19","areaname":"本署１管区","jurisdiction":"本署","name_zh":"消防水箱","name_es":"cistermas","name_ja_hira":"ぼうかすいそう","name_ja":"防火水槽","name_ja_latn":"Bōkasuisō","name_en":"Water Tank","name":"防火水槽","longitude":139.4624237,"latitude":35.49084383}},{"type":"Feature","geometry":{"type":"Point","coordinates":[139.464238,35.482396]},"properties":{"cartodb_id":20,"addr_housenumber":28,"addr_block_number":8,"cd":213023004,"memo":"公設","access":"木もれ日公園21世樹","addr_neighbourhood":"四丁目","addre_quarter":"深見西","addr_city":"大和市","addr_province":"神奈川県","address":"大和市深見西四丁目８－２８ ","id":"020-101-20","areaname":"本署１管区","jurisdiction":"本署","name_zh":"消防水箱","name_es":"cistermas","name_ja_hira":"ぼうかすいそう","name_ja":"防火水槽","name_ja_latn":"Bōkasuisō","name_en":"Water Tank","name":"防火水槽","longitude":139.4642382,"latitude":35.48239638}},{"type":"Feature","geometry":{"type":"Point","coordinates":[139.465642,35.488792]},"properties":{"cartodb_id":21,"addr_housenumber":null,"addr_block_number":484,"cd":213014000,"memo":"公設","access":"一之関公園","addr_neighbourhood":"","addre_quarter":"深見","addr_city":"大和市","addr_province":"神奈川県","address":"大和市深見４８４－１ ","id":"020-101-22","areaname":"本署１管区","jurisdiction":"本署","name_zh":"消防水箱","name_es":"cistermas","name_ja_hira":"ぼうかすいそう","name_ja":"防火水槽","name_ja_latn":"Bōkasuisō","name_en":"Water Tank","name":"防火水槽","longitude":139.4656423,"latitude":35.48879233}},{"type":"Feature","geometry":{"type":"Point","coordinates":[139.462454,35.482397]},"properties":{"cartodb_id":22,"addr_housenumber":null,"addr_block_number":6,"cd":213023004,"memo":"公設","access":"庚申塚公園","addr_neighbourhood":"四丁目","addre_quarter":"深見西","addr_city":"大和市","addr_province":"神奈川県","address":"大和市深見西四丁目６ ","id":"020-101-23","areaname":"本署１管区","jurisdiction":"本署","name_zh":"消防水箱","name_es":"cistermas","name_ja_hira":"ぼうかすいそう","name_ja":"防火水槽","name_ja_latn":"Bōkasuisō","name_en":"Watar Tank","name":"防火水槽","longitude":139.4624536,"latitude":35.48239659}},{"type":"Feature","geometry":{"type":"Point","coordinates":[139.459705,35.485725]},"properties":{"cartodb_id":23,"addr_housenumber":null,"addr_block_number":4,"cd":213023008,"memo":"公設","access":"なぎ原１号公園","addr_neighbourhood":"八丁目","addre_quarter":"深見西","addr_city":"大和市","addr_province":"神奈川県","address":"大和市深見西八丁目４ ","id":"020-101-24","areaname":"本署１管区","jurisdiction":"本署","name_zh":"消防水箱","name_es":"cistermas","name_ja_hira":"ぼうかすいそう","name_ja":"防火水槽","name_ja_latn":"Bōkasuisō","name_en":"Watar Tank","name":"防火水槽","longitude":139.4597052,"latitude":35.48572479}},{"type":"Feature","geometry":{"type":"Point","coordinates":[139.454743,35.487536]},"properties":{"cartodb_id":24,"addr_housenumber":7,"addr_block_number":3061,"cd":213012001,"memo":"公設","access":"鶴間2号公園","addr_neighbourhood":"一丁目","addre_quarter":"鶴間","addr_city":"大和市","addr_province":"神奈川県","address":"大和市鶴間一丁目３０６１－７ ","id":"020-101-25","areaname":"本署１管区","jurisdiction":"本署","name_zh":"消防水箱","name_es":"cistermas","name_ja_hira":"ぼうかすいそう","name_ja":"防火水槽","name_ja_latn":"Bōkasuisō","name_en":"Watar Tank","name":"防火水槽","longitude":139.4547427,"latitude":35.48753643}},{"type":"Feature","geometry":{"type":"Point","coordinates":[139.462484,35.472992]},"properties":{"cartodb_id":25,"addr_housenumber":1,"addr_block_number":9,"cd":213020003,"memo":"公設","access":"ハマヤスポ－ツ","addr_neighbourhood":"三丁目","addre_quarter":"大和東","addr_city":"大和市","addr_province":"神奈川県","address":"大和市大和東三丁目９－１ ","id":"020-102-2","areaname":"本署２管区","jurisdiction":"本署","name_zh":"消防水箱","name_es":"cistermas","name_ja_hira":"ぼうかすいそう","name_ja":"防火水槽","name_ja_latn":"Bōkasuisō","name_en":"Watar Tank","name":"防火水槽","longitude":139.4624845,"latitude":35.47299163}},{"type":"Feature","geometry":{"type":"Point","coordinates":[139.466686,35.47237]},"properties":{"cartodb_id":26,"addr_housenumber":10,"addr_block_number":2,"cd":213015004,"memo":"公設","access":"","addr_neighbourhood":"四丁目","addre_quarter":"深見台","addr_city":"大和市","addr_province":"神奈川県","address":"大和市深見台四丁目２－１０ ","id":"020-102-3","areaname":"本署２管区","jurisdiction":"本署","name_zh":"消防水箱","name_es":"cistermas","name_ja_hira":"ぼうかすいそう","name_ja":"防火水槽","name_ja_latn":"Bōkasuisō","name_en":"Watar Tank","name":"防火水槽","longitude":139.4666855,"latitude":35.47236988}},{"type":"Feature","geometry":{"type":"Point","coordinates":[139.469622,35.47171]},"properties":{"cartodb_id":27,"addr_housenumber":null,"addr_block_number":2242,"cd":213014000,"memo":"公設","access":"深見台第二アパ－ト","addr_neighbourhood":"","addre_quarter":"深見","addr_city":"大和市","addr_province":"神奈川県","address":"大和市深見２２４２ ","id":"020-102-4","areaname":"本署２管区","jurisdiction":"本署","name_zh":"消防水箱","name_es":"cistermas","name_ja_hira":"ぼうかすいそう","name_ja":"防火水槽","name_ja_latn":"Bōkasuisō","name_en":"Watar Tank","name":"防火水槽","longitude":139.469622,"latitude":35.47171004}},{"type":"Feature","geometry":{"type":"Point","coordinates":[139.466229,35.471424]},"properties":{"cartodb_id":28,"addr_housenumber":null,"addr_block_number":1,"cd":213015004,"memo":"公設","access":"しんわ自治会館","addr_neighbourhood":"四丁目","addre_quarter":"深見台","addr_city":"大和市","addr_province":"神奈川県","address":"大和市深見台四丁目１ ","id":"020-102-5","areaname":"本署２管区","jurisdiction":"本署","name_zh":"消防水箱","name_es":"cistermas","name_ja_hira":"ぼうかすいそう","name_ja":"防火水槽","name_ja_latn":"Bōkasuisō","name_en":"Watar Tank","name":"防火水槽","longitude":139.4662294,"latitude":35.47142396}},{"type":"Feature","geometry":{"type":"Point","coordinates":[139.46214,35.470131]},"properties":{"cartodb_id":29,"addr_housenumber":1,"addr_block_number":8,"cd":213020001,"memo":"公設","access":"横浜銀行大和支店","addr_neighbourhood":"一丁目","addre_quarter":"大和東","addr_city":"大和市","addr_province":"神奈川県","address":"大和市大和東一丁目８－１ ","id":"020-102-6","areaname":"本署２管区","jurisdiction":"本署","name_zh":"消防水箱","name_es":"cistermas","name_ja_hira":"ぼうかすいそう","name_ja":"防火水槽","name_ja_latn":"Bōkasuisō","name_en":"Watar Tank","name":"防火水槽","longitude":139.46214,"latitude":35.47013118}},{"type":"Feature","geometry":{"type":"Point","coordinates":[139.469628,35.469562]},"properties":{"cartodb_id":30,"addr_housenumber":23,"addr_block_number":10,"cd":213015002,"memo":"公設","access":"","addr_neighbourhood":"二丁目","addre_quarter":"深見台","addr_city":"大和市","addr_province":"神奈川県","address":"大和市深見台二丁目１０－２３ ","id":"020-102-7","areaname":"本署２管区","jurisdiction":"本署","name_zh":"消防水箱","name_es":"cistermas","name_ja_hira":"ぼうかすいそう","name_ja":"防火水槽","name_ja_latn":"Bōkasuisō","name_en":"Watar Tank","name":"防火水槽","longitude":139.4696282,"latitude":35.46956242}},{"type":"Feature","geometry":{"type":"Point","coordinates":[139.469223,35.46762]},"properties":{"cartodb_id":31,"addr_housenumber":1,"addr_block_number":9,"cd":213015002,"memo":"公設","access":"市立深見小学校 正門","addr_neighbourhood":"二丁目","addre_quarter":"深見台","addr_city":"大和市","addr_province":"神奈川県","address":"大和市深見台二丁目９－１ ","id":"020-102-9","areaname":"本署２管区","jurisdiction":"本署","name_zh":"消防水箱","name_es":"cistermas","name_ja_hira":"ぼうかすいそう","name_ja":"防火水槽","name_ja_latn":"Bōkasuisō","name_en":"Watar Tank","name":"防火水槽","longitude":139.4692228,"latitude":35.46761994}},{"type":"Feature","geometry":{"type":"Point","coordinates":[139.463845,35.46646]},"properties":{"cartodb_id":32,"addr_housenumber":32,"addr_block_number":8,"cd":213021002,"memo":"公設","access":"サン熱帯魚","addr_neighbourhood":"二丁目","addre_quarter":"大和南","addr_city":"大和市","addr_province":"神奈川県","address":"大和市大和南二丁目８－３２ ","id":"020-102-10","areaname":"本署２管区","jurisdiction":"本署","name_zh":"消防水箱","name_es":"cistermas","name_ja_hira":"ぼうかすいそう","name_ja":"防火水槽","name_ja_latn":"Bōkasuisō","name_en":"Watar Tank","name":"防火水槽","longitude":139.4638455,"latitude":35.46646005}},{"type":"Feature","geometry":{"type":"Point","coordinates":[139.468071,35.470554]},"properties":{"cartodb_id":33,"addr_housenumber":null,"addr_block_number":1,"cd":213015003,"memo":"公設","access":"東京ガスエネルギ-㈱大和支社","addr_neighbourhood":"三丁目","addre_quarter":"深見台","addr_city":"大和市","addr_province":"神奈川県","address":"大和市深見台三丁目１ ","id":"020-102-11","areaname":"本署２管区","jurisdiction":"本署","name_zh":"消防水箱","name_es":"cistermas","name_ja_hira":"ぼうかすいそう","name_ja":"防火水槽","name_ja_latn":"Bōkasuisō","name_en":"Watar Tank","name":"防火水槽","longitude":139.4680705,"latitude":35.47055416}},{"type":"Feature","geometry":{"type":"Point","coordinates":[139.466996,35.467629]},"properties":{"cartodb_id":34,"addr_housenumber":null,"addr_block_number":1,"cd":213015001,"memo":"公設","access":"ダイクマ大和店","addr_neighbourhood":"一丁目","addre_quarter":"深見台","addr_city":"大和市","addr_province":"神奈川県","address":"大和市深見台一丁目１ ","id":"020-102-12","areaname":"本署２管区","jurisdiction":"本署","name_zh":"消防水箱","name_es":"cistermas","name_ja_hira":"ぼうかすいそう","name_ja":"防火水槽","name_ja_latn":"Bōkasuisō","name_en":"Watar Tank","name":"防火水槽","longitude":139.4669959,"latitude":35.46762909}},{"type":"Feature","geometry":{"type":"Point","coordinates":[139.465962,35.464683]},"properties":{"cartodb_id":35,"addr_housenumber":24,"addr_block_number":10,"cd":213021002,"memo":"公設","access":"","addr_neighbourhood":"二丁目","addre_quarter":"大和南","addr_city":"大和市","addr_province":"神奈川県","address":"大和市大和南二丁目１０－２４ ","id":"020-102-13","areaname":"本署２管区","jurisdiction":"本署","name_zh":"消防水箱","name_es":"cistermas","name_ja_hira":"ぼうかすいそう","name_ja":"防火水槽","name_ja_latn":"Bōkasuisō","name_en":"Watar Tank","name":"防火水槽","longitude":139.4659622,"latitude":35.46468257}},{"type":"Feature","geometry":{"type":"Point","coordinates":[139.465748,35.474436]},"properties":{"cartodb_id":36,"addr_housenumber":null,"addr_block_number":15,"cd":213015004,"memo":"公設","access":"焼肉レストラン・安楽亭","addr_neighbourhood":"四丁目","addre_quarter":"深見台","addr_city":"大和市","addr_province":"神奈川県","address":"大和市深見台四丁目１５ ","id":"020-102-14","areaname":"本署２管区","jurisdiction":"本署","name_zh":"消防水箱","name_es":"cistermas","name_ja_hira":"ぼうかすいそう","name_ja":"防火水槽","name_ja_latn":"Bōkasuisō","name_en":"Watar Tank","name":"防火水槽","longitude":139.4657485,"latitude":35.47443635}},{"type":"Feature","geometry":{"type":"Point","coordinates":[139.471264,35.468106]},"properties":{"cartodb_id":37,"addr_housenumber":null,"addr_block_number":3367,"cd":213014000,"memo":"公設","access":"深見神社","addr_neighbourhood":"","addre_quarter":"深見","addr_city":"大和市","addr_province":"神奈川県","address":"大和市深見３３６７ ","id":"020-102-15","areaname":"本署２管区","jurisdiction":"本署","name_zh":"消防水箱","name_es":"cistermas","name_ja_hira":"ぼうかすいそう","name_ja":"防火水槽","name_ja_latn":"Bōkasuisō","name_en":"Watar Tank","name":"防火水槽","longitude":139.4712638,"latitude":35.46810628}},{"type":"Feature","geometry":{"type":"Point","coordinates":[139.470802,35.468111]},"properties":{"cartodb_id":38,"addr_housenumber":1,"addr_block_number":9,"cd":213015002,"memo":"公設","access":"市立深見小学校　北","addr_neighbourhood":"二丁目","addre_quarter":"深見台","addr_city":"大和市","addr_province":"神奈川県","address":"大和市深見台二丁目９－１ ","id":"020-102-16","areaname":"本署２管区","jurisdiction":"本署","name_zh":"消防水箱","name_es":"cistermas","name_ja_hira":"ぼうかすいそう","name_ja":"防火水槽","name_ja_latn":"Bōkasuisō","name_en":"Watar Tank","name":"防火水槽","longitude":139.4708018,"latitude":35.46811072}},{"type":"Feature","geometry":{"type":"Point","coordinates":[139.472844,35.467519]},"properties":{"cartodb_id":39,"addr_housenumber":null,"addr_block_number":3208,"cd":213014000,"memo":"公設","access":"かしま２号公園","addr_neighbourhood":"","addre_quarter":"深見","addr_city":"大和市","addr_province":"神奈川県","address":"大和市深見３２０８ ","id":"020-102-17","areaname":"本書２管区","jurisdiction":"本署","name_zh":"消防水箱","name_es":"cistermas","name_ja_hira":"ぼうかすいそう","name_ja":"防火水槽","name_ja_latn":"Bōkasuisō","name_en":"Watar Tank","name":"防火水槽","longitude":139.472844,"latitude":35.46751862}},{"type":"Feature","geometry":{"type":"Point","coordinates":[139.461167,35.472056]},"properties":{"cartodb_id":40,"addr_housenumber":null,"addr_block_number":4,"cd":213020002,"memo":"公設","access":"大和東公園","addr_neighbourhood":"二丁目","addre_quarter":"大和東","addr_city":"大和市","addr_province":"神奈川県","address":"大和市大和東二丁目４ ","id":"020-102-18","areaname":"本署２管区","jurisdiction":"本署","name_zh":"消防水箱","name_es":"cistermas","name_ja_hira":"ぼうかすいそう","name_ja":"防火水槽","name_ja_latn":"Bōkasuisō","name_en":"Watar Tank","name":"防火水槽","longitude":139.4611666,"latitude":35.472056}},{"type":"Feature","geometry":{"type":"Point","coordinates":[139.449333,35.486141]},"properties":{"cartodb_id":41,"addr_housenumber":null,"addr_block_number":2,"cd":213013004,"memo":"公設","access":"大和市 慰霊塔公園","addr_neighbourhood":"四丁目","addre_quarter":"西鶴間","addr_city":"大和市","addr_province":"神奈川県","address":"大和市西鶴間四丁目２ ","id":"020-103-1","areaname":"本署３管区","jurisdiction":"本署","name_zh":"消防水箱","name_es":"cistermas","name_ja_hira":"ぼうかすいそう","name_ja":"防火水槽","name_ja_latn":"Bōkasuisō","name_en":"Watar Tank","name":"防火水槽","longitude":139.4493328,"latitude":35.48614087}},{"type":"Feature","geometry":{"type":"Point","coordinates":[139.452418,35.483724]},"properties":{"cartodb_id":42,"addr_housenumber":null,"addr_block_number":4,"cd":213001007,"memo":"公設","access":"大野原小学校","addr_neighbourhood":"七丁目","addre_quarter":"上草柳","addr_city":"大和市","addr_province":"神奈川県","address":"大和市上草柳七丁目４ ","id":"020-103-2","areaname":"本署３管区","jurisdiction":"本署","name_zh":"消防水箱","name_es":"cistermas","name_ja_hira":"ぼうかすいそう","name_ja":"防火水槽","name_ja_latn":"Bōkasuisō","name_en":"Watar Tank","name":"防火水槽","longitude":139.452418,"latitude":35.48372403}},{"type":"Feature","geometry":{"type":"Point","coordinates":[139.447808,35.481923]},"properties":{"cartodb_id":43,"addr_housenumber":10,"addr_block_number":11,"cd":213001008,"memo":"公設","access":"ヤマト空調(井上)","addr_neighbourhood":"八丁目","addre_quarter":"上草柳","addr_city":"大和市","addr_province":"神奈川県","address":"大和市上草柳八丁目１１－１０ ","id":"020-103-3","areaname":"本署３管区","jurisdiction":"本署","name_zh":"消防水箱","name_es":"cistermas","name_ja_hira":"ぼうかすいそう","name_ja":"防火水槽","name_ja_latn":"Bōkasuisō","name_en":"Watar Tank","name":"防火水槽","longitude":139.4478077,"latitude":35.48192296}},{"type":"Feature","geometry":{"type":"Point","coordinates":[139.44025,35.472115]},"properties":{"cartodb_id":44,"addr_housenumber":null,"addr_block_number":7,"cd":213003003,"memo":"公設","access":"","addr_neighbourhood":"三丁目","addre_quarter":"桜森","addr_city":"大和市","addr_province":"神奈川県","address":"大和市桜森三丁目７ ","id":"020-103-4","areaname":"本署３管区","jurisdiction":"本署","name_zh":"消防水箱","name_es":"cistermas","name_ja_hira":"ぼうかすいそう","name_ja":"防火水槽","name_ja_latn":"Bōkasuisō","name_en":"Watar Tank","name":"防火水槽","longitude":139.4402505,"latitude":35.47211496}},{"type":"Feature","geometry":{"type":"Point","coordinates":[139.43947,35.469726]},"properties":{"cartodb_id":45,"addr_housenumber":14,"addr_block_number":6,"cd":213003002,"memo":"公設","access":"レゾンロイヤル相模大塚","addr_neighbourhood":"二丁目","addre_quarter":"桜森","addr_city":"大和市","addr_province":"神奈川県","address":"大和市桜森二丁目６－１４ ","id":"020-103-5","areaname":"本署３管区","jurisdiction":"本署","name_zh":"消防水箱","name_es":"cistermas","name_ja_hira":"ぼうかすいそう","name_ja":"防火水槽","name_ja_latn":"Bōkasuisō","name_en":"Watar Tank","name":"防火水槽","longitude":139.4394703,"latitude":35.46972594}},{"type":"Feature","geometry":{"type":"Point","coordinates":[139.449767,35.479404]},"properties":{"cartodb_id":46,"addr_housenumber":null,"addr_block_number":14,"cd":213001006,"memo":"公設","access":"丸送倉庫","addr_neighbourhood":"六丁目","addre_quarter":"上草柳","addr_city":"大和市","addr_province":"神奈川県","address":"大和市上草柳六丁目１４ ","id":"020-103-6","areaname":"本署３管区","jurisdiction":"本署","name_zh":"消防水箱","name_es":"cistermas","name_ja_hira":"ぼうかすいそう","name_ja":"防火水槽","name_ja_latn":"Bōkasuisō","name_en":"Watar Tank","name":"防火水槽","longitude":139.4497669,"latitude":35.47940362}},{"type":"Feature","geometry":{"type":"Point","coordinates":[139.440555,35.471393]},"properties":{"cartodb_id":47,"addr_housenumber":null,"addr_block_number":8,"cd":213003003,"memo":"公設","access":"城南信用金庫相模大塚支店","addr_neighbourhood":"三丁目","addre_quarter":"桜森","addr_city":"大和市","addr_province":"神奈川県","address":"大和市桜森三丁目８ ","id":"020-103-7","areaname":"本署３管区","jurisdiction":"本署","name_zh":"消防水箱","name_es":"cistermas","name_ja_hira":"ぼうかすいそう","name_ja":"防火水槽","name_ja_latn":"Bōkasuisō","name_en":"Watar Tank","name":"防火水槽","longitude":139.4405549,"latitude":35.47139315}},{"type":"Feature","geometry":{"type":"Point","coordinates":[139.445851,35.472612]},"properties":{"cartodb_id":48,"addr_housenumber":5,"addr_block_number":190,"cd":213001000,"memo":"公設","access":"","addr_neighbourhood":"","addre_quarter":"上草柳","addr_city":"大和市","addr_province":"神奈川県","address":"大和市上草柳１９０－５ ","id":"020-103-8","areaname":"本署３管区","jurisdiction":"本署","name_zh":"消防水箱","name_es":"cistermas","name_ja_hira":"ぼうかすいそう","name_ja":"防火水槽","name_ja_latn":"Bōkasuisō","name_en":"Watar Tank","name":"防火水槽","longitude":139.4458509,"latitude":35.47261184}},{"type":"Feature","geometry":{"type":"Point","coordinates":[139.443776,35.483615]},"properties":{"cartodb_id":49,"addr_housenumber":2,"addr_block_number":14,"cd":213013005,"memo":"公設","access":"","addr_neighbourhood":"五丁目","addre_quarter":"西鶴間","addr_city":"大和市","addr_province":"神奈川県","address":"大和市西鶴間五丁目１４－２ ","id":"020-103-9","areaname":"本署３管区","jurisdiction":"本署","name_zh":"消防水箱","name_es":"cistermas","name_ja_hira":"ぼうかすいそう","name_ja":"防火水槽","name_ja_latn":"Bōkasuisō","name_en":"Watar Tank","name":"防火水槽","longitude":139.443776,"latitude":35.48361508}},{"type":"Feature","geometry":{"type":"Point","coordinates":[139.45168,35.484211]},"properties":{"cartodb_id":50,"addr_housenumber":12,"addr_block_number":10,"cd":213001007,"memo":"公設","access":"","addr_neighbourhood":"七丁目","addre_quarter":"上草柳","addr_city":"大和市","addr_province":"神奈川県","address":"大和市上草柳七丁目１０－１２ ","id":"020-103-10","areaname":"本署３管区","jurisdiction":"本署","name_zh":"消防水箱","name_es":"cistermas","name_ja_hira":"ぼうかすいそう","name_ja":"防火水槽","name_ja_latn":"Bōkasuisō","name_en":"Watar Tank","name":"防火水槽","longitude":139.4516797,"latitude":35.48421056}},{"type":"Feature","geometry":{"type":"Point","coordinates":[139.436773,35.472083]},"properties":{"cartodb_id":51,"addr_housenumber":20,"addr_block_number":335,"cd":213001000,"memo":"公設","access":"相栄フ－ズ㈱","addr_neighbourhood":"","addre_quarter":"上草柳","addr_city":"大和市","addr_province":"神奈川県","address":"大和市上草柳３３５－２０ ","id":"020-103-11","areaname":"本署３管区","jurisdiction":"本署","name_zh":"消防水箱","name_es":"cistermas","name_ja_hira":"ぼうかすいそう","name_ja":"防火水槽","name_ja_latn":"Bōkasuisō","name_en":"Watar Tank","name":"防火水槽","longitude":139.4367727,"latitude":35.47208327}},{"type":"Feature","geometry":{"type":"Point","coordinates":[139.43868,35.47121]},"properties":{"cartodb_id":52,"addr_housenumber":null,"addr_block_number":9,"cd":213003003,"memo":"公設","access":"アミティ－ライフ桜森","addr_neighbourhood":"三丁目","addre_quarter":"桜森","addr_city":"大和市","addr_province":"神奈川県","address":"大和市桜森三丁目９ ","id":"020-103-12","areaname":"本署３管区","jurisdiction":"本署","name_zh":"消防水箱","name_es":"cistermas","name_ja_hira":"ぼうかすいそう","name_ja":"防火水槽","name_ja_latn":"Bōkasuisō","name_en":"Watar Tank","name":"防火水槽","longitude":139.4386798,"latitude":35.47120983}},{"type":"Feature","geometry":{"type":"Point","coordinates":[139.445204,35.479557]},"properties":{"cartodb_id":53,"addr_housenumber":2,"addr_block_number":3,"cd":213001009,"memo":"公設","access":"レオパレス鶴間第８","addr_neighbourhood":"九丁目","addre_quarter":"上草柳","addr_city":"大和市","addr_province":"神奈川県","address":"大和市上草柳九丁目３－２ ","id":"020-103-13","areaname":"本署３管区","jurisdiction":"本署","name_zh":"消防水箱","name_es":"cistermas","name_ja_hira":"ぼうかすいそう","name_ja":"防火水槽","name_ja_latn":"Bōkasuisō","name_en":"Watar Tank","name":"防火水槽","longitude":139.4452038,"latitude":35.47955712}},{"type":"Feature","geometry":{"type":"Point","coordinates":[139.437916,35.477556]},"properties":{"cartodb_id":54,"addr_housenumber":1,"addr_block_number":531,"cd":213001000,"memo":"公設","access":"佐々木製作所","addr_neighbourhood":"","addre_quarter":"上草柳","addr_city":"大和市","addr_province":"神奈川県","address":"大和市上草柳５３１－１ ","id":"020-103-14","areaname":"本署３管区","jurisdiction":"本署","name_zh":"消防水箱","name_es":"cistermas","name_ja_hira":"ぼうかすいそう","name_ja":"防火水槽","name_ja_latn":"Bōkasuisō","name_en":"Watar Tank","name":"防火水槽","longitude":139.4379161,"latitude":35.4775559}},{"type":"Feature","geometry":{"type":"Point","coordinates":[139.438371,35.474022]},"properties":{"cartodb_id":55,"addr_housenumber":31,"addr_block_number":16,"cd":213003003,"memo":"公設","access":"市立文ヶ岡小学校","addr_neighbourhood":"三丁目","addre_quarter":"桜森","addr_city":"大和市","addr_province":"神奈川県","address":"大和市桜森三丁目１６－３１ ","id":"020-103-15","areaname":"本署３管区","jurisdiction":"本署","name_zh":"消防水箱","name_es":"cistermas","name_ja_hira":"ぼうかすいそう","name_ja":"防火水槽","name_ja_latn":"Bōkasuisō","name_en":"Watar Tank","name":"防火水槽","longitude":139.4383706,"latitude":35.47402154}},{"type":"Feature","geometry":{"type":"Point","coordinates":[139.445747,35.482229]},"properties":{"cartodb_id":56,"addr_housenumber":null,"addr_block_number":10,"cd":213001009,"memo":"公設","access":"子安２号公園","addr_neighbourhood":"九丁目","addre_quarter":"上草柳","addr_city":"大和市","addr_province":"神奈川県","address":"大和市上草柳九丁目１０ ","id":"020-103-16","areaname":"本署３管区","jurisdiction":"本署","name_zh":"消防水箱","name_es":"cistermas","name_ja_hira":"ぼうかすいそう","name_ja":"防火水槽","name_ja_latn":"Bōkasuisō","name_en":"Watar Tank","name":"防火水槽","longitude":139.4457468,"latitude":35.48222871}},{"type":"Feature","geometry":{"type":"Point","coordinates":[139.441435,35.47691]},"properties":{"cartodb_id":57,"addr_housenumber":null,"addr_block_number":10,"cd":213001000,"memo":"公設","access":"泉の森（古民家）","addr_neighbourhood":"","addre_quarter":"上草柳","addr_city":"大和市","addr_province":"神奈川県","address":"大和市上草柳１７７７ ","id":"020-103-17","areaname":"本署３管区","jurisdiction":"本署","name_zh":"消防水箱","name_es":"cistermas","name_ja_hira":"ぼうかすいそう","name_ja":"防火水槽","name_ja_latn":"Bōkasuisō","name_en":"Watar Tank","name":"防火水槽","longitude":139.4414353,"latitude":35.47691046}},{"type":"Feature","geometry":{"type":"Point","coordinates":[139.438882,35.472141]},"properties":{"cartodb_id":58,"addr_housenumber":null,"addr_block_number":9,"cd":213003003,"memo":"公設","access":"桜森わいわい公園","addr_neighbourhood":"三丁目","addre_quarter":"桜森","addr_city":"大和市","addr_province":"神奈川県","address":"大和市桜森三丁目９ ","id":"020-103-18","areaname":"本署３管区","jurisdiction":"本署","name_zh":"消防水箱","name_es":"cistermas","name_ja_hira":"ぼうかすいそう","name_ja":"防火水槽","name_ja_latn":"Bōkasuisō","name_en":"Watar Tank","name":"防火水槽","longitude":139.438882,"latitude":35.47214105}},{"type":"Feature","geometry":{"type":"Point","coordinates":[139.437302,35.473635]},"properties":{"cartodb_id":59,"addr_housenumber":6,"addr_block_number":350,"cd":213001000,"memo":"公設","access":"桜森2号公園内","addr_neighbourhood":"","addre_quarter":"上草柳","addr_city":"大和市","addr_province":"神奈川県","address":"大和市上草柳３５０－６ ","id":"020-103-19","areaname":"本署３管区","jurisdiction":"本署","name_zh":"消防水箱","name_es":"cistermas","name_ja_hira":"ぼうかすいそう","name_ja":"防火水槽","name_ja_latn":"Bōkasuisō","name_en":"Watar Tank","name":"防火水槽","longitude":139.437302,"latitude":35.47363494}},{"type":"Feature","geometry":{"type":"Point","coordinates":[139.455791,35.471271]},"properties":{"cartodb_id":60,"addr_housenumber":1,"addr_block_number":6,"cd":213009003,"memo":"公設","access":"市立草柳小学校","addr_neighbourhood":"三丁目","addre_quarter":"中央","addr_city":"大和市","addr_province":"神奈川県","address":"大和市中央三丁目６－１ ","id":"020-104-1","areaname":"本署４管区","jurisdiction":"本署","name_zh":"消防水箱","name_es":"cistermas","name_ja_hira":"ぼうかすいそう","name_ja":"防火水槽","name_ja_latn":"Bōkasuisō","name_en":"Watar Tank","name":"防火水槽","longitude":139.4557905,"latitude":35.47127069}},{"type":"Feature","geometry":{"type":"Point","coordinates":[139.458544,35.471072]},"properties":{"cartodb_id":61,"addr_housenumber":1,"addr_block_number":6,"cd":213009002,"memo":"公設","access":"フコク生命ビル","addr_neighbourhood":"二丁目","addre_quarter":"中央","addr_city":"大和市","addr_province":"神奈川県","address":"大和市中央二丁目６－１ ","id":"020-104-2","areaname":"本署４管区","jurisdiction":"本署","name_zh":"消防水箱","name_es":"cistermas","name_ja_hira":"ぼうかすいそう","name_ja":"防火水槽","name_ja_latn":"Bōkasuisō","name_en":"Watar Tank","name":"防火水槽","longitude":139.4585437,"latitude":35.47107173}},{"type":"Feature","geometry":{"type":"Point","coordinates":[139.455166,35.469292]},"properties":{"cartodb_id":62,"addr_housenumber":null,"addr_block_number":14,"cd":213009004,"memo":"公設","access":"中央７号公園","addr_neighbourhood":"四丁目","addre_quarter":"中央","addr_city":"大和市","addr_province":"神奈川県","address":"大和市中央四丁目１４ ","id":"020-104-3","areaname":"本署４管区","jurisdiction":"本署","name_zh":"消防水箱","name_es":"cistermas","name_ja_hira":"ぼうかすいそう","name_ja":"防火水槽","name_ja_latn":"Bōkasuisō","name_en":"Watar Tank","name":"防火水槽","longitude":139.4551656,"latitude":35.46929159}},{"type":"Feature","geometry":{"type":"Point","coordinates":[139.461915,35.468517]},"properties":{"cartodb_id":63,"addr_housenumber":1,"addr_block_number":3,"cd":213009001,"memo":"公設","access":"大和ショップ","addr_neighbourhood":"一丁目","addre_quarter":"中央","addr_city":"大和市","addr_province":"神奈川県","address":"大和市中央一丁目３－１ ","id":"020-104-4","areaname":"本署４管区","jurisdiction":"本署","name_zh":"消防水箱","name_es":"cistermas","name_ja_hira":"ぼうかすいそう","name_ja":"防火水槽","name_ja_latn":"Bōkasuisō","name_en":"Watar Tank","name":"防火水槽","longitude":139.4619147,"latitude":35.46851697}},{"type":"Feature","geometry":{"type":"Point","coordinates":[139.457491,35.463895]},"properties":{"cartodb_id":64,"addr_housenumber":5,"addr_block_number":5,"cd":213007002,"memo":"公設","access":"草柳３号公園","addr_neighbourhood":"二丁目","addre_quarter":"上草柳","addr_city":"大和市","addr_province":"神奈川県","address":"大和市草柳二丁目５－５ ","id":"020-104-5","areaname":"本署４管区","jurisdiction":"本署","name_zh":"消防水箱","name_es":"cistermas","name_ja_hira":"ぼうかすいそう","name_ja":"防火水槽","name_ja_latn":"Bōkasuisō","name_en":"Watar Tank","name":"防火水槽","longitude":139.4574914,"latitude":35.46389493}},{"type":"Feature","geometry":{"type":"Point","coordinates":[139.458358,35.465588]},"properties":{"cartodb_id":65,"addr_housenumber":11,"addr_block_number":12,"cd":213009005,"memo":"公設","access":"中央５丁目自治会館","addr_neighbourhood":"五丁目","addre_quarter":"中央","addr_city":"大和市","addr_province":"神奈川県","address":"大和市中央五丁目１２－１１ ","id":"020-104-6","areaname":"本署４管区","jurisdiction":"本署","name_zh":"消防水箱","name_es":"cistermas","name_ja_hira":"ぼうかすいそう","name_ja":"防火水槽","name_ja_latn":"Bōkasuisō","name_en":"Watar Tank","name":"防火水槽","longitude":139.458358,"latitude":35.46558809}},{"type":"Feature","geometry":{"type":"Point","coordinates":[139.461034,35.460914]},"properties":{"cartodb_id":66,"addr_housenumber":13,"addr_block_number":9,"cd":213009006,"memo":"公設","access":"若葉会自治会館","addr_neighbourhood":"六丁目","addre_quarter":"中央","addr_city":"大和市","addr_province":"神奈川県","address":"大和市中央六丁目９－１３ ","id":"020-104-8","areaname":"本署４管区","jurisdiction":"本署","name_zh":"消防水箱","name_es":"cistermas","name_ja_hira":"ぼうかすいそう","name_ja":"防火水槽","name_ja_latn":"Bōkasuisō","name_en":"Watar Tank","name":"防火水槽","longitude":139.4610341,"latitude":35.46091435}},{"type":"Feature","geometry":{"type":"Point","coordinates":[139.454687,35.476256]},"properties":{"cartodb_id":67,"addr_housenumber":4,"addr_block_number":2,"cd":213001004,"memo":"公設","access":"高橋酒店","addr_neighbourhood":"四丁目","addre_quarter":"上草柳","addr_city":"大和市","addr_province":"神奈川県","address":"大和市上草柳四丁目２－４ ","id":"020-104-9","areaname":"本署４管区","jurisdiction":"本署","name_zh":"消防水箱","name_es":"cistermas","name_ja_hira":"ぼうかすいそう","name_ja":"防火水槽","name_ja_latn":"Bōkasuisō","name_en":"Watar Tank","name":"防火水槽","longitude":139.4546873,"latitude":35.4762559}},{"type":"Feature","geometry":{"type":"Point","coordinates":[139.453639,35.478688]},"properties":{"cartodb_id":68,"addr_housenumber":null,"addr_block_number":7,"cd":213001004,"memo":"公設","access":"東名大和バス停","addr_neighbourhood":"四丁目","addre_quarter":"上草柳","addr_city":"大和市","addr_province":"神奈川県","address":"大和市上草柳四丁目７ ","id":"020-104-10","areaname":"本署４管区","jurisdiction":"本署","name_zh":"消防水箱","name_es":"cistermas","name_ja_hira":"ぼうかすいそう","name_ja":"防火水槽","name_ja_latn":"Bōkasuisō","name_en":"Watar Tank","name":"防火水槽","longitude":139.4536387,"latitude":35.47868836}},{"type":"Feature","geometry":{"type":"Point","coordinates":[139.460743,35.470513]},"properties":{"cartodb_id":69,"addr_housenumber":null,"addr_block_number":4,"cd":213009002,"memo":"公設","access":"大和駅西口ロ－タリ－","addr_neighbourhood":"二丁目","addre_quarter":"中央","addr_city":"大和市","addr_province":"神奈川県","address":"大和市中央二丁目４ ","id":"020-104-11","areaname":"本署４管区","jurisdiction":"本署","name_zh":"消防水箱","name_es":"cistermas","name_ja_hira":"ぼうかすいそう","name_ja":"防火水槽","name_ja_latn":"Bōkasuisō","name_en":"Watar Tank","name":"防火水槽","longitude":139.4607428,"latitude":35.4705133}},{"type":"Feature","geometry":{"type":"Point","coordinates":[139.458569,35.474091]},"properties":{"cartodb_id":70,"addr_housenumber":18,"addr_block_number":13,"cd":213009002,"memo":"公設","access":"サニ－ハイツ大和","addr_neighbourhood":"二丁目","addre_quarter":"中央","addr_city":"大和市","addr_province":"神奈川県","address":"大和市中央二丁目１３－１８ ","id":"020-104-12","areaname":"本署４管区","jurisdiction":"本署","name_zh":"消防水箱","name_es":"cistermas","name_ja_hira":"ぼうかすいそう","name_ja":"防火水槽","name_ja_latn":"Bōkasuisō","name_en":"Watar Tank","name":"防火水槽","longitude":139.4585689,"latitude":35.47409129}},{"type":"Feature","geometry":{"type":"Point","coordinates":[139.45154,35.476082]},"properties":{"cartodb_id":71,"addr_housenumber":19,"addr_block_number":11,"cd":213001003,"memo":"公設","access":"","addr_neighbourhood":"三丁目","addre_quarter":"上草柳","addr_city":"大和市","addr_province":"神奈川県","address":"大和市上草柳三丁目１１－１９ ","id":"020-104-13","areaname":"本署４管区","jurisdiction":"本署","name_zh":"消防水箱","name_es":"cistermas","name_ja_hira":"ぼうかすいそう","name_ja":"防火水槽","name_ja_latn":"Bōkasuisō","name_en":"Watar Tank","name":"防火水槽","longitude":139.4515397,"latitude":35.47608164}},{"type":"Feature","geometry":{"type":"Point","coordinates":[139.456639,35.472802]},"properties":{"cartodb_id":72,"addr_housenumber":21,"addr_block_number":8,"cd":213009003,"memo":"公設","access":"ベタ－ハウス大和","addr_neighbourhood":"三丁目","addre_quarter":"中央","addr_city":"大和市","addr_province":"神奈川県","address":"大和市中央三丁目８－２１ ","id":"020-104-14","areaname":"本署４管区","jurisdiction":"本署","name_zh":"消防水箱","name_es":"cistermas","name_ja_hira":"ぼうかすいそう","name_ja":"防火水槽","name_ja_latn":"Bōkasuisō","name_en":"Watar Tank","name":"防火水槽","longitude":139.4566387,"latitude":35.47280205}},{"type":"Feature","geometry":{"type":"Point","coordinates":[139.456575,35.472224]},"properties":{"cartodb_id":73,"addr_housenumber":null,"addr_block_number":8,"cd":213009003,"memo":"公設","access":"中央４号公園","addr_neighbourhood":"三丁目","addre_quarter":"中央","addr_city":"大和市","addr_province":"神奈川県","address":"大和市中央三丁目８ ","id":"020-104-15","areaname":"本署４管区","jurisdiction":"本署","name_zh":"消防水箱","name_es":"cistermas","name_ja_hira":"ぼうかすいそう","name_ja":"防火水槽","name_ja_latn":"Bōkasuisō","name_en":"Watar Tank","name":"防火水槽","longitude":139.4565754,"latitude":35.4722244}},{"type":"Feature","geometry":{"type":"Point","coordinates":[139.457399,35.466148]},"properties":{"cartodb_id":74,"addr_housenumber":5,"addr_block_number":9,"cd":213009005,"memo":"公設","access":"やなぎ幼稚園","addr_neighbourhood":"五丁目","addre_quarter":"中央","addr_city":"大和市","addr_province":"神奈川県","address":"大和市中央五丁目９－５ ","id":"020-104-16","areaname":"本署４管区","jurisdiction":"本署","name_zh":"消防水箱","name_es":"cistermas","name_ja_hira":"ぼうかすいそう","name_ja":"防火水槽","name_ja_latn":"Bōkasuisō","name_en":"Watar Tank","name":"防火水槽","longitude":139.4573986,"latitude":35.46614797}},{"type":"Feature","geometry":{"type":"Point","coordinates":[139.453633,35.467586]},"properties":{"cartodb_id":75,"addr_housenumber":4,"addr_block_number":22,"cd":213007001,"memo":"公設","access":"ルックハイツ大和","addr_neighbourhood":"一丁目","addre_quarter":"草柳","addr_city":"大和市","addr_province":"神奈川県","address":"大和市草柳一丁目２２－４ ","id":"020-104-17","areaname":"本署４管区","jurisdiction":"本署","name_zh":"消防水箱","name_es":"cistermas","name_ja_hira":"ぼうかすいそう","name_ja":"防火水槽","name_ja_latn":"Bōkasuisō","name_en":"Watar Tank","name":"防火水槽","longitude":139.4536334,"latitude":35.46758617}},{"type":"Feature","geometry":{"type":"Point","coordinates":[139.457958,35.469432]},"properties":{"cartodb_id":76,"addr_housenumber":null,"addr_block_number":5,"cd":213009004,"memo":"公設","access":"中央６号公園","addr_neighbourhood":"四丁目","addre_quarter":"中央","addr_city":"大和市","addr_province":"神奈川県","address":"大和市中央四丁目５ ","id":"020-104-18","areaname":"本署４管区","jurisdiction":"本署","name_zh":"消防水箱","name_es":"cistermas","name_ja_hira":"ぼうかすいそう","name_ja":"防火水槽","name_ja_latn":"Bōkasuisō","name_en":"Watar Tank","name":"防火水槽","longitude":139.4579579,"latitude":35.46943174}},{"type":"Feature","geometry":{"type":"Point","coordinates":[139.454439,35.465712]},"properties":{"cartodb_id":77,"addr_housenumber":10,"addr_block_number":19,"cd":213007001,"memo":"公設","access":"大和スカイハイツ","addr_neighbourhood":"一丁目","addre_quarter":"草柳","addr_city":"大和市","addr_province":"神奈川県","address":"大和市草柳一丁目１９－１０ ","id":"020-104-19","areaname":"本署４管区","jurisdiction":"本署","name_zh":"消防水箱","name_es":"cistermas","name_ja_hira":"ぼうかすいそう","name_ja":"防火水槽","name_ja_latn":"Bōkasuisō","name_en":"Watar Tank","name":"防火水槽","longitude":139.4544387,"latitude":35.46571229}},{"type":"Feature","geometry":{"type":"Point","coordinates":[139.454821,35.46825]},"properties":{"cartodb_id":78,"addr_housenumber":null,"addr_block_number":7,"cd":213009005,"memo":"公設","access":"恒陽大和マンション","addr_neighbourhood":"五丁目","addre_quarter":"中央","addr_city":"大和市","addr_province":"神奈川県","address":"大和市中央五丁目７ ","id":"020-104-20","areaname":"本署４管区","jurisdiction":"本署","name_zh":"消防水箱","name_es":"cistermas","name_ja_hira":"ぼうかすいそう","name_ja":"防火水槽","name_ja_latn":"Bōkasuisō","name_en":"Watar Tank","name":"防火水槽","longitude":139.4548209,"latitude":35.46824976}},{"type":"Feature","geometry":{"type":"Point","coordinates":[139.459445,35.462094]},"properties":{"cartodb_id":79,"addr_housenumber":null,"addr_block_number":8,"cd":213009006,"memo":"公設","access":"","addr_neighbourhood":"六丁目","addre_quarter":"中央","addr_city":"大和市","addr_province":"神奈川県","address":"大和市中央六丁目８ ","id":"020-104-21","areaname":"本署４管区","jurisdiction":"本署","name_zh":"消防水箱","name_es":"cistermas","name_ja_hira":"ぼうかすいそう","name_ja":"防火水槽","name_ja_latn":"Bōkasuisō","name_en":"Watar Tank","name":"防火水槽","longitude":139.4594447,"latitude":35.46209415}},{"type":"Feature","geometry":{"type":"Point","coordinates":[139.456345,35.470008]},"properties":{"cartodb_id":80,"addr_housenumber":null,"addr_block_number":6,"cd":213009004,"memo":"公設","access":"伴ビル","addr_neighbourhood":"四丁目","addre_quarter":"中央","addr_city":"大和市","addr_province":"神奈川県","address":"大和市中央四丁目６ ","id":"020-104-22","areaname":"本署４管区","jurisdiction":"本署","name_zh":"消防水箱","name_es":"cistermas","name_ja_hira":"ぼうかすいそう","name_ja":"防火水槽","name_ja_latn":"Bōkasuisō","name_en":"Watar Tank","name":"防火水槽","longitude":139.4563449,"latitude":35.47000823}},{"type":"Feature","geometry":{"type":"Point","coordinates":[139.455978,35.463958]},"properties":{"cartodb_id":81,"addr_housenumber":null,"addr_block_number":11,"cd":213007001,"memo":"公設","access":"草柳２号公園","addr_neighbourhood":"一丁目","addre_quarter":"草柳","addr_city":"大和市","addr_province":"神奈川県","address":"大和市草柳一丁目１１ ","id":"020-104-23","areaname":"本署４管区","jurisdiction":"本署","name_zh":"消防水箱","name_es":"cistermas","name_ja_hira":"ぼうかすいそう","name_ja":"防火水槽","name_ja_latn":"Bōkasuisō","name_en":"Watar Tank","name":"防火水槽","longitude":139.4559778,"latitude":35.46395817}},{"type":"Feature","geometry":{"type":"Point","coordinates":[139.456247,35.47756]},"properties":{"cartodb_id":82,"addr_housenumber":null,"addr_block_number":1,"cd":213001004,"memo":"公設","access":"上草柳４丁目公園","addr_neighbourhood":"四丁目","addre_quarter":"上草柳","addr_city":"大和市","addr_province":"神奈川県","address":"大和市上草柳四丁目１ ","id":"020-104-24","areaname":"本署４管区","jurisdiction":"本署","name_zh":"消防水箱","name_es":"cistermas","name_ja_hira":"ぼうかすいそう","name_ja":"防火水槽","name_ja_latn":"Bōkasuisō","name_en":"Watar Tank","name":"防火水槽","longitude":139.4562466,"latitude":35.4775601}},{"type":"Feature","geometry":{"type":"Point","coordinates":[139.461702,35.466887]},"properties":{"cartodb_id":83,"addr_housenumber":null,"addr_block_number":5,"cd":213009001,"memo":"公設","access":"やまと公園","addr_neighbourhood":"一丁目","addre_quarter":"中央","addr_city":"大和市","addr_province":"神奈川県","address":"大和市中央一丁目５ ","id":"020-104-25","areaname":"本署４管区","jurisdiction":"本署","name_zh":"消防水箱","name_es":"cistermas","name_ja_hira":"ぼうかすいそう","name_ja":"防火水槽","name_ja_latn":"Bōkasuisō","name_en":"Watar Tank","name":"防火水槽","longitude":139.4617023,"latitude":35.46688746}},{"type":"Feature","geometry":{"type":"Point","coordinates":[139.464044,35.463111]},"properties":{"cartodb_id":84,"addr_housenumber":null,"addr_block_number":10,"cd":213009007,"memo":"公設","access":"","addr_neighbourhood":"七丁目","addre_quarter":"中央","addr_city":"大和市","addr_province":"神奈川県","address":"大和市中央七丁目１０ ","id":"020-104-26","areaname":"本署４管区","jurisdiction":"本署","name_zh":"消防水箱","name_es":"cistermas","name_ja_hira":"ぼうかすいそう","name_ja":"防火水槽","name_ja_latn":"Bōkasuisō","name_en":"Watar Tank","name":"防火水槽","longitude":139.4640445,"latitude":35.46311136}},{"type":"Feature","geometry":{"type":"Point","coordinates":[139.458923,35.465843]},"properties":{"cartodb_id":85,"addr_housenumber":null,"addr_block_number":16,"cd":213009005,"memo":"公設","access":"市営やよい住宅２","addr_neighbourhood":"五丁目","addre_quarter":"中央","addr_city":"大和市","addr_province":"神奈川県","address":"大和市中央五丁目１６ ","id":"020-104-27","areaname":"本署４管区","jurisdiction":"本署","name_zh":"消防水箱","name_es":"cistermas","name_ja_hira":"ぼうかすいそう","name_ja":"防火水槽","name_ja_latn":"Bōkasuisō","name_en":"Watar Tank","name":"防火水槽","longitude":139.4589235,"latitude":35.46584337}},{"type":"Feature","geometry":{"type":"Point","coordinates":[139.453408,35.47731]},"properties":{"cartodb_id":86,"addr_housenumber":null,"addr_block_number":16,"cd":213001003,"memo":"公設","access":"上草柳３丁目公園","addr_neighbourhood":"三丁目","addre_quarter":"上草柳","addr_city":"大和市","addr_province":"神奈川県","address":"大和市上草柳三丁目１６ ","id":"020-104-28","areaname":"本署４管区","jurisdiction":"本署","name_zh":"消防水箱","name_es":"cistermas","name_ja_hira":"ぼうかすいそう","name_ja":"防火水槽","name_ja_latn":"Bōkasuisō","name_en":"Watar Tank","name":"防火水槽","longitude":139.4534084,"latitude":35.47731034}},{"type":"Feature","geometry":{"type":"Point","coordinates":[139.458193,35.472792]},"properties":{"cartodb_id":87,"addr_housenumber":null,"addr_block_number":14,"cd":213009002,"memo":"公設","access":"中央５号公園","addr_neighbourhood":"二丁目","addre_quarter":"中央","addr_city":"大和市","addr_province":"神奈川県","address":"大和市中央二丁目１４ ","id":"020-104-29","areaname":"本署４管区","jurisdiction":"本署","name_zh":"消防水箱","name_es":"cistermas","name_ja_hira":"ぼうかすいそう","name_ja":"防火水槽","name_ja_latn":"Bōkasuisō","name_en":"Watar Tank","name":"防火水槽","longitude":139.4581934,"latitude":35.47279241}},{"type":"Feature","geometry":{"type":"Point","coordinates":[139.454772,35.466026]},"properties":{"cartodb_id":88,"addr_housenumber":2,"addr_block_number":20,"cd":213007001,"memo":"公設","access":"草柳１号公園","addr_neighbourhood":"一丁目","addre_quarter":"草柳","addr_city":"大和市","addr_province":"神奈川県","address":"大和市草柳一丁目２０－２ ","id":"020-104-30","areaname":"本署４管区","jurisdiction":"本署","name_zh":"消防水箱","name_es":"cistermas","name_ja_hira":"ぼうかすいそう","name_ja":"防火水槽","name_ja_latn":"Bōkasuisō","name_en":"Watar Tank","name":"防火水槽","longitude":139.4547723,"latitude":35.46602589}},{"type":"Feature","geometry":{"type":"Point","coordinates":[139.457858,35.473429]},"properties":{"cartodb_id":89,"addr_housenumber":30,"addr_block_number":531,"cd":213009002,"memo":"公設","access":"中央３号公園","addr_neighbourhood":"二丁目","addre_quarter":"中央","addr_city":"大和市","addr_province":"神奈川県","address":"大和市中央二丁目５３１－３０ ","id":"020-104-31","areaname":"本署４管区","jurisdiction":"本署","name_zh":"消防水箱","name_es":"cistermas","name_ja_hira":"ぼうかすいそう","name_ja":"防火水槽","name_ja_latn":"Bōkasuisō","name_en":"Watar Tank","name":"防火水槽","longitude":139.4578578,"latitude":35.47342863}},{"type":"Feature","geometry":{"type":"Point","coordinates":[139.453644,35.474114]},"properties":{"cartodb_id":90,"addr_housenumber":4,"addr_block_number":540,"cd":213001002,"memo":"公設","access":"大東公園","addr_neighbourhood":"二丁目","addre_quarter":"上草柳","addr_city":"大和市","addr_province":"神奈川県","address":"大和市上草柳二丁目５４０－４ ","id":"020-104-32","areaname":"本署４管区","jurisdiction":"本署","name_zh":"消防水箱","name_es":"cistermas","name_ja_hira":"ぼうかすいそう","name_ja":"防火水槽","name_ja_latn":"Bōkasuisō","name_en":"Watar Tank","name":"防火水槽","longitude":139.4536438,"latitude":35.4741141}},{"type":"Feature","geometry":{"type":"Point","coordinates":[139.461445,35.516601]},"properties":{"cartodb_id":91,"addr_housenumber":2,"addr_block_number":379,"cd":213005000,"memo":"公設","access":"浅間公園","addr_neighbourhood":"","addre_quarter":"下鶴間","addr_city":"大和市","addr_province":"神奈川県","address":"大和市下鶴間３７９－２ ","id":"023-201-1","areaname":"北分署１管区","jurisdiction":"北分署","name_zh":"消防水箱","name_es":"cistermas","name_ja_hira":"ぼうかすいそう","name_ja":"防火水槽","name_ja_latn":"Bōkasuisō","name_en":"Watar Tank","name":"防火水槽","longitude":139.4614452,"latitude":35.51660063}},{"type":"Feature","geometry":{"type":"Point","coordinates":[139.458113,35.515818]},"properties":{"cartodb_id":92,"addr_housenumber":72,"addr_block_number":80,"cd":213005000,"memo":"公設","access":"つきみ野わいわい公園内","addr_neighbourhood":"","addre_quarter":"下鶴間","addr_city":"大和市","addr_province":"神奈川県","address":"大和市下鶴間８０－７２ ","id":"023-201-2","areaname":"北分署１管区","jurisdiction":"北分署","name_zh":"消防水箱","name_es":"cistermas","name_ja_hira":"ぼうかすいそう","name_ja":"防火水槽","name_ja_latn":"Bōkasuisō","name_en":"Watar Tank","name":"防火水槽","longitude":139.4581132,"latitude":35.51581828}},{"type":"Feature","geometry":{"type":"Point","coordinates":[139.463019,35.515382]},"properties":{"cartodb_id":93,"addr_housenumber":null,"addr_block_number":267,"cd":213005000,"memo":"公設","access":"レオパレスゴ-ルドレジデンス･タカ","addr_neighbourhood":"","addre_quarter":"下鶴間","addr_city":"大和市","addr_province":"神奈川県","address":"大和市下鶴間２６７ ","id":"023-201-4","areaname":"北分署１管区","jurisdiction":"北分署","name_zh":"消防水箱","name_es":"cistermas","name_ja_hira":"ぼうかすいそう","name_ja":"防火水槽","name_ja_latn":"Bōkasuisō","name_en":"Watar Tank","name":"防火水槽","longitude":139.4630187,"latitude":35.51538239}},{"type":"Feature","geometry":{"type":"Point","coordinates":[139.461302,35.509023]},"properties":{"cartodb_id":94,"addr_housenumber":null,"addr_block_number":685,"cd":213005000,"memo":"公設","access":"市立北大和小学校","addr_neighbourhood":"","addre_quarter":"下鶴間","addr_city":"大和市","addr_province":"神奈川県","address":"大和市下鶴間６８５ ","id":"023-201-5","areaname":"北分署１管区","jurisdiction":"北分署","name_zh":"消防水箱","name_es":"cistermas","name_ja_hira":"ぼうかすいそう","name_ja":"防火水槽","name_ja_latn":"Bōkasuisō","name_en":"Watar Tank","name":"防火水槽","longitude":139.4613025,"latitude":35.50902298}},{"type":"Feature","geometry":{"type":"Point","coordinates":[139.465262,35.50607]},"properties":{"cartodb_id":95,"addr_housenumber":9,"addr_block_number":2170,"cd":213005000,"memo":"公設","access":"山谷自治会館","addr_neighbourhood":"","addre_quarter":"下鶴間","addr_city":"大和市","addr_province":"神奈川県","address":"大和市下鶴間２１７０－９ ","id":"023-201-6","areaname":"北分署１管区","jurisdiction":"北分署","name_zh":"消防水箱","name_es":"cistermas","name_ja_hira":"ぼうかすいそう","name_ja":"防火水槽","name_ja_latn":"Bōkasuisō","name_en":"Watar Tank","name":"防火水槽","longitude":139.4652625,"latitude":35.50607038}},{"type":"Feature","geometry":{"type":"Point","coordinates":[139.446433,35.511094]},"properties":{"cartodb_id":96,"addr_housenumber":13,"addr_block_number":7,"cd":213010006,"memo":"公設","access":"大和中央幼稚園","addr_neighbourhood":"六丁目","addre_quarter":"中央林間","addr_city":"大和市","addr_province":"神奈川県","address":"大和市中央林間六丁目７－１３ ","id":"023-201-7","areaname":"北分署１管区","jurisdiction":"北分署","name_zh":"消防水箱","name_es":"cistermas","name_ja_hira":"ぼうかすいそう","name_ja":"防火水槽","name_ja_latn":"Bōkasuisō","name_en":"Watar Tank","name":"防火水槽","longitude":139.4464333,"latitude":35.51109381}},{"type":"Feature","geometry":{"type":"Point","coordinates":[139.447169,35.50267]},"properties":{"cartodb_id":97,"addr_housenumber":43,"addr_block_number":16,"cd":213010002,"memo":"公設","access":"中央林間１号公園","addr_neighbourhood":"二丁目","addre_quarter":"中央林間","addr_city":"大和市","addr_province":"神奈川県","address":"大和市中央林間二丁目１６－４３ ","id":"023-201-8","areaname":"北分署１管区","jurisdiction":"北分署","name_zh":"消防水箱","name_es":"cistermas","name_ja_hira":"ぼうかすいそう","name_ja":"防火水槽","name_ja_latn":"Bōkasuisō","name_en":"Watar Tank","name":"防火水槽","longitude":139.4471694,"latitude":35.50266966}},{"type":"Feature","geometry":{"type":"Point","coordinates":[139.454641,35.511206]},"properties":{"cartodb_id":98,"addr_housenumber":8,"addr_block_number":9,"cd":213011006,"memo":"公設","access":"つきみ野文化会館駐車場","addr_neighbourhood":"六丁目","addre_quarter":"つきみ野","addr_city":"大和市","addr_province":"神奈川県","address":"大和市つきみ野六丁目９－８ ","id":"023-201-9","areaname":"北分署１管区","jurisdiction":"北分署","name_zh":"消防水箱","name_es":"cistermas","name_ja_hira":"ぼうかすいそう","name_ja":"防火水槽","name_ja_latn":"Bōkasuisō","name_en":"Watar Tank","name":"防火水槽","longitude":139.4546411,"latitude":35.51120579}},{"type":"Feature","geometry":{"type":"Point","coordinates":[139.447555,35.506008]},"properties":{"cartodb_id":99,"addr_housenumber":null,"addr_block_number":20,"cd":213010004,"memo":"公設","access":"ライオンズマンション中央林間第3","addr_neighbourhood":"四丁目","addre_quarter":"中央林間","addr_city":"大和市","addr_province":"神奈川県","address":"大和市中央林間四丁目２０ ","id":"023-201-10","areaname":"北分署１管区","jurisdiction":"北分署","name_zh":"消防水箱","name_es":"cistermas","name_ja_hira":"ぼうかすいそう","name_ja":"防火水槽","name_ja_latn":"Bōkasuisō","name_en":"Watar Tank","name":"防火水槽","longitude":139.4475551,"latitude":35.50600764}},{"type":"Feature","geometry":{"type":"Point","coordinates":[139.445913,35.502638]},"properties":{"cartodb_id":100,"addr_housenumber":11,"addr_block_number":7,"cd":213010002,"memo":"公設","access":"エステ－トピア道","addr_neighbourhood":"二丁目","addre_quarter":"中央林間","addr_city":"大和市","addr_province":"神奈川県","address":"大和市中央林間二丁目７－１１ ","id":"023-201-11","areaname":"北分署１管区","jurisdiction":"北分署","name_zh":"消防水箱","name_es":"cistermas","name_ja_hira":"ぼうかすいそう","name_ja":"防火水槽","name_ja_latn":"Bōkasuisō","name_en":"Watar Tank","name":"防火水槽","longitude":139.4459126,"latitude":35.50263832}},{"type":"Feature","geometry":{"type":"Point","coordinates":[139.451873,35.51216]},"properties":{"cartodb_id":102,"addr_housenumber":4,"addr_block_number":1561,"cd":213005000,"memo":"公設","access":"つきみ野園芸","addr_neighbourhood":"","addre_quarter":"下鶴間","addr_city":"大和市","addr_province":"神奈川県","address":"大和市下鶴間１５６１－４ ","id":"023-201-13","areaname":"北分署１管区","jurisdiction":"北分署","name_zh":"消防水箱","name_es":"cistermas","name_ja_hira":"ぼうかすいそう","name_ja":"防火水槽","name_ja_latn":"Bōkasuisō","name_en":"Watar Tank","name":"防火水槽","longitude":139.451873,"latitude":35.51215981}},{"type":"Feature","geometry":{"type":"Point","coordinates":[139.444879,35.510681]},"properties":{"cartodb_id":103,"addr_housenumber":null,"addr_block_number":2,"cd":213010006,"memo":"公設","access":"センチュリｰフォレスト","addr_neighbourhood":"六丁目","addre_quarter":"中央林間","addr_city":"大和市","addr_province":"神奈川県","address":"大和市中央林間六丁目２ ","id":"023-201-14","areaname":"北分署１管区","jurisdiction":"北分署","name_zh":"消防水箱","name_es":"cistermas","name_ja_hira":"ぼうかすいそう","name_ja":"防火水槽","name_ja_latn":"Bōkasuisō","name_en":"Watar Tank","name":"防火水槽","longitude":139.4448787,"latitude":35.5106812}},{"type":"Feature","geometry":{"type":"Point","coordinates":[139.458161,35.508914]},"properties":{"cartodb_id":104,"addr_housenumber":null,"addr_block_number":25,"cd":213011003,"memo":"公設","access":"大木酒店","addr_neighbourhood":"三丁目","addre_quarter":"つきみ野","addr_city":"大和市","addr_province":"神奈川県","address":"大和市つきみ野三丁目２５ ","id":"023-201-15","areaname":"北分署１管区","jurisdiction":"北分署","name_zh":"消防水箱","name_es":"cistermas","name_ja_hira":"ぼうかすいそう","name_ja":"防火水槽","name_ja_latn":"Bōkasuisō","name_en":"Watar Tank","name":"防火水槽","longitude":139.4581613,"latitude":35.50891389}},{"type":"Feature","geometry":{"type":"Point","coordinates":[139.461006,35.509761]},"properties":{"cartodb_id":105,"addr_housenumber":10,"addr_block_number":681,"cd":213005000,"memo":"公設","access":"","addr_neighbourhood":"","addre_quarter":"下鶴間","addr_city":"大和市","addr_province":"神奈川県","address":"大和市下鶴間６８１－１０ ","id":"023-201-16","areaname":"北分署１管区","jurisdiction":"北分署","name_zh":"消防水箱","name_es":"cistermas","name_ja_hira":"ぼうかすいそう","name_ja":"防火水槽","name_ja_latn":"Bōkasuisō","name_en":"Watar Tank","name":"防火水槽","longitude":139.4610063,"latitude":35.50976077}},{"type":"Feature","geometry":{"type":"Point","coordinates":[139.462103,35.510741]},"properties":{"cartodb_id":106,"addr_housenumber":10,"addr_block_number":644,"cd":213005000,"memo":"公設","access":"","addr_neighbourhood":"","addre_quarter":"下鶴間","addr_city":"大和市","addr_province":"神奈川県","address":"大和市下鶴間６４４－１０ ","id":"023-201-17","areaname":"北分署１管区","jurisdiction":"北分署","name_zh":"消防水箱","name_es":"cistermas","name_ja_hira":"ぼうかすいそう","name_ja":"防火水槽","name_ja_latn":"Bōkasuisō","name_en":"Watar Tank","name":"防火水槽","longitude":139.4621029,"latitude":35.51074146}},{"type":"Feature","geometry":{"type":"Point","coordinates":[139.453897,35.518073]},"properties":{"cartodb_id":107,"addr_housenumber":42,"addr_block_number":14,"cd":213011008,"memo":"公設","access":"つきみ野スカイハイツ","addr_neighbourhood":"八丁目","addre_quarter":"つきみ野","addr_city":"大和市","addr_province":"神奈川県","address":"大和市つきみ野八丁目１４－４２ ","id":"023-201-18","areaname":"北分署１管区","jurisdiction":"北分署","name_zh":"消防水箱","name_es":"cistermas","name_ja_hira":"ぼうかすいそう","name_ja":"防火水槽","name_ja_latn":"Bōkasuisō","name_en":"Watar Tank","name":"防火水槽","longitude":139.4538968,"latitude":35.51807318}},{"type":"Feature","geometry":{"type":"Point","coordinates":[139.45351,35.517605]},"properties":{"cartodb_id":108,"addr_housenumber":40,"addr_block_number":14,"cd":213011008,"memo":"公設","access":"つきみ野７号公園","addr_neighbourhood":"八丁目","addre_quarter":"つきみ野","addr_city":"大和市","addr_province":"神奈川県","address":"大和市つきみ野八丁目１４－４０ ","id":"023-201-19","areaname":"北分署１管区","jurisdiction":"北分署","name_zh":"消防水箱","name_es":"cistermas","name_ja_hira":"ぼうかすいそう","name_ja":"防火水槽","name_ja_latn":"Bōkasuisō","name_en":"Watar Tank","name":"防火水槽","longitude":139.4535102,"latitude":35.51760464}},{"type":"Feature","geometry":{"type":"Point","coordinates":[139.459382,35.509135]},"properties":{"cartodb_id":109,"addr_housenumber":5,"addr_block_number":7,"cd":213011004,"memo":"公設","access":"東急ドエルつきみ野ビレジD-2","addr_neighbourhood":"四丁目","addre_quarter":"つきみ野","addr_city":"大和市","addr_province":"神奈川県","address":"大和市つきみ野四丁目７－５ ","id":"023-201-20","areaname":"北分署１管区","jurisdiction":"北分署","name_zh":"消防水箱","name_es":"cistermas","name_ja_hira":"ぼうかすいそう","name_ja":"防火水槽","name_ja_latn":"Bōkasuisō","name_en":"Watar Tank","name":"防火水槽","longitude":139.4593823,"latitude":35.50913521}},{"type":"Feature","geometry":{"type":"Point","coordinates":[139.446717,35.505909]},"properties":{"cartodb_id":110,"addr_housenumber":22,"addr_block_number":20,"cd":213010004,"memo":"公設","access":"","addr_neighbourhood":"四丁目","addre_quarter":"中央林間","addr_city":"大和市","addr_province":"神奈川県","address":"大和市中央林間四丁目２０－２２ ","id":"023-201-21","areaname":"北分署１管区","jurisdiction":"北分署","name_zh":"消防水箱","name_es":"cistermas","name_ja_hira":"ぼうかすいそう","name_ja":"防火水槽","name_ja_latn":"Bōkasuisō","name_en":"Watar Tank","name":"防火水槽","longitude":139.4467168,"latitude":35.50590851}},{"type":"Feature","geometry":{"type":"Point","coordinates":[139.451707,35.516402]},"properties":{"cartodb_id":111,"addr_housenumber":37,"addr_block_number":6,"cd":213011008,"memo":"公設","access":"","addr_neighbourhood":"八丁目","addre_quarter":"つきみ野","addr_city":"大和市","addr_province":"神奈川県","address":"大和市つきみ野八丁目６－３７ ","id":"023-201-22","areaname":"北分署１管区","jurisdiction":"北分署","name_zh":"消防水箱","name_es":"cistermas","name_ja_hira":"ぼうかすいそう","name_ja":"防火水槽","name_ja_latn":"Bōkasuisō","name_en":"Watar Tank","name":"防火水槽","longitude":139.4517073,"latitude":35.51640208}},{"type":"Feature","geometry":{"type":"Point","coordinates":[139.458078,35.511162]},"properties":{"cartodb_id":112,"addr_housenumber":4,"addr_block_number":8,"cd":213011005,"memo":"公設","access":"東急ドエルつきみ野ビレジA棟","addr_neighbourhood":"五丁目","addre_quarter":"つきみ野","addr_city":"大和市","addr_province":"神奈川県","address":"大和市つきみ野五丁目８－４ ","id":"023-201-23","areaname":"北分署１管区","jurisdiction":"北分署","name_zh":"消防水箱","name_es":"cistermas","name_ja_hira":"ぼうかすいそう","name_ja":"防火水槽","name_ja_latn":"Bōkasuisō","name_en":"Watar Tank","name":"防火水槽","longitude":139.4580778,"latitude":35.5111621}},{"type":"Feature","geometry":{"type":"Point","coordinates":[139.46472,35.510154]},"properties":{"cartodb_id":113,"addr_housenumber":4,"addr_block_number":741,"cd":213005000,"memo":"公設","access":"","addr_neighbourhood":"","addre_quarter":"下鶴間","addr_city":"大和市","addr_province":"神奈川県","address":"大和市下鶴間７４１－４ ","id":"023-201-24","areaname":"北分署１管区","jurisdiction":"北分署","name_zh":"消防水箱","name_es":"cistermas","name_ja_hira":"ぼうかすいそう","name_ja":"防火水槽","name_ja_latn":"Bōkasuisō","name_en":"Watar Tank","name":"防火水槽","longitude":139.46472,"latitude":35.51015363}},{"type":"Feature","geometry":{"type":"Point","coordinates":[139.457697,35.505122]},"properties":{"cartodb_id":114,"addr_housenumber":null,"addr_block_number":10,"cd":213011001,"memo":"公設","access":"","addr_neighbourhood":"一丁目","addre_quarter":"つきみ野","addr_city":"大和市","addr_province":"神奈川県","address":"大和市つきみ野一丁目１０ ","id":"023-201-25","areaname":"北分署１管区","jurisdiction":"北分署","name_zh":"消防水箱","name_es":"cistermas","name_ja_hira":"ぼうかすいそう","name_ja":"防火水槽","name_ja_latn":"Bōkasuisō","name_en":"Watar Tank","name":"防火水槽","longitude":139.4576971,"latitude":35.50512199}},{"type":"Feature","geometry":{"type":"Point","coordinates":[139.449213,35.50737]},"properties":{"cartodb_id":115,"addr_housenumber":80,"addr_block_number":1614,"cd":213005000,"memo":"公設","access":"光文書院","addr_neighbourhood":"","addre_quarter":"下鶴間","addr_city":"大和市","addr_province":"神奈川県","address":"大和市下鶴間１６１４－８０ ","id":"023-201-26","areaname":"北分署１管区","jurisdiction":"北分署","name_zh":"消防水箱","name_es":"cistermas","name_ja_hira":"ぼうかすいそう","name_ja":"防火水槽","name_ja_latn":"Bōkasuisō","name_en":"Watar Tank","name":"防火水槽","longitude":139.4492127,"latitude":35.50736976}},{"type":"Feature","geometry":{"type":"Point","coordinates":[139.450707,35.507521]},"properties":{"cartodb_id":116,"addr_housenumber":12,"addr_block_number":1613,"cd":213005000,"memo":"公設","access":"","addr_neighbourhood":"","addre_quarter":"下鶴間","addr_city":"大和市","addr_province":"神奈川県","address":"大和市下鶴間１６１３－１２ ","id":"023-201-27","areaname":"北分署１管区","jurisdiction":"北分署","name_zh":"消防水箱","name_es":"cistermas","name_ja_hira":"ぼうかすいそう","name_ja":"防火水槽","name_ja_latn":"Bōkasuisō","name_en":"Watar Tank","name":"防火水槽","longitude":139.4507072,"latitude":35.50752053}},{"type":"Feature","geometry":{"type":"Point","coordinates":[139.453756,35.509691]},"properties":{"cartodb_id":117,"addr_housenumber":null,"addr_block_number":3,"cd":213011005,"memo":"公設","access":"市営つきみ野住宅１号","addr_neighbourhood":"五丁目","addre_quarter":"つきみ野","addr_city":"大和市","addr_province":"神奈川県","address":"大和市つきみ野五丁目３ ","id":"023-201-28","areaname":"北分署１管区","jurisdiction":"北分署","name_zh":"消防水箱","name_es":"cistermas","name_ja_hira":"ぼうかすいそう","name_ja":"防火水槽","name_ja_latn":"Bōkasuisō","name_en":"Watar Tank","name":"防火水槽","longitude":139.4537563,"latitude":35.50969069}},{"type":"Feature","geometry":{"type":"Point","coordinates":[139.454107,35.505044]},"properties":{"cartodb_id":118,"addr_housenumber":1,"addr_block_number":1,"cd":213011003,"memo":"公設","access":"","addr_neighbourhood":"三丁目","addre_quarter":"つきみ野","addr_city":"大和市","addr_province":"神奈川県","address":"大和市つきみ野三丁目１－１ ","id":"023-201-29","areaname":"北分署１管区","jurisdiction":"北分署","name_zh":"消防水箱","name_es":"cistermas","name_ja_hira":"ぼうかすいそう","name_ja":"防火水槽","name_ja_latn":"Bōkasuisō","name_en":"Watar Tank","name":"防火水槽","longitude":139.4541074,"latitude":35.5050437}},{"type":"Feature","geometry":{"type":"Point","coordinates":[139.445665,35.50817]},"properties":{"cartodb_id":119,"addr_housenumber":null,"addr_block_number":14,"cd":213010004,"memo":"公設","access":"中央林間児童遊園","addr_neighbourhood":"四丁目","addre_quarter":"中央林間","addr_city":"大和市","addr_province":"神奈川県","address":"大和市中央林間四丁目１４ ","id":"023-201-30","areaname":"北分署１管区","jurisdiction":"北分署","name_zh":"消防水箱","name_es":"cistermas","name_ja_hira":"ぼうかすいそう","name_ja":"防火水槽","name_ja_latn":"Bōkasuisō","name_en":"Watar Tank","name":"防火水槽","longitude":139.4456654,"latitude":35.50816962}},{"type":"Feature","geometry":{"type":"Point","coordinates":[139.454463,35.510553]},"properties":{"cartodb_id":120,"addr_housenumber":null,"addr_block_number":3,"cd":213011005,"memo":"公設","access":"つきみ野文化会館","addr_neighbourhood":"五丁目","addre_quarter":"つきみ野","addr_city":"大和市","addr_province":"神奈川県","address":"大和市つきみ野五丁目３ ","id":"023-201-31","areaname":"北分署１管区","jurisdiction":"北分署","name_zh":"消防水箱","name_es":"cistermas","name_ja_hira":"ぼうかすいそう","name_ja":"防火水槽","name_ja_latn":"Bōkasuisō","name_en":"Watar Tank","name":"防火水槽","longitude":139.4544631,"latitude":35.51055348}},{"type":"Feature","geometry":{"type":"Point","coordinates":[139.445189,35.507368]},"properties":{"cartodb_id":121,"addr_housenumber":null,"addr_block_number":6,"cd":213010004,"memo":"公設","access":"東急中央林間駅東口","addr_neighbourhood":"四丁目","addre_quarter":"中央林間","addr_city":"大和市","addr_province":"神奈川県","address":"大和市中央林間四丁目６ ","id":"023-201-32","areaname":"北分署１管区","jurisdiction":"北分署","name_zh":"消防水箱","name_es":"cistermas","name_ja_hira":"ぼうかすいそう","name_ja":"防火水槽","name_ja_latn":"Bōkasuisō","name_en":"Watar Tank","name":"防火水槽","longitude":139.4451886,"latitude":35.50736763}},{"type":"Feature","geometry":{"type":"Point","coordinates":[139.456994,35.510476]},"properties":{"cartodb_id":122,"addr_housenumber":11,"addr_block_number":7,"cd":213011005,"memo":"公設","access":"東急ドエルつきみ野セドラス","addr_neighbourhood":"五丁目","addre_quarter":"つきみ野","addr_city":"大和市","addr_province":"神奈川県","address":"大和市つきみ野五丁目７－１１ ","id":"023-201-33","areaname":"北分署１管区","jurisdiction":"北分署","name_zh":"消防水箱","name_es":"cistermas","name_ja_hira":"ぼうかすいそう","name_ja":"防火水槽","name_ja_latn":"Bōkasuisō","name_en":"Watar Tank","name":"防火水槽","longitude":139.4569943,"latitude":35.51047595}},{"type":"Feature","geometry":{"type":"Point","coordinates":[139.445325,35.506305]},"properties":{"cartodb_id":123,"addr_housenumber":null,"addr_block_number":7,"cd":213010004,"memo":"公設","access":"東急ドエル中央林間エクシｰドA棟","addr_neighbourhood":"四丁目","addre_quarter":"中央林間","addr_city":"大和市","addr_province":"神奈川県","address":"大和市中央林間四丁目７ ","id":"023-201-34","areaname":"北分署１管区","jurisdiction":"北分署","name_zh":"消防水箱","name_es":"cistermas","name_ja_hira":"ぼうかすいそう","name_ja":"防火水槽","name_ja_latn":"Bōkasuisō","name_en":"Watar Tank","name":"防火水槽","longitude":139.4453253,"latitude":35.50630486}},{"type":"Feature","geometry":{"type":"Point","coordinates":[139.444358,35.505989]},"properties":{"cartodb_id":124,"addr_housenumber":null,"addr_block_number":2,"cd":213011004,"memo":"公設","access":"東急ドエル中央林間エクシｰドB棟","addr_neighbourhood":"四丁目","addre_quarter":"つきみ野","addr_city":"大和市","addr_province":"神奈川県","address":"大和市つきみ野四丁目２ ","id":"023-201-35","areaname":"北分署１管区","jurisdiction":"北分署","name_zh":"消防水箱","name_es":"cistermas","name_ja_hira":"ぼうかすいそう","name_ja":"防火水槽","name_ja_latn":"Bōkasuisō","name_en":"Watar Tank","name":"防火水槽","longitude":139.4443579,"latitude":35.50598859}},{"type":"Feature","geometry":{"type":"Point","coordinates":[139.455704,35.51377]},"properties":{"cartodb_id":125,"addr_housenumber":null,"addr_block_number":14,"cd":213011007,"memo":"公設","access":"つきみ野３号公園","addr_neighbourhood":"七丁目","addre_quarter":"つきみ野","addr_city":"大和市","addr_province":"神奈川県","address":"大和市つきみ野七丁目１４ ","id":"023-201-36","areaname":"北分署１管区","jurisdiction":"北分署","name_zh":"消防水箱","name_es":"cistermas","name_ja_hira":"ぼうかすいそう","name_ja":"防火水槽","name_ja_latn":"Bōkasuisō","name_en":"Watar Tank","name":"防火水槽","longitude":139.4557037,"latitude":35.51376973}},{"type":"Feature","geometry":{"type":"Point","coordinates":[139.450554,35.516393]},"properties":{"cartodb_id":126,"addr_housenumber":1,"addr_block_number":3,"cd":213011008,"memo":"公設","access":"つきみ野９号公園","addr_neighbourhood":"","addre_quarter":"つきみ野","addr_city":"大和市","addr_province":"神奈川県","address":"大和市つきみ野八丁目３－１ ","id":"023-201-37","areaname":"北分署１管区","jurisdiction":"北分署","name_zh":"消防水箱","name_es":"cistermas","name_ja_hira":"ぼうかすいそう","name_ja":"防火水槽","name_ja_latn":"Bōkasuisō","name_en":"Watar Tank","name":"防火水槽","longitude":139.4505541,"latitude":35.51639264}},{"type":"Feature","geometry":{"type":"Point","coordinates":[139.453291,35.516613]},"properties":{"cartodb_id":127,"addr_housenumber":null,"addr_block_number":11,"cd":213011008,"memo":"公設","access":"つきみ野２号公園","addr_neighbourhood":"八丁目","addre_quarter":"つきみ野","addr_city":"大和市","addr_province":"神奈川県","address":"大和市つきみ野八丁目１１ ","id":"023-201-38","areaname":"北分署１管区","jurisdiction":"北分署","name_zh":"消防水箱","name_es":"cistermas","name_ja_hira":"ぼうかすいそう","name_ja":"防火水槽","name_ja_latn":"Bōkasuisō","name_en":"Watar Tank","name":"防火水槽","longitude":139.4532908,"latitude":35.51661288}},{"type":"Feature","geometry":{"type":"Point","coordinates":[139.456586,35.505213]},"properties":{"cartodb_id":128,"addr_housenumber":null,"addr_block_number":4,"cd":213011001,"memo":"公設","access":"つきみ野10号公園","addr_neighbourhood":"一丁目","addre_quarter":"つきみ野","addr_city":"大和市","addr_province":"神奈川県","address":"大和市つきみ野一丁目４ ","id":"023-201-39","areaname":"北分署１管区","jurisdiction":"北分署","name_zh":"消防水箱","name_es":"cistermas","name_ja_hira":"ぼうかすいそう","name_ja":"防火水槽","name_ja_latn":"Bōkasuisō","name_en":"Watar Tank","name":"防火水槽","longitude":139.4565861,"latitude":35.50521308}},{"type":"Feature","geometry":{"type":"Point","coordinates":[139.459331,35.504803]},"properties":{"cartodb_id":129,"addr_housenumber":null,"addr_block_number":12,"cd":213011001,"memo":"公設","access":"つきみ野５号公園","addr_neighbourhood":"一丁目","addre_quarter":"つきみ野","addr_city":"大和市","addr_province":"神奈川県","address":"大和市つきみ野一丁目１２ ","id":"023-201-40","areaname":"北分署１管区","jurisdiction":"北分署","name_zh":"消防水箱","name_es":"cistermas","name_ja_hira":"ぼうかすいそう","name_ja":"防火水槽","name_ja_latn":"Bōkasuisō","name_en":"Watar Tank","name":"防火水槽","longitude":139.4593314,"latitude":35.50480319}},{"type":"Feature","geometry":{"type":"Point","coordinates":[139.453168,35.512804]},"properties":{"cartodb_id":130,"addr_housenumber":10,"addr_block_number":2,"cd":213011006,"memo":"公設","access":"つきみ野６号公園","addr_neighbourhood":"六丁目","addre_quarter":"つきみ野","addr_city":"大和市","addr_province":"神奈川県","address":"大和市つきみ野六丁目２－１０ ","id":"023-201-41","areaname":"北分署１管区","jurisdiction":"北分署","name_zh":"消防水箱","name_es":"cistermas","name_ja_hira":"ぼうかすいそう","name_ja":"防火水槽","name_ja_latn":"Bōkasuisō","name_en":"Watar Tank","name":"防火水槽","longitude":139.4531684,"latitude":35.51280356}},{"type":"Feature","geometry":{"type":"Point","coordinates":[139.457245,35.506246]},"properties":{"cartodb_id":131,"addr_housenumber":null,"addr_block_number":16,"cd":213011003,"memo":"公設","access":"つきみ野４号公園","addr_neighbourhood":"三丁目","addre_quarter":"つきみ野","addr_city":"大和市","addr_province":"神奈川県","address":"大和市つきみ野三丁目１６ ","id":"023-201-42","areaname":"北分署１管区","jurisdiction":"北分署","name_zh":"消防水箱","name_es":"cistermas","name_ja_hira":"ぼうかすいそう","name_ja":"防火水槽","name_ja_latn":"Bōkasuisō","name_en":"Watar Tank","name":"防火水槽","longitude":139.4572454,"latitude":35.5062461}},{"type":"Feature","geometry":{"type":"Point","coordinates":[139.445927,35.510117]},"properties":{"cartodb_id":132,"addr_housenumber":31,"addr_block_number":4377,"cd":213010006,"memo":"公設","access":"セ・パルレ中央林間公園内　（公園）","addr_neighbourhood":"六丁目","addre_quarter":"中央林間","addr_city":"大和市","addr_province":"神奈川県","address":"大和市中央林間六丁目４３７７－３１ ","id":"023-201-43","areaname":"北分署１管区","jurisdiction":"北分署","name_zh":"消防水箱","name_es":"cistermas","name_ja_hira":"ぼうかすいそう","name_ja":"防火水槽","name_ja_latn":"Bōkasuisō","name_en":"Watar Tank","name":"防火水槽","longitude":139.4459273,"latitude":35.51011687}},{"type":"Feature","geometry":{"type":"Point","coordinates":[139.459105,35.518855]},"properties":{"cartodb_id":133,"addr_housenumber":null,"addr_block_number":212,"cd":213005000,"memo":"公設","access":"高木地区公園","addr_neighbourhood":"","addre_quarter":"下鶴間","addr_city":"大和市","addr_province":"神奈川県","address":"大和市下鶴間２１２ ","id":"023-201-44","areaname":"北分署１管区","jurisdiction":"北分署","name_zh":"消防水箱","name_es":"cistermas","name_ja_hira":"ぼうかすいそう","name_ja":"防火水槽","name_ja_latn":"Bōkasuisō","name_en":"Watar Tank","name":"防火水槽","longitude":139.4591047,"latitude":35.51885477}},{"type":"Feature","geometry":{"type":"Point","coordinates":[139.465244,35.50872]},"properties":{"cartodb_id":134,"addr_housenumber":null,"addr_block_number":753,"cd":213005000,"memo":"公設","access":"山谷地区公園","addr_neighbourhood":"","addre_quarter":"下鶴間","addr_city":"大和市","addr_province":"神奈川県","address":"大和市下鶴間７５３ ","id":"023-201-45","areaname":"北分署１管区","jurisdiction":"北分署","name_zh":"消防水箱","name_es":"cistermas","name_ja_hira":"ぼうかすいそう","name_ja":"防火水槽","name_ja_latn":"Bōkasuisō","name_en":"Watar Tank","name":"防火水槽","longitude":139.465244,"latitude":35.50872049}},{"type":"Feature","geometry":{"type":"Point","coordinates":[139.454558,35.505906]},"properties":{"cartodb_id":135,"addr_housenumber":5,"addr_block_number":1,"cd":213011003,"memo":"公設","access":"宅地造成道路上","addr_neighbourhood":"三丁目","addre_quarter":"つきみ野","addr_city":"大和市","addr_province":"神奈川県","address":"大和市つきみ野三丁目１－５ ","id":"023-201-46","areaname":"北分署１管区","jurisdiction":"北分署","name_zh":"消防水箱","name_es":"cistermas","name_ja_hira":"ぼうかすいそう","name_ja":"防火水槽","name_ja_latn":"Bōkasuisō","name_en":"Watar Tank","name":"防火水槽","longitude":139.4545578,"latitude":35.50590623}},{"type":"Feature","geometry":{"type":"Point","coordinates":[139.466286,35.506047]},"properties":{"cartodb_id":136,"addr_housenumber":null,"addr_block_number":793,"cd":213005000,"memo":"公設","access":"松の久保土地区画","addr_neighbourhood":"","addre_quarter":"下鶴間","addr_city":"大和市","addr_province":"神奈川県","address":"大和市下鶴間７９３ ","id":"023-201-47","areaname":"北分署１管区","jurisdiction":"北分署","name_zh":"消防水箱","name_es":"cistermas","name_ja_hira":"ぼうかすいそう","name_ja":"防火水槽","name_ja_latn":"Bōkasuisō","name_en":"Watar Tank","name":"防火水槽","longitude":139.466286,"latitude":35.50604717}},{"type":"Feature","geometry":{"type":"Point","coordinates":[139.447218,35.499036]},"properties":{"cartodb_id":137,"addr_housenumber":11,"addr_block_number":6,"cd":213022002,"memo":"公設","access":"D　グラフォート中央林間","addr_neighbourhood":"二丁目","addre_quarter":"林間","addr_city":"大和市","addr_province":"神奈川県","address":"大和市林間二丁目６－１１ ","id":"023-202-1","areaname":"北分署２管区","jurisdiction":"北分署","name_zh":"消防水箱","name_es":"cistermas","name_ja_hira":"ぼうかすいそう","name_ja":"防火水槽","name_ja_latn":"Bōkasuisō","name_en":"Watar Tank","name":"防火水槽","longitude":139.4472176,"latitude":35.49903568}},{"type":"Feature","geometry":{"type":"Point","coordinates":[139.449426,35.495872]},"properties":{"cartodb_id":138,"addr_housenumber":null,"addr_block_number":5,"cd":213022001,"memo":"公設","access":"市立林間小学校","addr_neighbourhood":"一丁目","addre_quarter":"林間","addr_city":"大和市","addr_province":"神奈川県","address":"大和市林間一丁目５ ","id":"023-202-2","areaname":"北分署２管区","jurisdiction":"北分署","name_zh":"消防水箱","name_es":"cistermas","name_ja_hira":"ぼうかすいそう","name_ja":"防火水槽","name_ja_latn":"Bōkasuisō","name_en":"Watar Tank","name":"防火水槽","longitude":139.4494257,"latitude":35.49587243}},{"type":"Feature","geometry":{"type":"Point","coordinates":[139.456026,35.497822]},"properties":{"cartodb_id":139,"addr_housenumber":null,"addr_block_number":2995,"cd":213005000,"memo":"公設","access":"山王原子供広場","addr_neighbourhood":"","addre_quarter":"下鶴間","addr_city":"大和市","addr_province":"神奈川県","address":"大和市下鶴間２９９５ ","id":"023-202-3","areaname":"北分署２管区","jurisdiction":"北分署","name_zh":"消防水箱","name_es":"cistermas","name_ja_hira":"ぼうかすいそう","name_ja":"防火水槽","name_ja_latn":"Bōkasuisō","name_en":"Watar Tank","name":"防火水槽","longitude":139.456026,"latitude":35.49782192}},{"type":"Feature","geometry":{"type":"Point","coordinates":[139.456638,35.49267]},"properties":{"cartodb_id":140,"addr_housenumber":4,"addr_block_number":2777,"cd":213005000,"memo":"公設","access":"リラの丘公園","addr_neighbourhood":"","addre_quarter":"下鶴間","addr_city":"大和市","addr_province":"神奈川県","address":"大和市下鶴間２７７７－４ ","id":"023-202-4","areaname":"北分署２管区","jurisdiction":"北分署","name_zh":"消防水箱","name_es":"cistermas","name_ja_hira":"ぼうかすいそう","name_ja":"防火水槽","name_ja_latn":"Bōkasuisō","name_en":"Watar Tank","name":"防火水槽","longitude":139.4566384,"latitude":35.49266978}},{"type":"Feature","geometry":{"type":"Point","coordinates":[139.452572,35.491217]},"properties":{"cartodb_id":141,"addr_housenumber":11,"addr_block_number":3114,"cd":213012002,"memo":"公設","access":"鶴間２号児童遊園","addr_neighbourhood":"二丁目","addre_quarter":"鶴間","addr_city":"大和市","addr_province":"神奈川県","address":"大和市鶴間二丁目３１１４－１１ ","id":"023-202-5","areaname":"北分署２管区","jurisdiction":"北分署","name_zh":"消防水箱","name_es":"cistermas","name_ja_hira":"ぼうかすいそう","name_ja":"防火水槽","name_ja_latn":"Bōkasuisō","name_en":"Watar Tank","name":"防火水槽","longitude":139.4525721,"latitude":35.49121651}},{"type":"Feature","geometry":{"type":"Point","coordinates":[139.461374,35.497912]},"properties":{"cartodb_id":143,"addr_housenumber":null,"addr_block_number":2881,"cd":213005000,"memo":"公設","access":"諏訪神社","addr_neighbourhood":"","addre_quarter":"下鶴間","addr_city":"大和市","addr_province":"神奈川県","address":"大和市下鶴間２８８１ ","id":"023-202-7","areaname":"北分署２管区","jurisdiction":"北分署","name_zh":"消防水箱","name_es":"cistermas","name_ja_hira":"ぼうかすいそう","name_ja":"防火水槽","name_ja_latn":"Bōkasuisō","name_en":"Watar Tank","name":"防火水槽","longitude":139.4613742,"latitude":35.49791207}},{"type":"Feature","geometry":{"type":"Point","coordinates":[139.460395,35.494889]},"properties":{"cartodb_id":144,"addr_housenumber":null,"addr_block_number":2850,"cd":213005000,"memo":"公設","access":"クリナ－ズ東京","addr_neighbourhood":"","addre_quarter":"下鶴間","addr_city":"大和市","addr_province":"神奈川県","address":"大和市下鶴間２８５０ ","id":"023-202-8","areaname":"北分署２管区","jurisdiction":"北分署","name_zh":"消防水箱","name_es":"cistermas","name_ja_hira":"ぼうかすいそう","name_ja":"防火水槽","name_ja_latn":"Bōkasuisō","name_en":"Watar Tank","name":"防火水槽","longitude":139.4603953,"latitude":35.49488899}},{"type":"Feature","geometry":{"type":"Point","coordinates":[139.454772,35.491045]},"properties":{"cartodb_id":145,"addr_housenumber":35,"addr_block_number":12,"cd":213012002,"memo":"公設","access":"コミセン鶴間会館","addr_neighbourhood":"二丁目","addre_quarter":"鶴間","addr_city":"大和市","addr_province":"神奈川県","address":"大和市鶴間二丁目１２－３５ ","id":"023-202-9","areaname":"北分署２管区","jurisdiction":"北分署","name_zh":"消防水箱","name_es":"cistermas","name_ja_hira":"ぼうかすいそう","name_ja":"防火水槽","name_ja_latn":"Bōkasuisō","name_en":"Watar Tank","name":"防火水槽","longitude":139.4547717,"latitude":35.49104492}},{"type":"Feature","geometry":{"type":"Point","coordinates":[139.456142,35.498894]},"properties":{"cartodb_id":146,"addr_housenumber":null,"addr_block_number":2975,"cd":213005000,"memo":"公設","access":"","addr_neighbourhood":"","addre_quarter":"下鶴間","addr_city":"大和市","addr_province":"神奈川県","address":"大和市下鶴間２９７５ ","id":"023-202-10","areaname":"北分署２管区","jurisdiction":"北分署","name_zh":"消防水箱","name_es":"cistermas","name_ja_hira":"ぼうかすいそう","name_ja":"防火水槽","name_ja_latn":"Bōkasuisō","name_en":"Watar Tank","name":"防火水槽","longitude":139.4561423,"latitude":35.49889355}},{"type":"Feature","geometry":{"type":"Point","coordinates":[139.447704,35.50103]},"properties":{"cartodb_id":147,"addr_housenumber":41,"addr_block_number":6,"cd":213022002,"memo":"公設","access":"ソフトタウン南林間","addr_neighbourhood":"二丁目","addre_quarter":"林間","addr_city":"大和市","addr_province":"神奈川県","address":"大和市林間二丁目６－４１ ","id":"023-202-11","areaname":"北分署２管区","jurisdiction":"北分署","name_zh":"消防水箱","name_es":"cistermas","name_ja_hira":"ぼうかすいそう","name_ja":"防火水槽","name_ja_latn":"Bōkasuisō","name_en":"Watar Tank","name":"防火水槽","longitude":139.4477036,"latitude":35.50103012}},{"type":"Feature","geometry":{"type":"Point","coordinates":[139.451913,35.497395]},"properties":{"cartodb_id":148,"addr_housenumber":16,"addr_block_number":19,"cd":213022001,"memo":"公設","access":"","addr_neighbourhood":"一丁目","addre_quarter":"林間","addr_city":"大和市","addr_province":"神奈川県","address":"大和市林間一丁目１９－１６ ","id":"023-202-12","areaname":"北分署２管区","jurisdiction":"北分署","name_zh":"消防水箱","name_es":"cistermas","name_ja_hira":"ぼうかすいそう","name_ja":"防火水槽","name_ja_latn":"Bōkasuisō","name_en":"Watar Tank","name":"防火水槽","longitude":139.4519132,"latitude":35.49739507}},{"type":"Feature","geometry":{"type":"Point","coordinates":[139.455248,35.496017]},"properties":{"cartodb_id":149,"addr_housenumber":null,"addr_block_number":3016,"cd":213005000,"memo":"公設","access":"市立鶴間中学校","addr_neighbourhood":"","addre_quarter":"下鶴間","addr_city":"大和市","addr_province":"神奈川県","address":"大和市下鶴間３０１６ ","id":"023-202-13","areaname":"北分署２管区","jurisdiction":"北分署","name_zh":"消防水箱","name_es":"cistermas","name_ja_hira":"ぼうかすいそう","name_ja":"防火水槽","name_ja_latn":"Bōkasuisō","name_en":"Watar Tank","name":"防火水槽","longitude":139.4552475,"latitude":35.49601688}},{"type":"Feature","geometry":{"type":"Point","coordinates":[139.46017,35.50089]},"properties":{"cartodb_id":150,"addr_housenumber":15,"addr_block_number":1853,"cd":213005000,"memo":"公設","access":"","addr_neighbourhood":"","addre_quarter":"下鶴間","addr_city":"大和市","addr_province":"神奈川県","address":"大和市下鶴間１８５３－１５ ","id":"023-202-14","areaname":"北分署２管区","jurisdiction":"北分署","name_zh":"消防水箱","name_es":"cistermas","name_ja_hira":"ぼうかすいそう","name_ja":"防火水槽","name_ja_latn":"Bōkasuisō","name_en":"Watar Tank","name":"防火水槽","longitude":139.46017,"latitude":35.50089028}},{"type":"Feature","geometry":{"type":"Point","coordinates":[139.45135,35.501205]},"properties":{"cartodb_id":151,"addr_housenumber":32,"addr_block_number":1789,"cd":213005000,"memo":"公設","access":"スカイラ－ク南林間店","addr_neighbourhood":"","addre_quarter":"下鶴間","addr_city":"大和市","addr_province":"神奈川県","address":"大和市下鶴間１７８４－３２ ","id":"023-202-15","areaname":"北分署２管区","jurisdiction":"北分署","name_zh":"消防水箱","name_es":"cistermas","name_ja_hira":"ぼうかすいそう","name_ja":"防火水槽","name_ja_latn":"Bōkasuisō","name_en":"Watar Tank","name":"防火水槽","longitude":139.45135,"latitude":35.50120453}},{"type":"Feature","geometry":{"type":"Point","coordinates":[139.452284,35.495079]},"properties":{"cartodb_id":152,"addr_housenumber":7,"addr_block_number":15,"cd":213022001,"memo":"公設","access":"㈲マックス21","addr_neighbourhood":"一丁目","addre_quarter":"林間","addr_city":"大和市","addr_province":"神奈川県","address":"大和市林間一丁目１５－７ ","id":"023-202-16","areaname":"北分署２管区","jurisdiction":"北分署","name_zh":"消防水箱","name_es":"cistermas","name_ja_hira":"ぼうかすいそう","name_ja":"防火水槽","name_ja_latn":"Bōkasuisō","name_en":"Watar Tank","name":"防火水槽","longitude":139.4522839,"latitude":35.49507907}},{"type":"Feature","geometry":{"type":"Point","coordinates":[139.464296,35.500708]},"properties":{"cartodb_id":153,"addr_housenumber":null,"addr_block_number":2359,"cd":213005000,"memo":"公設","access":"第２分団","addr_neighbourhood":"","addre_quarter":"下鶴間","addr_city":"大和市","addr_province":"神奈川県","address":"大和市下鶴間２３５９ ","id":"023-202-17","areaname":"北分署２管区","jurisdiction":"北分署","name_zh":"消防水箱","name_es":"cistermas","name_ja_hira":"ぼうかすいそう","name_ja":"防火水槽","name_ja_latn":"Bōkasuisō","name_en":"Watar Tank","name":"防火水槽","longitude":139.4642964,"latitude":35.50070762}},{"type":"Feature","geometry":{"type":"Point","coordinates":[139.465203,35.501191]},"properties":{"cartodb_id":154,"addr_housenumber":9,"addr_block_number":2354,"cd":213005000,"memo":"公設","access":"宿町自治会館","addr_neighbourhood":"","addre_quarter":"下鶴間","addr_city":"大和市","addr_province":"神奈川県","address":"大和市下鶴間２３５４－９ ","id":"023-202-18","areaname":"北分署２管区","jurisdiction":"北分署","name_zh":"消防水箱","name_es":"cistermas","name_ja_hira":"ぼうかすいそう","name_ja":"防火水槽","name_ja_latn":"Bōkasuisō","name_en":"Watar Tank","name":"防火水槽","longitude":139.4652025,"latitude":35.50119089}},{"type":"Feature","geometry":{"type":"Point","coordinates":[139.452143,35.494022]},"properties":{"cartodb_id":155,"addr_housenumber":12,"addr_block_number":15,"cd":213012002,"memo":"公設","access":"ふるみち公園","addr_neighbourhood":"二丁目","addre_quarter":"鶴間","addr_city":"大和市","addr_province":"神奈川県","address":"大和市鶴間二丁目１５－１２ ","id":"023-202-19","areaname":"北分署２管区","jurisdiction":"北分署","name_zh":"消防水箱","name_es":"cistermas","name_ja_hira":"ぼうかすいそう","name_ja":"防火水槽","name_ja_latn":"Bōkasuisō","name_en":"Watar Tank","name":"防火水槽","longitude":139.4521428,"latitude":35.49402213}},{"type":"Feature","geometry":{"type":"Point","coordinates":[139.460245,35.497242]},"properties":{"cartodb_id":156,"addr_housenumber":1,"addr_block_number":2871,"cd":213005000,"memo":"公設","access":"","addr_neighbourhood":"","addre_quarter":"下鶴間","addr_city":"大和市","addr_province":"神奈川県","address":"大和市下鶴間２８７１－１ ","id":"023-202-20","areaname":"北分署２管区","jurisdiction":"北分署","name_zh":"消防水箱","name_es":"cistermas","name_ja_hira":"ぼうかすいそう","name_ja":"防火水槽","name_ja_latn":"Bōkasuisō","name_en":"Watar Tank","name":"防火水槽","longitude":139.4602452,"latitude":35.49724218}},{"type":"Feature","geometry":{"type":"Point","coordinates":[139.468427,35.445463]},"properties":{"cartodb_id":227,"addr_housenumber":null,"addr_block_number":1835,"cd":213002000,"memo":"公設","access":"","addr_neighbourhood":"","addre_quarter":"上和田","addr_city":"大和市","addr_province":"神奈川県","address":"大和市上和田１８３６ ","id":"024-301-8","areaname":"南分署１管区","jurisdiction":"南分署","name_zh":"消防水箱","name_es":"cistermas","name_ja_hira":"ぼうかすいそう","name_ja":"防火水槽","name_ja_latn":"Bōkasuisō","name_en":"Watar Tank","name":"防火水槽","longitude":139.4684266,"latitude":35.44546263}},{"type":"Feature","geometry":{"type":"Point","coordinates":[139.462643,35.501895]},"properties":{"cartodb_id":157,"addr_housenumber":null,"addr_block_number":1945,"cd":213005000,"memo":"公設","access":"目黒公園","addr_neighbourhood":"","addre_quarter":"下鶴間","addr_city":"大和市","addr_province":"神奈川県","address":"大和市下鶴間１９４５ ","id":"023-202-21","areaname":"北分署２管区","jurisdiction":"北分署","name_zh":"消防水箱","name_es":"cistermas","name_ja_hira":"ぼうかすいそう","name_ja":"防火水槽","name_ja_latn":"Bōkasuisō","name_en":"Watar Tank","name":"防火水槽","longitude":139.4626431,"latitude":35.50189464}},{"type":"Feature","geometry":{"type":"Point","coordinates":[139.463751,35.503971]},"properties":{"cartodb_id":158,"addr_housenumber":3,"addr_block_number":2050,"cd":213005000,"memo":"公設","access":"コトｰつきみ野モンヴラｰジュ","addr_neighbourhood":"","addre_quarter":"下鶴間","addr_city":"大和市","addr_province":"神奈川県","address":"大和市下鶴間２０５０－３ ","id":"023-202-22","areaname":"北分署２管区","jurisdiction":"北分署","name_zh":"消防水箱","name_es":"cistermas","name_ja_hira":"ぼうかすいそう","name_ja":"防火水槽","name_ja_latn":"Bōkasuisō","name_en":"Watar Tank","name":"防火水槽","longitude":139.4637507,"latitude":35.50397109}},{"type":"Feature","geometry":{"type":"Point","coordinates":[139.45232,35.50086]},"properties":{"cartodb_id":159,"addr_housenumber":1,"addr_block_number":1786,"cd":213005000,"memo":"公設","access":"ライオンズマンション中央林間坂上2号公園","addr_neighbourhood":"","addre_quarter":"下鶴間","addr_city":"大和市","addr_province":"神奈川県","address":"大和市下鶴間１７８６－１ ","id":"023-202-23","areaname":"北分署２管区","jurisdiction":"北分署","name_zh":"消防水箱","name_es":"cistermas","name_ja_hira":"ぼうかすいそう","name_ja":"防火水槽","name_ja_latn":"Bōkasuisō","name_en":"Watar Tank","name":"防火水槽","longitude":139.45232,"latitude":35.50085991}},{"type":"Feature","geometry":{"type":"Point","coordinates":[139.457035,35.495521]},"properties":{"cartodb_id":160,"addr_housenumber":null,"addr_block_number":2952,"cd":213005000,"memo":"公設","access":"山王原公園","addr_neighbourhood":"","addre_quarter":"下鶴間","addr_city":"大和市","addr_province":"神奈川県","address":"大和市下鶴間２９５２ ","id":"023-202-24","areaname":"北分署２管区","jurisdiction":"北分署","name_zh":"消防水箱","name_es":"cistermas","name_ja_hira":"ぼうかすいそう","name_ja":"防火水槽","name_ja_latn":"Bōkasuisō","name_en":"Watar Tank","name":"防火水槽","longitude":139.4570352,"latitude":35.49552093}},{"type":"Feature","geometry":{"type":"Point","coordinates":[139.462847,35.49442]},"properties":{"cartodb_id":161,"addr_housenumber":1,"addr_block_number":2570,"cd":213005000,"memo":"公設","access":"ダイアパレス鶴間","addr_neighbourhood":"","addre_quarter":"下鶴間","addr_city":"大和市","addr_province":"神奈川県","address":"大和市下鶴間２５７０－１ ","id":"023-202-25","areaname":"北分署２管区","jurisdiction":"北分署","name_zh":"消防水箱","name_es":"cistermas","name_ja_hira":"ぼうかすいそう","name_ja":"防火水槽","name_ja_latn":"Bōkasuisō","name_en":"Watar Tank","name":"防火水槽","longitude":139.4628471,"latitude":35.49441984}},{"type":"Feature","geometry":{"type":"Point","coordinates":[139.45543,35.49381]},"properties":{"cartodb_id":162,"addr_housenumber":4,"addr_block_number":2786,"cd":213005000,"memo":"公設","access":"山王原西公園","addr_neighbourhood":"","addre_quarter":"下鶴間","addr_city":"大和市","addr_province":"神奈川県","address":"大和市下鶴間２７８６－４ ","id":"023-202-26","areaname":"北分署２管区","jurisdiction":"北分署","name_zh":"消防水箱","name_es":"cistermas","name_ja_hira":"ぼうかすいそう","name_ja":"防火水槽","name_ja_latn":"Bōkasuisō","name_en":"Watar Tank","name":"防火水槽","longitude":139.4554304,"latitude":35.49380973}},{"type":"Feature","geometry":{"type":"Point","coordinates":[139.462181,35.495411]},"properties":{"cartodb_id":163,"addr_housenumber":7,"addr_block_number":2500,"cd":213005000,"memo":"公設","access":"両替山公園","addr_neighbourhood":"","addre_quarter":"下鶴間","addr_city":"大和市","addr_province":"神奈川県","address":"大和市下鶴間２５００－７ ","id":"023-202-27","areaname":"北分署２管区","jurisdiction":"北分署","name_zh":"消防水箱","name_es":"cistermas","name_ja_hira":"ぼうかすいそう","name_ja":"防火水槽","name_ja_latn":"Bōkasuisō","name_en":"Watar Tank","name":"防火水槽","longitude":139.4621813,"latitude":35.49541118}},{"type":"Feature","geometry":{"type":"Point","coordinates":[139.457546,35.500348]},"properties":{"cartodb_id":164,"addr_housenumber":null,"addr_block_number":1826,"cd":213005000,"memo":"公設","access":"坂上公園","addr_neighbourhood":"","addre_quarter":"下鶴間","addr_city":"大和市","addr_province":"神奈川県","address":"大和市下鶴間１８２６ ","id":"023-202-28","areaname":"北分署２管区","jurisdiction":"北分署","name_zh":"消防水箱","name_es":"cistermas","name_ja_hira":"ぼうかすいそう","name_ja":"防火水槽","name_ja_latn":"Bōkasuisō","name_en":"Watar Tank","name":"防火水槽","longitude":139.4575457,"latitude":35.50034758}},{"type":"Feature","geometry":{"type":"Point","coordinates":[139.447992,35.500176]},"properties":{"cartodb_id":165,"addr_housenumber":73,"addr_block_number":3207,"cd":213022002,"memo":"公設","access":"林間１号公園","addr_neighbourhood":"二丁目","addre_quarter":"林間","addr_city":"大和市","addr_province":"神奈川県","address":"大和市林間二丁目３２７０－７３ ","id":"023-202-29","areaname":"北分署２管区","jurisdiction":"北分署","name_zh":"消防水箱","name_es":"cistermas","name_ja_hira":"ぼうかすいそう","name_ja":"防火水槽","name_ja_latn":"Bōkasuisō","name_en":"Watar Tank","name":"防火水槽","longitude":139.4479917,"latitude":35.5001762}},{"type":"Feature","geometry":{"type":"Point","coordinates":[139.442163,35.509725]},"properties":{"cartodb_id":167,"addr_housenumber":13,"addr_block_number":7,"cd":213010005,"memo":"公設","access":"セリ－ヌ中央林間","addr_neighbourhood":"五丁目","addre_quarter":"中央林間","addr_city":"大和市","addr_province":"神奈川県","address":"大和市中央林間五丁目７－１３ ","id":"023-203-2","areaname":"北分署３管区","jurisdiction":"北分署","name_zh":"消防水箱","name_es":"cistermas","name_ja_hira":"ぼうかすいそう","name_ja":"防火水槽","name_ja_latn":"Bōkasuisō","name_en":"Watar Tank","name":"防火水槽","longitude":139.4421632,"latitude":35.50972489}},{"type":"Feature","geometry":{"type":"Point","coordinates":[139.443746,35.508863]},"properties":{"cartodb_id":168,"addr_housenumber":null,"addr_block_number":1,"cd":213010005,"memo":"公設","access":"中央林間交番","addr_neighbourhood":"五丁目","addre_quarter":"中央林間","addr_city":"大和市","addr_province":"神奈川県","address":"大和市中央林間五丁目１ ","id":"023-203-3","areaname":"北分署３管区","jurisdiction":"北分署","name_zh":"消防水箱","name_es":"cistermas","name_ja_hira":"ぼうかすいそう","name_ja":"防火水槽","name_ja_latn":"Bōkasuisō","name_en":"Watar Tank","name":"防火水槽","longitude":139.4437461,"latitude":35.5088634}},{"type":"Feature","geometry":{"type":"Point","coordinates":[139.43971,35.506156]},"properties":{"cartodb_id":169,"addr_housenumber":22,"addr_block_number":30,"cd":213026004,"memo":"公設","access":"フォ－ウル青木","addr_neighbourhood":"四丁目","addre_quarter":"中央林間","addr_city":"大和市","addr_province":"神奈川県","address":"大和市中央林間西四丁目３０－２２ ","id":"023-203-4","areaname":"北分署３管区","jurisdiction":"北分署","name_zh":"消防水箱","name_es":"cistermas","name_ja_hira":"ぼうかすいそう","name_ja":"防火水槽","name_ja_latn":"Bōkasuisō","name_en":"Watar Tank","name":"防火水槽","longitude":139.4397105,"latitude":35.50615624}},{"type":"Feature","geometry":{"type":"Point","coordinates":[139.443668,35.504583]},"properties":{"cartodb_id":170,"addr_housenumber":null,"addr_block_number":4,"cd":213010001,"memo":"公設","access":"市営緑野住宅３号棟","addr_neighbourhood":"一丁目","addre_quarter":"中央林間","addr_city":"大和市","addr_province":"神奈川県","address":"大和市中央林間一丁目４ ","id":"023-203-5","areaname":"北分署３管区","jurisdiction":"北分署","name_zh":"消防水箱","name_es":"cistermas","name_ja_hira":"ぼうかすいそう","name_ja":"防火水槽","name_ja_latn":"Bōkasuisō","name_en":"Watar Tank","name":"防火水槽","longitude":139.443668,"latitude":35.50458344}},{"type":"Feature","geometry":{"type":"Point","coordinates":[139.442474,35.50234]},"properties":{"cartodb_id":171,"addr_housenumber":15,"addr_block_number":10,"cd":213010001,"memo":"公設","access":"サトウ理容店","addr_neighbourhood":"一丁目","addre_quarter":"中央林間","addr_city":"大和市","addr_province":"神奈川県","address":"大和市中央林間一丁目１０－１５ ","id":"023-203-6","areaname":"北分署３管区","jurisdiction":"北分署","name_zh":"消防水箱","name_es":"cistermas","name_ja_hira":"ぼうかすいそう","name_ja":"防火水槽","name_ja_latn":"Bōkasuisō","name_en":"Watar Tank","name":"防火水槽","longitude":139.4424743,"latitude":35.50234022}},{"type":"Feature","geometry":{"type":"Point","coordinates":[139.438769,35.501228]},"properties":{"cartodb_id":172,"addr_housenumber":19,"addr_block_number":1,"cd":213026005,"memo":"公設","access":"鶴間新町自治会館","addr_neighbourhood":"五丁目","addre_quarter":"中央林間","addr_city":"大和市","addr_province":"神奈川県","address":"大和市中央林間西五丁目１－１９ ","id":"023-203-7","areaname":"北分署３管区","jurisdiction":"北分署","name_zh":"消防水箱","name_es":"cistermas","name_ja_hira":"ぼうかすいそう","name_ja":"防火水槽","name_ja_latn":"Bōkasuisō","name_en":"Watar Tank","name":"防火水槽","longitude":139.4387688,"latitude":35.50122819}},{"type":"Feature","geometry":{"type":"Point","coordinates":[139.442015,35.499533]},"properties":{"cartodb_id":173,"addr_housenumber":6,"addr_block_number":8,"cd":213026001,"memo":"公設","access":"ニュースプリングハイツ","addr_neighbourhood":"一丁目","addre_quarter":"中央林間","addr_city":"大和市","addr_province":"神奈川県","address":"大和市中央林間西一丁目８－６ ","id":"023-203-8","areaname":"北分署３管区","jurisdiction":"北分署","name_zh":"消防水箱","name_es":"cistermas","name_ja_hira":"ぼうかすいそう","name_ja":"防火水槽","name_ja_latn":"Bōkasuisō","name_en":"Watar Tank","name":"防火水槽","longitude":139.442015,"latitude":35.49953269}},{"type":"Feature","geometry":{"type":"Point","coordinates":[139.438011,35.494871]},"properties":{"cartodb_id":174,"addr_housenumber":3,"addr_block_number":23,"cd":213018008,"memo":"公設","access":"","addr_neighbourhood":"八丁目","addre_quarter":"南林間","addr_city":"大和市","addr_province":"神奈川県","address":"大和市南林間八丁目２３－３ ","id":"023-203-9","areaname":"北分署３管区","jurisdiction":"北分署","name_zh":"消防水箱","name_es":"cistermas","name_ja_hira":"ぼうかすいそう","name_ja":"防火水槽","name_ja_latn":"Bōkasuisō","name_en":"Watar Tank","name":"防火水槽","longitude":139.4380108,"latitude":35.49487079}},{"type":"Feature","geometry":{"type":"Point","coordinates":[139.439336,35.504466]},"properties":{"cartodb_id":175,"addr_housenumber":9,"addr_block_number":26,"cd":213026004,"memo":"公設","access":"グリーンハイツ","addr_neighbourhood":"四丁目","addre_quarter":"中央林間","addr_city":"大和市","addr_province":"神奈川県","address":"大和市中央林間西四丁目２６－９ ","id":"023-203-10","areaname":"北分署３管区","jurisdiction":"北分署","name_zh":"消防水箱","name_es":"cistermas","name_ja_hira":"ぼうかすいそう","name_ja":"防火水槽","name_ja_latn":"Bōkasuisō","name_en":"Watar Tank","name":"防火水槽","longitude":139.4393359,"latitude":35.50446561}},{"type":"Feature","geometry":{"type":"Point","coordinates":[139.442363,35.510882]},"properties":{"cartodb_id":176,"addr_housenumber":null,"addr_block_number":5,"cd":213010005,"memo":"公設","access":"中央林間２号公園","addr_neighbourhood":"五丁目","addre_quarter":"中央林間","addr_city":"大和市","addr_province":"神奈川県","address":"大和市中央林間五丁目５ ","id":"023-203-11","areaname":"北分署３管区","jurisdiction":"北分署","name_zh":"消防水箱","name_es":"cistermas","name_ja_hira":"ぼうかすいそう","name_ja":"防火水槽","name_ja_latn":"Bōkasuisō","name_en":"Watar Tank","name":"防火水槽","longitude":139.4423626,"latitude":35.51088207}},{"type":"Feature","geometry":{"type":"Point","coordinates":[139.446418,35.495384]},"properties":{"cartodb_id":177,"addr_housenumber":6,"addr_block_number":11,"cd":213018002,"memo":"公設","access":"洋菓子ボルドン","addr_neighbourhood":"二丁目","addre_quarter":"林間","addr_city":"大和市","addr_province":"神奈川県","address":"大和市南林間二丁目１１－６ ","id":"023-203-12","areaname":"北分署３管区","jurisdiction":"北分署","name_zh":"消防水箱","name_es":"cistermas","name_ja_hira":"ぼうかすいそう","name_ja":"防火水槽","name_ja_latn":"Bōkasuisō","name_en":"Watar Tank","name":"防火水槽","longitude":139.4464179,"latitude":35.49538394}},{"type":"Feature","geometry":{"type":"Point","coordinates":[139.432614,35.503999]},"properties":{"cartodb_id":178,"addr_housenumber":25,"addr_block_number":9,"cd":213026006,"memo":"公設","access":"","addr_neighbourhood":"六丁目","addre_quarter":"中央林間","addr_city":"大和市","addr_province":"神奈川県","address":"大和市中央林間西六丁目９－２５ ","id":"023-203-13","areaname":"北分署３管区","jurisdiction":"北分署","name_zh":"消防水箱","name_es":"cistermas","name_ja_hira":"ぼうかすいそう","name_ja":"防火水槽","name_ja_latn":"Bōkasuisō","name_en":"Watar Tank","name":"防火水槽","longitude":139.432614,"latitude":35.50399861}},{"type":"Feature","geometry":{"type":"Point","coordinates":[139.432522,35.503978]},"properties":{"cartodb_id":179,"addr_housenumber":7,"addr_block_number":10,"cd":213026006,"memo":"公設","access":"","addr_neighbourhood":"六丁目","addre_quarter":"中央林間","addr_city":"大和市","addr_province":"神奈川県","address":"大和市中央林間西六丁目１０－７ ","id":"023-203-14","areaname":"北分署３管区","jurisdiction":"北分署","name_zh":"消防水箱","name_es":"cistermas","name_ja_hira":"ぼうかすいそう","name_ja":"防火水槽","name_ja_latn":"Bōkasuisō","name_en":"Watar Tank","name":"防火水槽","longitude":139.4325223,"latitude":35.50397806}},{"type":"Feature","geometry":{"type":"Point","coordinates":[139.438152,35.503593]},"properties":{"cartodb_id":180,"addr_housenumber":null,"addr_block_number":11,"cd":213026004,"memo":"公設","access":"緑野緑地","addr_neighbourhood":"四丁目","addre_quarter":"中央林間","addr_city":"大和市","addr_province":"神奈川県","address":"大和市中央林間西四丁目１１ ","id":"023-203-15","areaname":"北分署３管区","jurisdiction":"北分署","name_zh":"消防水箱","name_es":"cistermas","name_ja_hira":"ぼうかすいそう","name_ja":"防火水槽","name_ja_latn":"Bōkasuisō","name_en":"Watar Tank","name":"防火水槽","longitude":139.4381524,"latitude":35.50359257}},{"type":"Feature","geometry":{"type":"Point","coordinates":[139.438215,35.503017]},"properties":{"cartodb_id":181,"addr_housenumber":null,"addr_block_number":3,"cd":213026005,"memo":"公設","access":"市立緑野小学校","addr_neighbourhood":"五丁目","addre_quarter":"中央林間","addr_city":"大和市","addr_province":"神奈川県","address":"大和市中央林間西五丁目３ ","id":"023-203-16","areaname":"北分署３管区","jurisdiction":"北分署","name_zh":"消防水箱","name_es":"cistermas","name_ja_hira":"ぼうかすいそう","name_ja":"防火水槽","name_ja_latn":"Bōkasuisō","name_en":"Watar Tank","name":"防火水槽","longitude":139.4382152,"latitude":35.50301717}},{"type":"Feature","geometry":{"type":"Point","coordinates":[139.437017,35.496906]},"properties":{"cartodb_id":182,"addr_housenumber":2,"addr_block_number":3,"cd":213018009,"memo":"公設","access":"市立南林間小学校","addr_neighbourhood":"九丁目","addre_quarter":"南林間","addr_city":"大和市","addr_province":"神奈川県","address":"大和市南林間九丁目３－２ ","id":"023-203-17","areaname":"北分署３管区","jurisdiction":"北分署","name_zh":"消防水箱","name_es":"cistermas","name_ja_hira":"ぼうかすいそう","name_ja":"防火水槽","name_ja_latn":"Bōkasuisō","name_en":"Watar Tank","name":"防火水槽","longitude":139.4370175,"latitude":35.49690556}},{"type":"Feature","geometry":{"type":"Point","coordinates":[139.439287,35.493137]},"properties":{"cartodb_id":183,"addr_housenumber":null,"addr_block_number":8,"cd":213018007,"memo":"公設","access":"南林間西北公園","addr_neighbourhood":"七丁目","addre_quarter":"南林間","addr_city":"大和市","addr_province":"神奈川県","address":"大和市南林間七丁目８ ","id":"023-203-18","areaname":"北分署３管区","jurisdiction":"北分署","name_zh":"消防水箱","name_es":"cistermas","name_ja_hira":"ぼうかすいそう","name_ja":"防火水槽","name_ja_latn":"Bōkasuisō","name_en":"Watar Tank","name":"防火水槽","longitude":139.4392874,"latitude":35.49313674}},{"type":"Feature","geometry":{"type":"Point","coordinates":[139.440657,35.510711]},"properties":{"cartodb_id":184,"addr_housenumber":13,"addr_block_number":5,"cd":213010005,"memo":"公設","access":"新生どんぐり公園","addr_neighbourhood":"五丁目","addre_quarter":"中央林間","addr_city":"大和市","addr_province":"神奈川県","address":"大和市中央林間五丁目５－１３ ","id":"023-203-19","areaname":"北分署３管区","jurisdiction":"北分署","name_zh":"消防水箱","name_es":"cistermas","name_ja_hira":"ぼうかすいそう","name_ja":"防火水槽","name_ja_latn":"Bōkasuisō","name_en":"Watar Tank","name":"防火水槽","longitude":139.4406569,"latitude":35.51071079}},{"type":"Feature","geometry":{"type":"Point","coordinates":[139.444255,35.495461]},"properties":{"cartodb_id":185,"addr_housenumber":null,"addr_block_number":19,"cd":213018002,"memo":"公設","access":"南林間中央公園","addr_neighbourhood":"二丁目","addre_quarter":"南林間","addr_city":"大和市","addr_province":"神奈川県","address":"大和市南林間二丁目１９ ","id":"023-203-20","areaname":"北分署３管区","jurisdiction":"北分署","name_zh":"消防水箱","name_es":"cistermas","name_ja_hira":"ぼうかすいそう","name_ja":"防火水槽","name_ja_latn":"Bōkasuisō","name_en":"Watar Tank","name":"防火水槽","longitude":139.444255,"latitude":35.49546067}},{"type":"Feature","geometry":{"type":"Point","coordinates":[139.433486,35.498262]},"properties":{"cartodb_id":186,"addr_housenumber":10,"addr_block_number":9,"cd":213026003,"memo":"公設","access":"テクノプラザ公園","addr_neighbourhood":"三丁目","addre_quarter":"中央林間","addr_city":"大和市","addr_province":"神奈川県","address":"大和市中央林間西三丁目９－１０ ","id":"023-203-21","areaname":"北分署３管区","jurisdiction":"北分署","name_zh":"消防水箱","name_es":"cistermas","name_ja_hira":"ぼうかすいそう","name_ja":"防火水槽","name_ja_latn":"Bōkasuisō","name_en":"Watar Tank","name":"防火水槽","longitude":139.4334863,"latitude":35.49826176}},{"type":"Feature","geometry":{"type":"Point","coordinates":[139.435359,35.504607]},"properties":{"cartodb_id":187,"addr_housenumber":null,"addr_block_number":25,"cd":213026005,"memo":"公設","access":"若葉公園内","addr_neighbourhood":"五丁目","addre_quarter":"中央林間","addr_city":"大和市","addr_province":"神奈川県","address":"大和市中央林間西五丁目２５ ","id":"023-203-22","areaname":"北分署３管区","jurisdiction":"北分署","name_zh":"消防水箱","name_es":"cistermas","name_ja_hira":"ぼうかすいそう","name_ja":"防火水槽","name_ja_latn":"Bōkasuisō","name_en":"Watar Tank","name":"防火水槽","longitude":139.4353593,"latitude":35.50460741}},{"type":"Feature","geometry":{"type":"Point","coordinates":[139.443679,35.501105]},"properties":{"cartodb_id":188,"addr_housenumber":1,"addr_block_number":4265,"cd":213010001,"memo":"公設","access":"やまぼうし公園内","addr_neighbourhood":"一丁目","addre_quarter":"中央林間","addr_city":"大和市","addr_province":"神奈川県","address":"大和市中央林間一丁目４２６５－１ ","id":"023-203-23","areaname":"北分署３管区","jurisdiction":"北分署","name_zh":"消防水箱","name_es":"cistermas","name_ja_hira":"ぼうかすいそう","name_ja":"防火水槽","name_ja_latn":"Bōkasuisō","name_en":"Watar Tank","name":"防火水槽","longitude":139.4436792,"latitude":35.50110468}},{"type":"Feature","geometry":{"type":"Point","coordinates":[139.438131,35.502238]},"properties":{"cartodb_id":189,"addr_housenumber":null,"addr_block_number":2,"cd":213026005,"memo":"公設","access":"コンツェルトパーク内","addr_neighbourhood":"五丁目","addre_quarter":"中央林間","addr_city":"大和市","addr_province":"神奈川県","address":"大和市中央林間西五丁目２ ","id":"023-203-24","areaname":"北分署３管区","jurisdiction":"北分署","name_zh":"消防水箱","name_es":"cistermas","name_ja_hira":"ぼうかすいそう","name_ja":"防火水槽","name_ja_latn":"Bōkasuisō","name_en":"Watar Tank","name":"防火水槽","longitude":139.4381313,"latitude":35.50223794}},{"type":"Feature","geometry":{"type":"Point","coordinates":[139.446702,35.497918]},"properties":{"cartodb_id":190,"addr_housenumber":1,"addr_block_number":4,"cd":213018002,"memo":"公設","access":"","addr_neighbourhood":"二丁目","addre_quarter":"南林間","addr_city":"大和市","addr_province":"神奈川県","address":"大和市南林間二丁目４－１ ","id":"023-203-25","areaname":"北分署３管区","jurisdiction":"北分署","name_zh":"消防水箱","name_es":"cistermas","name_ja_hira":"ぼうかすいそう","name_ja":"防火水槽","name_ja_latn":"Bōkasuisō","name_en":"Watar Tank","name":"防火水槽","longitude":139.4467022,"latitude":35.49791849}},{"type":"Feature","geometry":{"type":"Point","coordinates":[139.443307,35.50553]},"properties":{"cartodb_id":191,"addr_housenumber":25,"addr_block_number":3,"cd":213026003,"memo":"公設","access":"オアシスパーク","addr_neighbourhood":"三丁目","addre_quarter":"中央林間","addr_city":"大和市","addr_province":"神奈川県","address":"大和市中央林間西三丁目３－２５ ","id":"023-203-26","areaname":"北分署３管区","jurisdiction":"北分署","name_zh":"消防水箱","name_es":"cistermas","name_ja_hira":"ぼうかすいそう","name_ja":"防火水槽","name_ja_latn":"Bōkasuisō","name_en":"Watar Tank","name":"防火水槽","longitude":139.4433071,"latitude":35.50552959}},{"type":"Feature","geometry":{"type":"Point","coordinates":[139.43715,35.492802]},"properties":{"cartodb_id":192,"addr_housenumber":null,"addr_block_number":3679,"cd":213018007,"memo":"公設","access":"やすらぎの杜公園","addr_neighbourhood":"七丁目","addre_quarter":"南林間","addr_city":"大和市","addr_province":"神奈川県","address":"大和市南林間七丁目３６７９ ","id":"023-203-27","areaname":"北分署３管区","jurisdiction":"北分署","name_zh":"消防水箱","name_es":"cistermas","name_ja_hira":"ぼうかすいそう","name_ja":"防火水槽","name_ja_latn":"Bōkasuisō","name_en":"Watar Tank","name":"防火水槽","longitude":139.4371504,"latitude":35.49280162}},{"type":"Feature","geometry":{"type":"Point","coordinates":[139.437728,35.490346]},"properties":{"cartodb_id":193,"addr_housenumber":12,"addr_block_number":20,"cd":213018006,"memo":"公設","access":"","addr_neighbourhood":"六丁目","addre_quarter":"南林間","addr_city":"大和市","addr_province":"神奈川県","address":"大和市南林間六丁目２０－１２ ","id":"023-204-1","areaname":"北分署４管区","jurisdiction":"北分署","name_zh":"消防水箱","name_es":"cistermas","name_ja_hira":"ぼうかすいそう","name_ja":"防火水槽","name_ja_latn":"Bōkasuisō","name_en":"Watar Tank","name":"防火水槽","longitude":139.4377279,"latitude":35.49034637}},{"type":"Feature","geometry":{"type":"Point","coordinates":[139.450844,35.489834]},"properties":{"cartodb_id":194,"addr_housenumber":1,"addr_block_number":1,"cd":213013001,"memo":"公設","access":"小田急線鶴間駅西口","addr_neighbourhood":"一丁目","addre_quarter":"西鶴間","addr_city":"大和市","addr_province":"神奈川県","address":"大和市西鶴間一丁目１－１ ","id":"023-204-2","areaname":"北分署４管区","jurisdiction":"北分署","name_zh":"消防水箱","name_es":"cistermas","name_ja_hira":"ぼうかすいそう","name_ja":"防火水槽","name_ja_latn":"Bōkasuisō","name_en":"Watar Tank","name":"防火水槽","longitude":139.4508442,"latitude":35.48983408}},{"type":"Feature","geometry":{"type":"Point","coordinates":[139.43878,35.491609]},"properties":{"cartodb_id":195,"addr_housenumber":27,"addr_block_number":22,"cd":213018006,"memo":"公設","access":"","addr_neighbourhood":"六丁目","addre_quarter":"南林間","addr_city":"大和市","addr_province":"神奈川県","address":"大和市南林間六丁目２２－２７ ","id":"023-204-3","areaname":"北分署４管区","jurisdiction":"北分署","name_zh":"消防水箱","name_es":"cistermas","name_ja_hira":"ぼうかすいそう","name_ja":"防火水槽","name_ja_latn":"Bōkasuisō","name_en":"Watar Tank","name":"防火水槽","longitude":139.4387797,"latitude":35.49160853}},{"type":"Feature","geometry":{"type":"Point","coordinates":[139.439492,35.485053]},"properties":{"cartodb_id":196,"addr_housenumber":24,"addr_block_number":5,"cd":213013008,"memo":"公設","access":"","addr_neighbourhood":"八丁目","addre_quarter":"西鶴間","addr_city":"大和市","addr_province":"神奈川県","address":"大和市西鶴間八丁目５－２４ ","id":"023-204-4","areaname":"北分署４管区","jurisdiction":"北分署","name_zh":"消防水箱","name_es":"cistermas","name_ja_hira":"ぼうかすいそう","name_ja":"防火水槽","name_ja_latn":"Bōkasuisō","name_en":"Watar Tank","name":"防火水槽","longitude":139.4394924,"latitude":35.4850526}},{"type":"Feature","geometry":{"type":"Point","coordinates":[139.440979,35.48901]},"properties":{"cartodb_id":197,"addr_housenumber":null,"addr_block_number":8,"cd":213018006,"memo":"公設","access":"南林間２号児童公園","addr_neighbourhood":"六丁目","addre_quarter":"南林間","addr_city":"大和市","addr_province":"神奈川県","address":"大和市南林間六丁目８ ","id":"023-204-5","areaname":"北分署４管区","jurisdiction":"北分署","name_zh":"消防水箱","name_es":"cistermas","name_ja_hira":"ぼうかすいそう","name_ja":"防火水槽","name_ja_latn":"Bōkasuisō","name_en":"Watar Tank","name":"防火水槽","longitude":139.4409791,"latitude":35.48900995}},{"type":"Feature","geometry":{"type":"Point","coordinates":[139.447824,35.487597]},"properties":{"cartodb_id":198,"addr_housenumber":28,"addr_block_number":11,"cd":213013002,"memo":"公設","access":"ドルミ鶴間","addr_neighbourhood":"二丁目","addre_quarter":"西鶴間","addr_city":"大和市","addr_province":"神奈川県","address":"大和市西鶴間二丁目１１－２８ ","id":"023-204-6","areaname":"北分署４管区","jurisdiction":"北分署","name_zh":"消防水箱","name_es":"cistermas","name_ja_hira":"ぼうかすいそう","name_ja":"防火水槽","name_ja_latn":"Bōkasuisō","name_en":"Watar Tank","name":"防火水槽","longitude":139.4478242,"latitude":35.48759686}},{"type":"Feature","geometry":{"type":"Point","coordinates":[139.440639,35.487148]},"properties":{"cartodb_id":199,"addr_housenumber":14,"addr_block_number":28,"cd":213013006,"memo":"公設","access":"","addr_neighbourhood":"六丁目","addre_quarter":"西鶴間","addr_city":"大和市","addr_province":"神奈川県","address":"大和市西鶴間六丁目２８－１４ ","id":"023-204-7","areaname":"北分署４管区","jurisdiction":"北分署","name_zh":"消防水箱","name_es":"cistermas","name_ja_hira":"ぼうかすいそう","name_ja":"防火水槽","name_ja_latn":"Bōkasuisō","name_en":"Watar Tank","name":"防火水槽","longitude":139.4406389,"latitude":35.48714849}},{"type":"Feature","geometry":{"type":"Point","coordinates":[139.443052,35.492993]},"properties":{"cartodb_id":200,"addr_housenumber":24,"addr_block_number":15,"cd":213018004,"memo":"公設","access":"レオパレス南林間第３","addr_neighbourhood":"四丁目","addre_quarter":"南林間","addr_city":"大和市","addr_province":"神奈川県","address":"大和市南林間四丁目１５－２４ ","id":"023-204-8","areaname":"北分署４管区","jurisdiction":"北分署","name_zh":"消防水箱","name_es":"cistermas","name_ja_hira":"ぼうかすいそう","name_ja":"防火水槽","name_ja_latn":"Bōkasuisō","name_en":"Watar Tank","name":"防火水槽","longitude":139.4430524,"latitude":35.49299275}},{"type":"Feature","geometry":{"type":"Point","coordinates":[139.443396,35.489319]},"properties":{"cartodb_id":201,"addr_housenumber":20,"addr_block_number":11,"cd":213013006,"memo":"公設","access":"","addr_neighbourhood":"六丁目","addre_quarter":"西鶴間","addr_city":"大和市","addr_province":"神奈川県","address":"大和市西鶴間六丁目１１－２０ ","id":"023-204-9","areaname":"北分署４管区","jurisdiction":"北分署","name_zh":"消防水箱","name_es":"cistermas","name_ja_hira":"ぼうかすいそう","name_ja":"防火水槽","name_ja_latn":"Bōkasuisō","name_en":"Watar Tank","name":"防火水槽","longitude":139.4433961,"latitude":35.48931897}},{"type":"Feature","geometry":{"type":"Point","coordinates":[139.445246,35.487049]},"properties":{"cartodb_id":202,"addr_housenumber":null,"addr_block_number":26,"cd":213013002,"memo":"公設","access":"コ－ポ下鶴間２号棟","addr_neighbourhood":"二丁目","addre_quarter":"西鶴間","addr_city":"大和市","addr_province":"神奈川県","address":"大和市西鶴間二丁目２６ ","id":"023-204-10","areaname":"北分署４管区","jurisdiction":"北分署","name_zh":"消防水箱","name_es":"cistermas","name_ja_hira":"ぼうかすいそう","name_ja":"防火水槽","name_ja_latn":"Bōkasuisō","name_en":"Watar Tank","name":"防火水槽","longitude":139.4452461,"latitude":35.48704924}},{"type":"Feature","geometry":{"type":"Point","coordinates":[139.445928,35.492649]},"properties":{"cartodb_id":203,"addr_housenumber":11,"addr_block_number":15,"cd":213018001,"memo":"公設","access":"岩崎理容室","addr_neighbourhood":"一丁目","addre_quarter":"南林間","addr_city":"大和市","addr_province":"神奈川県","address":"大和市南林間一丁目１５－１１ ","id":"023-204-11","areaname":"北分署４管区","jurisdiction":"北分署","name_zh":"消防水箱","name_es":"cistermas","name_ja_hira":"ぼうかすいそう","name_ja":"防火水槽","name_ja_latn":"Bōkasuisō","name_en":"Watar Tank","name":"防火水槽","longitude":139.4459283,"latitude":35.49264941}},{"type":"Feature","geometry":{"type":"Point","coordinates":[139.439739,35.484893]},"properties":{"cartodb_id":204,"addr_housenumber":null,"addr_block_number":4,"cd":213013008,"memo":"公設","access":"間島石材作業場","addr_neighbourhood":"八丁目","addre_quarter":"西鶴間","addr_city":"大和市","addr_province":"神奈川県","address":"大和市西鶴間八丁目４ ","id":"023-204-12","areaname":"北分署４管区","jurisdiction":"北分署","name_zh":"消防水箱","name_es":"cistermas","name_ja_hira":"ぼうかすいそう","name_ja":"防火水槽","name_ja_latn":"Bōkasuisō","name_en":"Watar Tank","name":"防火水槽","longitude":139.4397391,"latitude":35.48489319}},{"type":"Feature","geometry":{"type":"Point","coordinates":[139.446792,35.488338]},"properties":{"cartodb_id":205,"addr_housenumber":8,"addr_block_number":11,"cd":213013002,"memo":"公設","access":"","addr_neighbourhood":"二丁目","addre_quarter":"西鶴間","addr_city":"大和市","addr_province":"神奈川県","address":"大和市西鶴間二丁目１１－８ ","id":"023-204-13","areaname":"北分署４管区","jurisdiction":"北分署","name_zh":"消防水箱","name_es":"cistermas","name_ja_hira":"ぼうかすいそう","name_ja":"防火水槽","name_ja_latn":"Bōkasuisō","name_en":"Watar Tank","name":"防火水槽","longitude":139.4467917,"latitude":35.48833775}},{"type":"Feature","geometry":{"type":"Point","coordinates":[139.438714,35.487259]},"properties":{"cartodb_id":206,"addr_housenumber":13,"addr_block_number":7,"cd":213013007,"memo":"公設","access":"","addr_neighbourhood":"七丁目","addre_quarter":"西鶴間","addr_city":"大和市","addr_province":"神奈川県","address":"大和市西鶴間七丁目７－１３ ","id":"023-204-14","areaname":"北分署４管区","jurisdiction":"北分署","name_zh":"消防水箱","name_es":"cistermas","name_ja_hira":"ぼうかすいそう","name_ja":"防火水槽","name_ja_latn":"Bōkasuisō","name_en":"Watar Tank","name":"防火水槽","longitude":139.4387138,"latitude":35.48725934}},{"type":"Feature","geometry":{"type":"Point","coordinates":[139.442751,35.489651]},"properties":{"cartodb_id":207,"addr_housenumber":13,"addr_block_number":11,"cd":213013006,"memo":"公設","access":"","addr_neighbourhood":"六丁目","addre_quarter":"西鶴間","addr_city":"大和市","addr_province":"神奈川県","address":"大和市西鶴間六丁目１１－１３ ","id":"023-204-15","areaname":"北分署４管区","jurisdiction":"北分署","name_zh":"消防水箱","name_es":"cistermas","name_ja_hira":"ぼうかすいそう","name_ja":"防火水槽","name_ja_latn":"Bōkasuisō","name_en":"Watar Tank","name":"防火水槽","longitude":139.4427509,"latitude":35.4896514}},{"type":"Feature","geometry":{"type":"Point","coordinates":[139.444555,35.486426]},"properties":{"cartodb_id":208,"addr_housenumber":1,"addr_block_number":1,"cd":213013006,"memo":"公設","access":"ガスト大和鶴間店","addr_neighbourhood":"六丁目","addre_quarter":"西鶴間","addr_city":"大和市","addr_province":"神奈川県","address":"大和市西鶴間六丁目１－１ ","id":"023-204-16","areaname":"北分署４管区","jurisdiction":"北分署","name_zh":"消防水箱","name_es":"cistermas","name_ja_hira":"ぼうかすいそう","name_ja":"防火水槽","name_ja_latn":"Bōkasuisō","name_en":"Watar Tank","name":"防火水槽","longitude":139.4445545,"latitude":35.48642553}},{"type":"Feature","geometry":{"type":"Point","coordinates":[139.444499,35.488915]},"properties":{"cartodb_id":209,"addr_housenumber":null,"addr_block_number":18,"cd":213013002,"memo":"公設","access":"","addr_neighbourhood":"二丁目","addre_quarter":"西鶴間","addr_city":"大和市","addr_province":"神奈川県","address":"大和市西鶴間二丁目１８ ","id":"023-204-17","areaname":"北分署４管区","jurisdiction":"北分署","name_zh":"消防水箱","name_es":"cistermas","name_ja_hira":"ぼうかすいそう","name_ja":"防火水槽","name_ja_latn":"Bōkasuisō","name_en":"Watar Tank","name":"防火水槽","longitude":139.4444988,"latitude":35.48891488}},{"type":"Feature","geometry":{"type":"Point","coordinates":[139.444352,35.488545]},"properties":{"cartodb_id":210,"addr_housenumber":null,"addr_block_number":25,"cd":213013002,"memo":"公設","access":"西鶴間４号公園","addr_neighbourhood":"二丁目","addre_quarter":"西鶴間","addr_city":"大和市","addr_province":"神奈川県","address":"大和市西鶴間二丁目２５ ","id":"023-204-18","areaname":"北分署４管区","jurisdiction":"北分署","name_zh":"消防水箱","name_es":"cistermas","name_ja_hira":"ぼうかすいそう","name_ja":"防火水槽","name_ja_latn":"Bōkasuisō","name_en":"Watar Tank","name":"防火水槽","longitude":139.4443519,"latitude":35.48854526}},{"type":"Feature","geometry":{"type":"Point","coordinates":[139.441295,35.490627]},"properties":{"cartodb_id":211,"addr_housenumber":null,"addr_block_number":6,"cd":213018006,"memo":"公設","access":"南林間１号公園","addr_neighbourhood":"六丁目","addre_quarter":"南林間","addr_city":"大和市","addr_province":"神奈川県","address":"大和市南林間六丁目６ ","id":"023-204-19","areaname":"北分署４管区","jurisdiction":"北分署","name_zh":"消防水箱","name_es":"cistermas","name_ja_hira":"ぼうかすいそう","name_ja":"防火水槽","name_ja_latn":"Bōkasuisō","name_en":"Watar Tank","name":"防火水槽","longitude":139.4412949,"latitude":35.49062731}},{"type":"Feature","geometry":{"type":"Point","coordinates":[139.446457,35.487673]},"properties":{"cartodb_id":212,"addr_housenumber":null,"addr_block_number":26,"cd":213013002,"memo":"公設","access":"西鶴間２号公園","addr_neighbourhood":"二丁目","addre_quarter":"西鶴間","addr_city":"大和市","addr_province":"神奈川県","address":"大和市西鶴間二丁目２６ ","id":"023-204-20","areaname":"北分署４管区","jurisdiction":"北分署","name_zh":"消防水箱","name_es":"cistermas","name_ja_hira":"ぼうかすいそう","name_ja":"防火水槽","name_ja_latn":"Bōkasuisō","name_en":"Watar Tank","name":"防火水槽","longitude":139.4464565,"latitude":35.48767321}},{"type":"Feature","geometry":{"type":"Point","coordinates":[139.439751,35.487413]},"properties":{"cartodb_id":213,"addr_housenumber":null,"addr_block_number":7,"cd":213013007,"memo":"公設","access":"西鶴間７丁目児童公園","addr_neighbourhood":"七丁目","addre_quarter":"西鶴間","addr_city":"大和市","addr_province":"神奈川県","address":"大和市西鶴間七丁目７ ","id":"023-204-21","areaname":"北分署４管区","jurisdiction":"北分署","name_zh":"消防水箱","name_es":"cistermas","name_ja_hira":"ぼうかすいそう","name_ja":"防火水槽","name_ja_latn":"Bōkasuisō","name_en":"Watar Tank","name":"防火水槽","longitude":139.4397515,"latitude":35.48741261}},{"type":"Feature","geometry":{"type":"Point","coordinates":[139.447761,35.491144]},"properties":{"cartodb_id":214,"addr_housenumber":null,"addr_block_number":24,"cd":213013001,"memo":"公設","access":"西鶴間１丁目公園","addr_neighbourhood":"一丁目","addre_quarter":"西鶴間","addr_city":"大和市","addr_province":"神奈川県","address":"大和市西鶴間一丁目２４ ","id":"023-204-22","areaname":"北分署４管区","jurisdiction":"北分署","name_zh":"消防水箱","name_es":"cistermas","name_ja_hira":"ぼうかすいそう","name_ja":"防火水槽","name_ja_latn":"Bōkasuisō","name_en":"Watar Tank","name":"防火水槽","longitude":139.4477607,"latitude":35.49114396}},{"type":"Feature","geometry":{"type":"Point","coordinates":[139.441302,35.48558]},"properties":{"cartodb_id":215,"addr_housenumber":null,"addr_block_number":24,"cd":213013006,"memo":"公設","access":"西鶴間６丁目２号児童公園","addr_neighbourhood":"六丁目","addre_quarter":"西鶴間","addr_city":"大和市","addr_province":"神奈川県","address":"大和市西鶴間六丁目２４ ","id":"023-204-23","areaname":"北分署４管区","jurisdiction":"北分署","name_zh":"消防水箱","name_es":"cistermas","name_ja_hira":"ぼうかすいそう","name_ja":"防火水槽","name_ja_latn":"Bōkasuisō","name_en":"Watar Tank","name":"防火水槽","longitude":139.4413017,"latitude":35.48558023}},{"type":"Feature","geometry":{"type":"Point","coordinates":[139.438853,35.489809]},"properties":{"cartodb_id":216,"addr_housenumber":null,"addr_block_number":17,"cd":213018006,"memo":"公設","access":"南林間６丁目児童遊園","addr_neighbourhood":"六丁目","addre_quarter":"南林間","addr_city":"大和市","addr_province":"神奈川県","address":"大和市南林間六丁目１７ ","id":"023-204-24","areaname":"北分署４管区","jurisdiction":"北分署","name_zh":"消防水箱","name_es":"cistermas","name_ja_hira":"ぼうかすいそう","name_ja":"防火水槽","name_ja_latn":"Bōkasuisō","name_en":"Watar Tank","name":"防火水槽","longitude":139.4388529,"latitude":35.48980925}},{"type":"Feature","geometry":{"type":"Point","coordinates":[139.444576,35.488987]},"properties":{"cartodb_id":217,"addr_housenumber":null,"addr_block_number":18,"cd":213013002,"memo":"公設","access":"西鶴間５号公園","addr_neighbourhood":"二丁目","addre_quarter":"西鶴間","addr_city":"大和市","addr_province":"神奈川県","address":"大和市西鶴間二丁目１８ ","id":"023-204-25","areaname":"北分署４管区","jurisdiction":"北分署","name_zh":"消防水箱","name_es":"cistermas","name_ja_hira":"ぼうかすいそう","name_ja":"防火水槽","name_ja_latn":"Bōkasuisō","name_en":"Watar Tank","name":"防火水槽","longitude":139.4445755,"latitude":35.48898681}},{"type":"Feature","geometry":{"type":"Point","coordinates":[139.444443,35.491964]},"properties":{"cartodb_id":218,"addr_housenumber":null,"addr_block_number":9,"cd":213018004,"memo":"公設","access":"南林間４丁目公園","addr_neighbourhood":"四丁目","addre_quarter":"南林間","addr_city":"大和市","addr_province":"神奈川県","address":"大和市南林間四丁目９ ","id":"023-204-26","areaname":"北分署４管区","jurisdiction":"北分署","name_zh":"消防水箱","name_es":"cistermas","name_ja_hira":"ぼうかすいそう","name_ja":"防火水槽","name_ja_latn":"Bōkasuisō","name_en":"Watar Tank","name":"防火水槽","longitude":139.4444432,"latitude":35.49196409}},{"type":"Feature","geometry":{"type":"Point","coordinates":[139.447617,35.489563]},"properties":{"cartodb_id":219,"addr_housenumber":null,"addr_block_number":4,"cd":213013002,"memo":"公設","access":"西鶴間２丁目公園","addr_neighbourhood":"二丁目","addre_quarter":"西鶴間","addr_city":"大和市","addr_province":"神奈川県","address":"大和市西鶴間二丁目４ ","id":"023-204-27","areaname":"北分署４管区","jurisdiction":"北分署","name_zh":"消防水箱","name_es":"cistermas","name_ja_hira":"ぼうかすいそう","name_ja":"防火水槽","name_ja_latn":"Bōkasuisō","name_en":"Watar Tank","name":"防火水槽","longitude":139.4476169,"latitude":35.48956327}},{"type":"Feature","geometry":{"type":"Point","coordinates":[139.468718,35.463299]},"properties":{"cartodb_id":220,"addr_housenumber":null,"addr_block_number":3539,"cd":213014000,"memo":"公設","access":"","addr_neighbourhood":"","addre_quarter":"深見","addr_city":"大和市","addr_province":"神奈川県","address":"大和市深見３５３９ ","id":"024-301-1","areaname":"南分署１管区","jurisdiction":"南分署","name_zh":"消防水箱","name_es":"cistermas","name_ja_hira":"ぼうかすいそう","name_ja":"防火水槽","name_ja_latn":"Bōkasuisō","name_en":"Watar Tank","name":"防火水槽","longitude":139.4687179,"latitude":35.46329895}},{"type":"Feature","geometry":{"type":"Point","coordinates":[139.467566,35.462012]},"properties":{"cartodb_id":221,"addr_housenumber":null,"addr_block_number":3919,"cd":213014000,"memo":"公設","access":"細田産業㈱大和営業所 (作業用品)","addr_neighbourhood":"","addre_quarter":"深見","addr_city":"大和市","addr_province":"神奈川県","address":"大和市深見３９１９ ","id":"024-301-2","areaname":"南分署１管区","jurisdiction":"南分署","name_zh":"消防水箱","name_es":"cistermas","name_ja_hira":"ぼうかすいそう","name_ja":"防火水槽","name_ja_latn":"Bōkasuisō","name_en":"Watar Tank","name":"防火水槽","longitude":139.4675658,"latitude":35.4620119}},{"type":"Feature","geometry":{"type":"Point","coordinates":[139.471217,35.461479]},"properties":{"cartodb_id":222,"addr_housenumber":null,"addr_block_number":3707,"cd":213014000,"memo":"公設","access":"かしま１号公園","addr_neighbourhood":"","addre_quarter":"深見","addr_city":"大和市","addr_province":"神奈川県","address":"大和市深見３７０７ ","id":"024-301-3","areaname":"南分署１管区","jurisdiction":"南分署","name_zh":"消防水箱","name_es":"cistermas","name_ja_hira":"ぼうかすいそう","name_ja":"防火水槽","name_ja_latn":"Bōkasuisō","name_en":"Watar Tank","name":"防火水槽","longitude":139.4712168,"latitude":35.46147903}},{"type":"Feature","geometry":{"type":"Point","coordinates":[139.468308,35.452417]},"properties":{"cartodb_id":223,"addr_housenumber":null,"addr_block_number":832,"cd":213002000,"memo":"公設","access":"市立桜ヶ丘小学校","addr_neighbourhood":"","addre_quarter":"上和田","addr_city":"大和市","addr_province":"神奈川県","address":"大和市上和田８３２ ","id":"024-301-4","areaname":"南分署１管区","jurisdiction":"南分署","name_zh":"消防水箱","name_es":"cistermas","name_ja_hira":"ぼうかすいそう","name_ja":"防火水槽","name_ja_latn":"Bōkasuisō","name_en":"Watar Tank","name":"防火水槽","longitude":139.4683083,"latitude":35.45241718}},{"type":"Feature","geometry":{"type":"Point","coordinates":[139.466992,35.450634]},"properties":{"cartodb_id":224,"addr_housenumber":null,"addr_block_number":958,"cd":213002000,"memo":"公設","access":"金比羅神社","addr_neighbourhood":"","addre_quarter":"上和田","addr_city":"大和市","addr_province":"神奈川県","address":"大和市上和田９５８ ","id":"024-301-5","areaname":"南分署１管区","jurisdiction":"南分署","name_zh":"消防水箱","name_es":"cistermas","name_ja_hira":"ぼうかすいそう","name_ja":"防火水槽","name_ja_latn":"Bōkasuisō","name_en":"Watar Tank","name":"防火水槽","longitude":139.466992,"latitude":35.45063404}},{"type":"Feature","geometry":{"type":"Point","coordinates":[139.467637,35.449522]},"properties":{"cartodb_id":225,"addr_housenumber":null,"addr_block_number":987,"cd":213002000,"memo":"公設","access":"桜ヶ丘交差点 (467号線)","addr_neighbourhood":"","addre_quarter":"上和田","addr_city":"大和市","addr_province":"神奈川県","address":"大和市上和田９８７ ","id":"024-301-6","areaname":"南分署１管区","jurisdiction":"南分署","name_zh":"消防水箱","name_es":"cistermas","name_ja_hira":"ぼうかすいそう","name_ja":"防火水槽","name_ja_latn":"Bōkasuisō","name_en":"Watar Tank","name":"防火水槽","longitude":139.467637,"latitude":35.44952173}},{"type":"Feature","geometry":{"type":"Point","coordinates":[139.477992,35.448394]},"properties":{"cartodb_id":226,"addr_housenumber":1,"addr_block_number":1480,"cd":213002000,"memo":"公設","access":"宮久保２号公園","addr_neighbourhood":"","addre_quarter":"上和田","addr_city":"大和市","addr_province":"神奈川県","address":"大和市上和田１４８０－１ ","id":"024-301-7","areaname":"南分署１管区","jurisdiction":"南分署","name_zh":"消防水箱","name_es":"cistermas","name_ja_hira":"ぼうかすいそう","name_ja":"防火水槽","name_ja_latn":"Bōkasuisō","name_en":"Watar Tank","name":"防火水槽","longitude":139.4779922,"latitude":35.44839434}},{"type":"Feature","geometry":{"type":"Point","coordinates":[139.473445,35.441509]},"properties":{"cartodb_id":228,"addr_housenumber":null,"addr_block_number":2577,"cd":213002000,"memo":"公設","access":"","addr_neighbourhood":"","addre_quarter":"上和田","addr_city":"大和市","addr_province":"神奈川県","address":"大和市上和田２５７７ ","id":"024-301-9","areaname":"南分署１管区","jurisdiction":"南分署","name_zh":"消防水箱","name_es":"cistermas","name_ja_hira":"ぼうかすいそう","name_ja":"防火水槽","name_ja_latn":"Bōkasuisō","name_en":"Watar Tank","name":"防火水槽","longitude":139.4734448,"latitude":35.44150853}},{"type":"Feature","geometry":{"type":"Point","coordinates":[139.469418,35.44953]},"properties":{"cartodb_id":229,"addr_housenumber":null,"addr_block_number":1720,"cd":213002000,"memo":"公設","access":"","addr_neighbourhood":"","addre_quarter":"上和田","addr_city":"大和市","addr_province":"神奈川県","address":"大和市上和田１７２０ ","id":"024-301-10","areaname":"南分署１管区","jurisdiction":"南分署","name_zh":"消防水箱","name_es":"cistermas","name_ja_hira":"ぼうかすいそう","name_ja":"防火水槽","name_ja_latn":"Bōkasuisō","name_en":"Watar Tank","name":"防火水槽","longitude":139.4694176,"latitude":35.44952959}},{"type":"Feature","geometry":{"type":"Point","coordinates":[139.471782,35.448434]},"properties":{"cartodb_id":230,"addr_housenumber":null,"addr_block_number":1663,"cd":213002000,"memo":"公設","access":"宝幸水産㈱･ロルフ大和工場","addr_neighbourhood":"","addre_quarter":"上和田","addr_city":"大和市","addr_province":"神奈川県","address":"大和市上和田１６６３ ","id":"024-301-11","areaname":"南分署１管区","jurisdiction":"南分署","name_zh":"消防水箱","name_es":"cistermas","name_ja_hira":"ぼうかすいそう","name_ja":"防火水槽","name_ja_latn":"Bōkasuisō","name_en":"Watar Tank","name":"防火水槽","longitude":139.471782,"latitude":35.44843433}},{"type":"Feature","geometry":{"type":"Point","coordinates":[139.466513,35.444725]},"properties":{"cartodb_id":231,"addr_housenumber":null,"addr_block_number":2589,"cd":213016000,"memo":"公設","access":"コ－プかながわ・福田店","addr_neighbourhood":"","addre_quarter":"福田","addr_city":"大和市","addr_province":"神奈川県","address":"大和市福田２５８９ ","id":"024-301-12","areaname":"南分署１管区","jurisdiction":"南分署","name_zh":"消防水箱","name_es":"cistermas","name_ja_hira":"ぼうかすいそう","name_ja":"防火水槽","name_ja_latn":"Bōkasuisō","name_en":"Watar Tank","name":"防火水槽","longitude":139.4665131,"latitude":35.44472456}},{"type":"Feature","geometry":{"type":"Point","coordinates":[139.474104,35.447043]},"properties":{"cartodb_id":232,"addr_housenumber":null,"addr_block_number":2077,"cd":213002000,"memo":"公設","access":"鹿島建設㈱・東門","addr_neighbourhood":"","addre_quarter":"上和田","addr_city":"大和市","addr_province":"神奈川県","address":"大和市上和田２０７７ ","id":"024-301-13","areaname":"南分署１管区","jurisdiction":"南分署","name_zh":"消防水箱","name_es":"cistermas","name_ja_hira":"ぼうかすいそう","name_ja":"防火水槽","name_ja_latn":"Bōkasuisō","name_en":"Watar Tank","name":"防火水槽","longitude":139.4741041,"latitude":35.44704343}},{"type":"Feature","geometry":{"type":"Point","coordinates":[139.46674,35.454507]},"properties":{"cartodb_id":233,"addr_housenumber":18,"addr_block_number":5676,"cd":213016000,"memo":"公設","access":"山口住設","addr_neighbourhood":"","addre_quarter":"福田","addr_city":"大和市","addr_province":"神奈川県","address":"大和市福田５６７６－１８ ","id":"024-301-14","areaname":"南分署１管区","jurisdiction":"南分署","name_zh":"消防水箱","name_es":"cistermas","name_ja_hira":"ぼうかすいそう","name_ja":"防火水槽","name_ja_latn":"Bōkasuisō","name_en":"Watar Tank","name":"防火水槽","longitude":139.4667405,"latitude":35.45450737}},{"type":"Feature","geometry":{"type":"Point","coordinates":[139.470807,35.462376]},"properties":{"cartodb_id":234,"addr_housenumber":5,"addr_block_number":3614,"cd":213014000,"memo":"公設","access":"","addr_neighbourhood":"","addre_quarter":"深見","addr_city":"大和市","addr_province":"神奈川県","address":"大和市深見３６１４－５ ","id":"024-301-15","areaname":"南分署１管区","jurisdiction":"南分署","name_zh":"消防水箱","name_es":"cistermas","name_ja_hira":"ぼうかすいそう","name_ja":"防火水槽","name_ja_latn":"Bōkasuisō","name_en":"Watar Tank","name":"防火水槽","longitude":139.470807,"latitude":35.46237582}},{"type":"Feature","geometry":{"type":"Point","coordinates":[139.474174,35.452076]},"properties":{"cartodb_id":235,"addr_housenumber":1,"addr_block_number":1191,"cd":213002000,"memo":"公設","access":"第１０分団３班","addr_neighbourhood":"","addre_quarter":"上和田","addr_city":"大和市","addr_province":"神奈川県","address":"大和市上和田１１９１－１ ","id":"024-301-16","areaname":"南分署１管区","jurisdiction":"南分署","name_zh":"消防水箱","name_es":"cistermas","name_ja_hira":"ぼうかすいそう","name_ja":"防火水槽","name_ja_latn":"Bōkasuisō","name_en":"Watar Tank","name":"防火水槽","longitude":139.4741737,"latitude":35.45207602}},{"type":"Feature","geometry":{"type":"Point","coordinates":[139.478483,35.44457]},"properties":{"cartodb_id":236,"addr_housenumber":33,"addr_block_number":2153,"cd":213002000,"memo":"公設","access":"","addr_neighbourhood":"","addre_quarter":"上和田","addr_city":"大和市","addr_province":"神奈川県","address":"大和市上和田２１５３－３３ ","id":"024-301-17","areaname":"南分署１管区","jurisdiction":"南分署","name_zh":"消防水箱","name_es":"cistermas","name_ja_hira":"ぼうかすいそう","name_ja":"防火水槽","name_ja_latn":"Bōkasuisō","name_en":"Watar Tank","name":"防火水槽","longitude":139.4784834,"latitude":35.44457042}},{"type":"Feature","geometry":{"type":"Point","coordinates":[139.468959,35.451738]},"properties":{"cartodb_id":237,"addr_housenumber":4,"addr_block_number":930,"cd":213002000,"memo":"公設","access":"朝倉","addr_neighbourhood":"","addre_quarter":"上和田","addr_city":"大和市","addr_province":"神奈川県","address":"大和市上和田９３０－４ ","id":"024-301-18","areaname":"南分署１管区","jurisdiction":"南分署","name_zh":"消防水箱","name_es":"cistermas","name_ja_hira":"ぼうかすいそう","name_ja":"防火水槽","name_ja_latn":"Bōkasuisō","name_en":"Watar Tank","name":"防火水槽","longitude":139.4689591,"latitude":35.45173759}},{"type":"Feature","geometry":{"type":"Point","coordinates":[139.467507,35.44366]},"properties":{"cartodb_id":238,"addr_housenumber":19,"addr_block_number":1824,"cd":213002000,"memo":"公設","access":"日本通運㈱大和支店","addr_neighbourhood":"","addre_quarter":"上和田","addr_city":"大和市","addr_province":"神奈川県","address":"大和市上和田１８２４－１９ ","id":"024-301-19","areaname":"南分署１管区","jurisdiction":"南分署","name_zh":"消防水箱","name_es":"cistermas","name_ja_hira":"ぼうかすいそう","name_ja":"防火水槽","name_ja_latn":"Bōkasuisō","name_en":"Watar Tank","name":"防火水槽","longitude":139.4675067,"latitude":35.44366001}},{"type":"Feature","geometry":{"type":"Point","coordinates":[139.477526,35.451674]},"properties":{"cartodb_id":239,"addr_housenumber":null,"addr_block_number":1251,"cd":213002000,"memo":"公設","access":"宮久保１号公園","addr_neighbourhood":"","addre_quarter":"上和田","addr_city":"大和市","addr_province":"神奈川県","address":"大和市上和田１２５１ ","id":"024-301-20","areaname":"南分署１管区","jurisdiction":"南分署","name_zh":"消防水箱","name_es":"cistermas","name_ja_hira":"ぼうかすいそう","name_ja":"防火水槽","name_ja_latn":"Bōkasuisō","name_en":"Watar Tank","name":"防火水槽","longitude":139.4775263,"latitude":35.45167444}},{"type":"Feature","geometry":{"type":"Point","coordinates":[139.467449,35.451089]},"properties":{"cartodb_id":240,"addr_housenumber":5,"addr_block_number":947,"cd":213002000,"memo":"公設","access":"第１０分団１班","addr_neighbourhood":"","addre_quarter":"上和田","addr_city":"大和市","addr_province":"神奈川県","address":"大和市上和田９４７－５ ","id":"024-301-21","areaname":"南分署１管区","jurisdiction":"南分署","name_zh":"消防水箱","name_es":"cistermas","name_ja_hira":"ぼうかすいそう","name_ja":"防火水槽","name_ja_latn":"Bōkasuisō","name_en":"Watar Tank","name":"防火水槽","longitude":139.4674487,"latitude":35.45108872}},{"type":"Feature","geometry":{"type":"Point","coordinates":[139.474078,35.456165]},"properties":{"cartodb_id":241,"addr_housenumber":null,"addr_block_number":433,"cd":213002000,"memo":"公設","access":"新道１号公園","addr_neighbourhood":"","addre_quarter":"上和田","addr_city":"大和市","addr_province":"神奈川県","address":"大和市上和田４３３ ","id":"024-301-22","areaname":"南分署１管区","jurisdiction":"南分署","name_zh":"消防水箱","name_es":"cistermas","name_ja_hira":"ぼうかすいそう","name_ja":"防火水槽","name_ja_latn":"Bōkasuisō","name_en":"Watar Tank","name":"防火水槽","longitude":139.4740782,"latitude":35.45616487}},{"type":"Feature","geometry":{"type":"Point","coordinates":[139.47271,35.453803]},"properties":{"cartodb_id":242,"addr_housenumber":null,"addr_block_number":804,"cd":213002000,"memo":"公設","access":"久田自治会館","addr_neighbourhood":"","addre_quarter":"上和田","addr_city":"大和市","addr_province":"神奈川県","address":"大和市上和田８０４ ","id":"024-301-23","areaname":"南分署１管区","jurisdiction":"南分署","name_zh":"消防水箱","name_es":"cistermas","name_ja_hira":"ぼうかすいそう","name_ja":"防火水槽","name_ja_latn":"Bōkasuisō","name_en":"Watar Tank","name":"防火水槽","longitude":139.4727095,"latitude":35.45380326}},{"type":"Feature","geometry":{"type":"Point","coordinates":[139.473071,35.459417]},"properties":{"cartodb_id":243,"addr_housenumber":null,"addr_block_number":191,"cd":213002000,"memo":"公設","access":"かしま３号公園","addr_neighbourhood":"","addre_quarter":"上和田","addr_city":"大和市","addr_province":"神奈川県","address":"大和市上和田１９１ ","id":"024-301-24","areaname":"南分署１管区","jurisdiction":"南分署","name_zh":"消防水箱","name_es":"cistermas","name_ja_hira":"ぼうかすいそう","name_ja":"防火水槽","name_ja_latn":"Bōkasuisō","name_en":"Watar Tank","name":"防火水槽","longitude":139.4730712,"latitude":35.45941688}},{"type":"Feature","geometry":{"type":"Point","coordinates":[139.466274,35.462011]},"properties":{"cartodb_id":244,"addr_housenumber":2,"addr_block_number":3927,"cd":213014000,"memo":"公設","access":"なかよし公園","addr_neighbourhood":"","addre_quarter":"深見","addr_city":"大和市","addr_province":"神奈川県","address":"大和市深見３９２７－２ ","id":"024-301-25","areaname":"南分署１管区","jurisdiction":"南分署","name_zh":"消防水箱","name_es":"cistermas","name_ja_hira":"ぼうかすいそう","name_ja":"防火水槽","name_ja_latn":"Bōkasuisō","name_en":"Watar Tank","name":"防火水槽","longitude":139.4662736,"latitude":35.46201131}},{"type":"Feature","geometry":{"type":"Point","coordinates":[139.479561,35.447514]},"properties":{"cartodb_id":245,"addr_housenumber":null,"addr_block_number":1323,"cd":213002000,"memo":"公設","access":"上和田宮久保造成地","addr_neighbourhood":"","addre_quarter":"上和田","addr_city":"大和市","addr_province":"神奈川県","address":"大和市上和田１３２３ ","id":"024-301-26","areaname":"南分署１管区","jurisdiction":"南分署","name_zh":"消防水箱","name_es":"cistermas","name_ja_hira":"ぼうかすいそう","name_ja":"防火水槽","name_ja_latn":"Bōkasuisō","name_en":"Watar Tank","name":"防火水槽","longitude":139.4795615,"latitude":35.44751363}},{"type":"Feature","geometry":{"type":"Point","coordinates":[139.469457,35.433991]},"properties":{"cartodb_id":246,"addr_housenumber":null,"addr_block_number":1291,"cd":213006000,"memo":"公設","access":"コ－ポコトブキ","addr_neighbourhood":"","addre_quarter":"下和田","addr_city":"大和市","addr_province":"神奈川県","address":"大和市下和田１２９１ ","id":"024-302-1","areaname":"南分署２管区","jurisdiction":"南分署","name_zh":"消防水箱","name_es":"cistermas","name_ja_hira":"ぼうかすいそう","name_ja":"防火水槽","name_ja_latn":"Bōkasuisō","name_en":"Watar Tank","name":"防火水槽","longitude":139.4694567,"latitude":35.43399142}},{"type":"Feature","geometry":{"type":"Point","coordinates":[139.467507,35.430559]},"properties":{"cartodb_id":247,"addr_housenumber":null,"addr_block_number":929,"cd":213006000,"memo":"公設","access":"渋谷５号公園（予定地）","addr_neighbourhood":"","addre_quarter":"下和田","addr_city":"大和市","addr_province":"神奈川県","address":"大和市下和田９２９ ","id":"024-302-2","areaname":"南分署２管区","jurisdiction":"南分署","name_zh":"消防水箱","name_es":"cistermas","name_ja_hira":"ぼうかすいそう","name_ja":"防火水槽","name_ja_latn":"Bōkasuisō","name_en":"Watar Tank","name":"防火水槽","longitude":139.4675068,"latitude":35.43055922}},{"type":"Feature","geometry":{"type":"Point","coordinates":[139.471127,35.435606]},"properties":{"cartodb_id":248,"addr_housenumber":1,"addr_block_number":3324,"cd":213002000,"memo":"公設","access":"","addr_neighbourhood":"","addre_quarter":"上和田","addr_city":"大和市","addr_province":"神奈川県","address":"大和市上和田３３２４－１ ","id":"024-302-4","areaname":"南分署２管区","jurisdiction":"南分署","name_zh":"消防水箱","name_es":"cistermas","name_ja_hira":"ぼうかすいそう","name_ja":"防火水槽","name_ja_latn":"Bōkasuisō","name_en":"Watar Tank","name":"防火水槽","longitude":139.4711275,"latitude":35.43560604}},{"type":"Feature","geometry":{"type":"Point","coordinates":[139.465501,35.437412]},"properties":{"cartodb_id":249,"addr_housenumber":null,"addr_block_number":9,"cd":213025001,"memo":"公設","access":"","addr_neighbourhood":"一丁目","addre_quarter":"渋谷","addr_city":"大和市","addr_province":"神奈川県","address":"大和市渋谷一丁目９ ","id":"024-302-5","areaname":"南分署２管区","jurisdiction":"南分署","name_zh":"消防水箱","name_es":"cistermas","name_ja_hira":"ぼうかすいそう","name_ja":"防火水槽","name_ja_latn":"Bōkasuisō","name_en":"Watar Tank","name":"防火水槽","longitude":139.465501,"latitude":35.43741198}},{"type":"Feature","geometry":{"type":"Point","coordinates":[139.466739,35.427868]},"properties":{"cartodb_id":250,"addr_housenumber":null,"addr_block_number":893,"cd":213006000,"memo":"公設","access":"","addr_neighbourhood":"","addre_quarter":"下和田","addr_city":"大和市","addr_province":"神奈川県","address":"大和市下和田８９３ ","id":"024-302-6","areaname":"南分署２管区","jurisdiction":"南分署","name_zh":"消防水箱","name_es":"cistermas","name_ja_hira":"ぼうかすいそう","name_ja":"防火水槽","name_ja_latn":"Bōkasuisō","name_en":"Watar Tank","name":"防火水槽","longitude":139.4667388,"latitude":35.4278681}},{"type":"Feature","geometry":{"type":"Point","coordinates":[139.465923,35.440644]},"properties":{"cartodb_id":251,"addr_housenumber":null,"addr_block_number":2364,"cd":213016000,"memo":"公設","access":"日神パレステ-ジ桜ヶ丘 ポケットパ-ク","addr_neighbourhood":"","addre_quarter":"福田","addr_city":"大和市","addr_province":"神奈川県","address":"大和市福田２３６４ ","id":"024-302-7","areaname":"南分署２管区","jurisdiction":"南分署","name_zh":"消防水箱","name_es":"cistermas","name_ja_hira":"ぼうかすいそう","name_ja":"防火水槽","name_ja_latn":"Bōkasuisō","name_en":"Watar Tank","name":"防火水槽","longitude":139.4659234,"latitude":35.44064386}},{"type":"Feature","geometry":{"type":"Point","coordinates":[139.46637,35.433872]},"properties":{"cartodb_id":252,"addr_housenumber":78,"addr_block_number":1211,"cd":213006000,"memo":"公設","access":"渋谷６号公園","addr_neighbourhood":"","addre_quarter":"下和田","addr_city":"大和市","addr_province":"神奈川県","address":"大和市下和田１２１１ 78街区","id":"024-302-9","areaname":"南分署２管区","jurisdiction":"南分署","name_zh":"消防水箱","name_es":"cistermas","name_ja_hira":"ぼうかすいそう","name_ja":"防火水槽","name_ja_latn":"Bōkasuisō","name_en":"Watar Tank","name":"防火水槽","longitude":139.4663696,"latitude":35.43387186}},{"type":"Feature","geometry":{"type":"Point","coordinates":[139.470944,35.425138]},"properties":{"cartodb_id":253,"addr_housenumber":null,"addr_block_number":262,"cd":213006000,"memo":"公設","access":"いちょう団地59号棟","addr_neighbourhood":"","addre_quarter":"下和田","addr_city":"大和市","addr_province":"神奈川県","address":"大和市下和田２６２ ","id":"024-302-10","areaname":"南分署２管区","jurisdiction":"南分署","name_zh":"消防水箱","name_es":"cistermas","name_ja_hira":"ぼうかすいそう","name_ja":"防火水槽","name_ja_latn":"Bōkasuisō","name_en":"Watar Tank","name":"防火水槽","longitude":139.4709437,"latitude":35.42513774}},{"type":"Feature","geometry":{"type":"Point","coordinates":[139.470165,35.429203]},"properties":{"cartodb_id":254,"addr_housenumber":null,"addr_block_number":1087,"cd":213006000,"memo":"公設","access":"","addr_neighbourhood":"","addre_quarter":"下和田","addr_city":"大和市","addr_province":"神奈川県","address":"大和市下和田１０８７ ","id":"024-302-11","areaname":"南分署２管区","jurisdiction":"南分署","name_zh":"消防水箱","name_es":"cistermas","name_ja_hira":"ぼうかすいそう","name_ja":"防火水槽","name_ja_latn":"Bōkasuisō","name_en":"Watar Tank","name":"防火水槽","longitude":139.4701653,"latitude":35.42920253}},{"type":"Feature","geometry":{"type":"Point","coordinates":[139.470516,35.440704]},"properties":{"cartodb_id":255,"addr_housenumber":null,"addr_block_number":2695,"cd":213002000,"memo":"公設","access":"市立上和田小学校","addr_neighbourhood":"","addre_quarter":"上和田","addr_city":"大和市","addr_province":"神奈川県","address":"大和市上和田２６９５ ","id":"024-302-12","areaname":"南分署２管区","jurisdiction":"南分署","name_zh":"消防水箱","name_es":"cistermas","name_ja_hira":"ぼうかすいそう","name_ja":"防火水槽","name_ja_latn":"Bōkasuisō","name_en":"Watar Tank","name":"防火水槽","longitude":139.4705161,"latitude":35.4407041}},{"type":"Feature","geometry":{"type":"Point","coordinates":[139.465753,35.439187]},"properties":{"cartodb_id":256,"addr_housenumber":null,"addr_block_number":14,"cd":213025001,"memo":"公設","access":"旭ヶ丘１号公園","addr_neighbourhood":"一丁目","addre_quarter":"渋谷","addr_city":"大和市","addr_province":"神奈川県","address":"大和市渋谷一丁目１４ ","id":"024-302-13","areaname":"南分署２管区","jurisdiction":"南分署","name_zh":"消防水箱","name_es":"cistermas","name_ja_hira":"ぼうかすいそう","name_ja":"防火水槽","name_ja_latn":"Bōkasuisō","name_en":"Watar Tank","name":"防火水槽","longitude":139.4657526,"latitude":35.43918735}},{"type":"Feature","geometry":{"type":"Point","coordinates":[139.472722,35.42964]},"properties":{"cartodb_id":257,"addr_housenumber":null,"addr_block_number":262,"cd":213006000,"memo":"公設","access":"いちょう団地２号公園","addr_neighbourhood":"","addre_quarter":"下和田","addr_city":"大和市","addr_province":"神奈川県","address":"大和市下和田２６２ ","id":"024-302-14","areaname":"南分署２管区","jurisdiction":"南分署","name_zh":"消防水箱","name_es":"cistermas","name_ja_hira":"ぼうかすいそう","name_ja":"防火水槽","name_ja_latn":"Bōkasuisō","name_en":"Watar Tank","name":"防火水槽","longitude":139.4727222,"latitude":35.42964006}},{"type":"Feature","geometry":{"type":"Point","coordinates":[139.471527,35.425708]},"properties":{"cartodb_id":258,"addr_housenumber":null,"addr_block_number":262,"cd":213006000,"memo":"公設","access":"いちょう団地１号公園","addr_neighbourhood":"","addre_quarter":"下和田","addr_city":"大和市","addr_province":"神奈川県","address":"大和市下和田２６２ ","id":"024-302-15","areaname":"南分署２管区","jurisdiction":"南分署","name_zh":"消防水箱","name_es":"cistermas","name_ja_hira":"ぼうかすいそう","name_ja":"防火水槽","name_ja_latn":"Bōkasuisō","name_en":"Watar Tank","name":"防火水槽","longitude":139.4715273,"latitude":35.4257077}},{"type":"Feature","geometry":{"type":"Point","coordinates":[139.472531,35.430525]},"properties":{"cartodb_id":259,"addr_housenumber":null,"addr_block_number":49,"cd":213006000,"memo":"公設","access":"市立渋谷中学校","addr_neighbourhood":"","addre_quarter":"下和田","addr_city":"大和市","addr_province":"神奈川県","address":"大和市下和田４９ ","id":"024-302-16","areaname":"南分署２管区","jurisdiction":"南分署","name_zh":"消防水箱","name_es":"cistermas","name_ja_hira":"ぼうかすいそう","name_ja":"防火水槽","name_ja_latn":"Bōkasuisō","name_en":"Watar Tank","name":"防火水槽","longitude":139.4725305,"latitude":35.43052468}},{"type":"Feature","geometry":{"type":"Point","coordinates":[139.469117,35.437125]},"properties":{"cartodb_id":260,"addr_housenumber":1,"addr_block_number":3467,"cd":213002000,"memo":"公設","access":"上和田ひまわり公園","addr_neighbourhood":"","addre_quarter":"上和田","addr_city":"大和市","addr_province":"神奈川県","address":"大和市上和田３４６７－１ ","id":"024-302-17","areaname":"南分署２管区","jurisdiction":"南分署","name_zh":"消防水箱","name_es":"cistermas","name_ja_hira":"ぼうかすいそう","name_ja":"防火水槽","name_ja_latn":"Bōkasuisō","name_en":"Watar Tank","name":"防火水槽","longitude":139.4691173,"latitude":35.43712496}},{"type":"Feature","geometry":{"type":"Point","coordinates":[139.465949,35.436249]},"properties":{"cartodb_id":261,"addr_housenumber":null,"addr_block_number":1,"cd":213025006,"memo":"公設","access":"大和南ハイツ","addr_neighbourhood":"六丁目","addre_quarter":"渋谷","addr_city":"大和市","addr_province":"神奈川県","address":"大和市渋谷六丁目１ ","id":"024-302-18","areaname":"南分署２管区","jurisdiction":"南分署","name_zh":"消防水箱","name_es":"cistermas","name_ja_hira":"ぼうかすいそう","name_ja":"防火水槽","name_ja_latn":"Bōkasuisō","name_en":"Watar Tank","name":"防火水槽","longitude":139.4659491,"latitude":35.43624852}},{"type":"Feature","geometry":{"type":"Point","coordinates":[139.460896,35.458686]},"properties":{"cartodb_id":262,"addr_housenumber":8,"addr_block_number":7,"cd":213019004,"memo":"公設","access":"共同電気㈱","addr_neighbourhood":"四丁目","addre_quarter":"柳橘","addr_city":"大和市","addr_province":"神奈川県","address":"大和市柳橋四丁目７－８ ","id":"024-303-1","areaname":"南分署３管区","jurisdiction":"南分署","name_zh":"消防水箱","name_es":"cistermas","name_ja_hira":"ぼうかすいそう","name_ja":"防火水槽","name_ja_latn":"Bōkasuisō","name_en":"Watar Tank","name":"防火水槽","longitude":139.4608956,"latitude":35.4586863}},{"type":"Feature","geometry":{"type":"Point","coordinates":[139.464647,35.458255]},"properties":{"cartodb_id":263,"addr_housenumber":8,"addr_block_number":4,"cd":213019002,"memo":"公設","access":"","addr_neighbourhood":"二丁目","addre_quarter":"柳橘","addr_city":"大和市","addr_province":"神奈川県","address":"大和市柳橋二丁目４－８ ","id":"024-303-2","areaname":"南分署３管区","jurisdiction":"南分署","name_zh":"消防水箱","name_es":"cistermas","name_ja_hira":"ぼうかすいそう","name_ja":"防火水槽","name_ja_latn":"Bōkasuisō","name_en":"Watar Tank","name":"防火水槽","longitude":139.4646471,"latitude":35.4582551}},{"type":"Feature","geometry":{"type":"Point","coordinates":[139.463409,35.454504]},"properties":{"cartodb_id":264,"addr_housenumber":1,"addr_block_number":26,"cd":213019003,"memo":"公設","access":"県営ハイム桜ヶ丘5号棟 西","addr_neighbourhood":"三丁目","addre_quarter":"柳橘","addr_city":"大和市","addr_province":"神奈川県","address":"大和市柳橋三丁目２６－１ ","id":"024-303-3","areaname":"南分署３管区","jurisdiction":"南分署","name_zh":"消防水箱","name_es":"cistermas","name_ja_hira":"ぼうかすいそう","name_ja":"防火水槽","name_ja_latn":"Bōkasuisō","name_en":"Watar Tank","name":"防火水槽","longitude":139.4634092,"latitude":35.45450389}},{"type":"Feature","geometry":{"type":"Point","coordinates":[139.465113,35.45547]},"properties":{"cartodb_id":265,"addr_housenumber":8,"addr_block_number":2,"cd":213019003,"memo":"公設","access":"小田急桜ヶ丘マンションA棟","addr_neighbourhood":"三丁目","addre_quarter":"柳橘","addr_city":"大和市","addr_province":"神奈川県","address":"大和市柳橋三丁目２－８ ","id":"024-303-4","areaname":"南分署３管区","jurisdiction":"南分署","name_zh":"消防水箱","name_es":"cistermas","name_ja_hira":"ぼうかすいそう","name_ja":"防火水槽","name_ja_latn":"Bōkasuisō","name_en":"Watar Tank","name":"防火水槽","longitude":139.465113,"latitude":35.45547022}},{"type":"Feature","geometry":{"type":"Point","coordinates":[139.46611,35.459393]},"properties":{"cartodb_id":266,"addr_housenumber":null,"addr_block_number":11,"cd":213019001,"memo":"公設","access":"柳橋２号公園","addr_neighbourhood":"一丁目","addre_quarter":"柳橘","addr_city":"大和市","addr_province":"神奈川県","address":"大和市柳橋一丁目１１ ","id":"024-303-5","areaname":"南分署３管区","jurisdiction":"南分署","name_zh":"消防水箱","name_es":"cistermas","name_ja_hira":"ぼうかすいそう","name_ja":"防火水槽","name_ja_latn":"Bōkasuisō","name_en":"Watar Tank","name":"防火水槽","longitude":139.4661104,"latitude":35.45939306}},{"type":"Feature","geometry":{"type":"Point","coordinates":[139.461082,35.456902]},"properties":{"cartodb_id":267,"addr_housenumber":null,"addr_block_number":5000,"cd":213019004,"memo":"公設","access":"引地台公園（北側ロータリー）","addr_neighbourhood":"四丁目","addre_quarter":"柳橘","addr_city":"大和市","addr_province":"神奈川県","address":"大和市柳橋四丁目５０００ ","id":"024-303-6","areaname":"南分署３管区","jurisdiction":"南分署","name_zh":"消防水箱","name_es":"cistermas","name_ja_hira":"ぼうかすいそう","name_ja":"防火水槽","name_ja_latn":"Bōkasuisō","name_en":"Watar Tank","name":"防火水槽","longitude":139.4610823,"latitude":35.45690154}},{"type":"Feature","geometry":{"type":"Point","coordinates":[139.463255,35.456586]},"properties":{"cartodb_id":268,"addr_housenumber":1,"addr_block_number":12,"cd":213019002,"memo":"公設","access":"コミセン柳橋会館","addr_neighbourhood":"二丁目","addre_quarter":"柳橘","addr_city":"大和市","addr_province":"神奈川県","address":"大和市柳橋二丁目１２－１ ","id":"024-303-7","areaname":"南分署３管区","jurisdiction":"南分署","name_zh":"消防水箱","name_es":"cistermas","name_ja_hira":"ぼうかすいそう","name_ja":"防火水槽","name_ja_latn":"Bōkasuisō","name_en":"Watar Tank","name":"防火水槽","longitude":139.4632553,"latitude":35.45658638}},{"type":"Feature","geometry":{"type":"Point","coordinates":[139.46319,35.459743]},"properties":{"cartodb_id":269,"addr_housenumber":null,"addr_block_number":18,"cd":213019001,"memo":"公設","access":"柳橋３号公園","addr_neighbourhood":"一丁目","addre_quarter":"柳橘","addr_city":"大和市","addr_province":"神奈川県","address":"大和市柳橋一丁目１８ ","id":"024-303-8","areaname":"南分署３管区","jurisdiction":"南分署","name_zh":"消防水箱","name_es":"cistermas","name_ja_hira":"ぼうかすいそう","name_ja":"防火水槽","name_ja_latn":"Bōkasuisō","name_en":"Watar Tank","name":"防火水槽","longitude":139.4631896,"latitude":35.45974319}},{"type":"Feature","geometry":{"type":"Point","coordinates":[139.459893,35.45437]},"properties":{"cartodb_id":270,"addr_housenumber":null,"addr_block_number":5000,"cd":213019004,"memo":"公設","access":"引地台公園","addr_neighbourhood":"四丁目","addre_quarter":"柳橘","addr_city":"大和市","addr_province":"神奈川県","address":"大和市柳橋四丁目５０００ ","id":"024-303-9","areaname":"南分署３管区","jurisdiction":"南分署","name_zh":"消防水箱","name_es":"cistermas","name_ja_hira":"ぼうかすいそう","name_ja":"防火水槽","name_ja_latn":"Bōkasuisō","name_en":"Watar Tank","name":"防火水槽","longitude":139.4598932,"latitude":35.45436959}},{"type":"Feature","geometry":{"type":"Point","coordinates":[139.462152,35.450256]},"properties":{"cartodb_id":271,"addr_housenumber":null,"addr_block_number":33,"cd":213016002,"memo":"公設","access":"富士見橋公園","addr_neighbourhood":"二丁目","addre_quarter":"福田","addr_city":"大和市","addr_province":"神奈川県","address":"大和市福田二丁目３３ ","id":"024-303-10","areaname":"南分署３管区","jurisdiction":"南分署","name_zh":"消防水箱","name_es":"cistermas","name_ja_hira":"ぼうかすいそう","name_ja":"防火水槽","name_ja_latn":"Bōkasuisō","name_en":"Watar Tank","name":"防火水槽","longitude":139.4621524,"latitude":35.45025606}},{"type":"Feature","geometry":{"type":"Point","coordinates":[139.464225,35.453407]},"properties":{"cartodb_id":272,"addr_housenumber":5,"addr_block_number":16,"cd":213019003,"memo":"公設","access":"県営ハイム桜ヶ丘４号棟","addr_neighbourhood":"三丁目","addre_quarter":"柳橘","addr_city":"大和市","addr_province":"神奈川県","address":"大和市柳橋三丁目１６－５ ","id":"024-303-11","areaname":"南分署３管区","jurisdiction":"南分署","name_zh":"消防水箱","name_es":"cistermas","name_ja_hira":"ぼうかすいそう","name_ja":"防火水槽","name_ja_latn":"Bōkasuisō","name_en":"Watar Tank","name":"防火水槽","longitude":139.464225,"latitude":35.45340657}},{"type":"Feature","geometry":{"type":"Point","coordinates":[139.465146,35.452554]},"properties":{"cartodb_id":273,"addr_housenumber":7,"addr_block_number":14,"cd":213019003,"memo":"公設","access":"県営ハイム桜ヶ丘１号棟","addr_neighbourhood":"三丁目","addre_quarter":"柳橘","addr_city":"大和市","addr_province":"神奈川県","address":"大和市柳橋三丁目１４－７ ","id":"024-303-12","areaname":"南分署３管区","jurisdiction":"南分署","name_zh":"消防水箱","name_es":"cistermas","name_ja_hira":"ぼうかすいそう","name_ja":"防火水槽","name_ja_latn":"Bōkasuisō","name_en":"Watar Tank","name":"防火水槽","longitude":139.4651456,"latitude":35.45255423}},{"type":"Feature","geometry":{"type":"Point","coordinates":[139.463571,35.454777]},"properties":{"cartodb_id":274,"addr_housenumber":5,"addr_block_number":18,"cd":213019003,"memo":"公設","access":"県営ハイム桜ヶ丘5号棟 北","addr_neighbourhood":"三丁目","addre_quarter":"柳橘","addr_city":"大和市","addr_province":"神奈川県","address":"大和市柳橋三丁目１８－５ ","id":"024-303-13","areaname":"南分署３管区","jurisdiction":"南分署","name_zh":"消防水箱","name_es":"cistermas","name_ja_hira":"ぼうかすいそう","name_ja":"防火水槽","name_ja_latn":"Bōkasuisō","name_en":"Watar Tank","name":"防火水槽","longitude":139.4635711,"latitude":35.45477747}},{"type":"Feature","geometry":{"type":"Point","coordinates":[139.458885,35.458614]},"properties":{"cartodb_id":275,"addr_housenumber":1,"addr_block_number":4,"cd":213007003,"memo":"公設","access":"草柳５号公園","addr_neighbourhood":"三丁目","addre_quarter":"草柳","addr_city":"大和市","addr_province":"神奈川県","address":"大和市草柳三丁目４－１ ","id":"024-303-14","areaname":"南分署３管区","jurisdiction":"南分署","name_zh":"消防水箱","name_es":"cistermas","name_ja_hira":"ぼうかすいそう","name_ja":"防火水槽","name_ja_latn":"Bōkasuisō","name_en":"Watar Tank","name":"防火水槽","longitude":139.4588845,"latitude":35.45861373}},{"type":"Feature","geometry":{"type":"Point","coordinates":[139.463574,35.455502]},"properties":{"cartodb_id":276,"addr_housenumber":4,"addr_block_number":19,"cd":213019003,"memo":"公設","access":"県営ハイム桜ヶ丘７号棟","addr_neighbourhood":"三丁目","addre_quarter":"柳橘","addr_city":"大和市","addr_province":"神奈川県","address":"大和市柳橋三丁目１９－４ ","id":"024-303-15","areaname":"南分署３管区","jurisdiction":"南分署","name_zh":"消防水箱","name_es":"cistermas","name_ja_hira":"ぼうかすいそう","name_ja":"防火水槽","name_ja_latn":"Bōkasuisō","name_en":"Watar Tank","name":"防火水槽","longitude":139.4635739,"latitude":35.45550154}},{"type":"Feature","geometry":{"type":"Point","coordinates":[139.462973,35.458918]},"properties":{"cartodb_id":277,"addr_housenumber":null,"addr_block_number":20,"cd":213019002,"memo":"公設","access":"","addr_neighbourhood":"二丁目","addre_quarter":"柳橘","addr_city":"大和市","addr_province":"神奈川県","address":"大和市柳橋二丁目２０ ","id":"024-303-16","areaname":"南分署３管区","jurisdiction":"南分署","name_zh":"消防水箱","name_es":"cistermas","name_ja_hira":"ぼうかすいそう","name_ja":"防火水槽","name_ja_latn":"Bōkasuisō","name_en":"Watar Tank","name":"防火水槽","longitude":139.462973,"latitude":35.45891773}},{"type":"Feature","geometry":{"type":"Point","coordinates":[139.45768,35.450728]},"properties":{"cartodb_id":278,"addr_housenumber":1,"addr_block_number":32,"cd":213016007,"memo":"公設","access":"モアステ-ジ桜ヶ丘 外記屋敷公園","addr_neighbourhood":"七丁目","addre_quarter":"福田","addr_city":"大和市","addr_province":"神奈川県","address":"大和市福田七丁目３２－１ ","id":"024-303-17","areaname":"南分署３管区","jurisdiction":"南分署","name_zh":"消防水箱","name_es":"cistermas","name_ja_hira":"ぼうかすいそう","name_ja":"防火水槽","name_ja_latn":"Bōkasuisō","name_en":"Watar Tank","name":"防火水槽","longitude":139.45768,"latitude":35.45072825}},{"type":"Feature","geometry":{"type":"Point","coordinates":[139.463315,35.453131]},"properties":{"cartodb_id":279,"addr_housenumber":7,"addr_block_number":26,"cd":213019003,"memo":"公設","access":"県営ハイム桜ヶ丘９号棟","addr_neighbourhood":"三丁目","addre_quarter":"柳橘","addr_city":"大和市","addr_province":"神奈川県","address":"大和市柳橋三丁目２６－７ ","id":"024-303-18","areaname":"南分署３管区","jurisdiction":"南分署","name_zh":"消防水箱","name_es":"cistermas","name_ja_hira":"ぼうかすいそう","name_ja":"防火水槽","name_ja_latn":"Bōkasuisō","name_en":"Watar Tank","name":"防火水槽","longitude":139.4633151,"latitude":35.45313129}},{"type":"Feature","geometry":{"type":"Point","coordinates":[139.461913,35.455302]},"properties":{"cartodb_id":280,"addr_housenumber":null,"addr_block_number":31,"cd":213019003,"memo":"公設","access":"青葉公園","addr_neighbourhood":"三丁目","addre_quarter":"柳橘","addr_city":"大和市","addr_province":"神奈川県","address":"大和市柳橋三丁目３１ ","id":"024-303-19","areaname":"南分署３管区","jurisdiction":"南分署","name_zh":"消防水箱","name_es":"cistermas","name_ja_hira":"ぼうかすいそう","name_ja":"防火水槽","name_ja_latn":"Bōkasuisō","name_en":"Watar Tank","name":"防火水槽","longitude":139.4619126,"latitude":35.45530178}},{"type":"Feature","geometry":{"type":"Point","coordinates":[139.45709,35.453498]},"properties":{"cartodb_id":281,"addr_housenumber":4,"addr_block_number":5,"cd":213019005,"memo":"公設","access":"山王山公園","addr_neighbourhood":"五丁目","addre_quarter":"柳橘","addr_city":"大和市","addr_province":"神奈川県","address":"大和市柳橋五丁目５－４ ","id":"024-303-20","areaname":"南分署３管区","jurisdiction":"南分署","name_zh":"消防水箱","name_es":"cistermas","name_ja_hira":"ぼうかすいそう","name_ja":"防火水槽","name_ja_latn":"Bōkasuisō","name_en":"Watar Tank","name":"防火水槽","longitude":139.4570902,"latitude":35.45349785}},{"type":"Feature","geometry":{"type":"Point","coordinates":[139.459584,35.447778]},"properties":{"cartodb_id":282,"addr_housenumber":1,"addr_block_number":38,"cd":213016007,"memo":"公設","access":"御嶽山公園","addr_neighbourhood":"七丁目","addre_quarter":"福田","addr_city":"大和市","addr_province":"神奈川県","address":"大和市福田七丁目３８－１ ","id":"024-303-21","areaname":"南分署３管区","jurisdiction":"南分署","name_zh":"消防水箱","name_es":"cistermas","name_ja_hira":"ぼうかすいそう","name_ja":"防火水槽","name_ja_latn":"Bōkasuisō","name_en":"Watar Tank","name":"防火水槽","longitude":139.4595837,"latitude":35.44777848}},{"type":"Feature","geometry":{"type":"Point","coordinates":[139.464299,35.456076]},"properties":{"cartodb_id":283,"addr_housenumber":4,"addr_block_number":10,"cd":213019002,"memo":"公設","access":"県営ハイム桜ヶ丘８号棟","addr_neighbourhood":"二丁目","addre_quarter":"柳橘","addr_city":"大和市","addr_province":"神奈川県","address":"大和市柳橋二丁目１０－４ ","id":"024-303-22","areaname":"南分署３管区","jurisdiction":"南分署","name_zh":"消防水箱","name_es":"cistermas","name_ja_hira":"ぼうかすいそう","name_ja":"防火水槽","name_ja_latn":"Bōkasuisō","name_en":"Watar Tank","name":"防火水槽","longitude":139.4642986,"latitude":35.45607622}},{"type":"Feature","geometry":{"type":"Point","coordinates":[139.462602,35.454184]},"properties":{"cartodb_id":284,"addr_housenumber":9,"addr_block_number":26,"cd":213019003,"memo":"公設","access":"県営ハイム桜ヶ丘１６号棟","addr_neighbourhood":"三丁目","addre_quarter":"柳橘","addr_city":"大和市","addr_province":"神奈川県","address":"大和市柳橋三丁目２６－９ ","id":"024-303-23","areaname":"南分署３管区","jurisdiction":"南分署","name_zh":"消防水箱","name_es":"cistermas","name_ja_hira":"ぼうかすいそう","name_ja":"防火水槽","name_ja_latn":"Bōkasuisō","name_en":"Watar Tank","name":"防火水槽","longitude":139.4626017,"latitude":35.45418418}},{"type":"Feature","geometry":{"type":"Point","coordinates":[139.461579,35.452506]},"properties":{"cartodb_id":285,"addr_housenumber":1,"addr_block_number":8,"cd":213016008,"memo":"公設","access":"宮ノ下公園","addr_neighbourhood":"八丁目","addre_quarter":"福田","addr_city":"大和市","addr_province":"神奈川県","address":"大和市福田八丁目８－１ ","id":"024-303-24","areaname":"南分署３管区","jurisdiction":"南分署","name_zh":"消防水箱","name_es":"cistermas","name_ja_hira":"ぼうかすいそう","name_ja":"防火水槽","name_ja_latn":"Bōkasuisō","name_en":"Watar Tank","name":"防火水槽","longitude":139.4615788,"latitude":35.45250574}},{"type":"Feature","geometry":{"type":"Point","coordinates":[139.459477,35.443107]},"properties":{"cartodb_id":286,"addr_housenumber":1,"addr_block_number":14,"cd":213008001,"memo":"公設","access":"日建工業㈱","addr_neighbourhood":"一丁目","addre_quarter":"代官","addr_city":"大和市","addr_province":"神奈川県","address":"大和市代官一丁目１４－１ ","id":"024-304-1","areaname":"南分署４管区","jurisdiction":"南分署","name_zh":"消防水箱","name_es":"cistermas","name_ja_hira":"ぼうかすいそう","name_ja":"防火水槽","name_ja_latn":"Bōkasuisō","name_en":"Watar Tank","name":"防火水槽","longitude":139.4594774,"latitude":35.44310739}},{"type":"Feature","geometry":{"type":"Point","coordinates":[139.456776,35.438761]},"properties":{"cartodb_id":287,"addr_housenumber":1,"addr_block_number":11,"cd":213008004,"memo":"公設","access":"","addr_neighbourhood":"四丁目","addre_quarter":"代官","addr_city":"大和市","addr_province":"神奈川県","address":"大和市代官四丁目１１－１ ","id":"024-304-2","areaname":"南分署４管区","jurisdiction":"南分署","name_zh":"消防水箱","name_es":"cistermas","name_ja_hira":"ぼうかすいそう","name_ja":"防火水槽","name_ja_latn":"Bōkasuisō","name_en":"Watar Tank","name":"防火水槽","longitude":139.4567763,"latitude":35.43876084}},{"type":"Feature","geometry":{"type":"Point","coordinates":[139.463168,35.439219]},"properties":{"cartodb_id":288,"addr_housenumber":1,"addr_block_number":27,"cd":213025002,"memo":"公設","access":"レオパレス・エムス","addr_neighbourhood":"二丁目","addre_quarter":"渋谷","addr_city":"大和市","addr_province":"神奈川県","address":"大和市渋谷二丁目２７－１ ","id":"024-304-3","areaname":"南分署４管区","jurisdiction":"南分署","name_zh":"消防水箱","name_es":"cistermas","name_ja_hira":"ぼうかすいそう","name_ja":"防火水槽","name_ja_latn":"Bōkasuisō","name_en":"Watar Tank","name":"防火水槽","longitude":139.463168,"latitude":35.43921916}},{"type":"Feature","geometry":{"type":"Point","coordinates":[139.462325,35.433132]},"properties":{"cartodb_id":289,"addr_housenumber":2,"addr_block_number":1986,"cd":213016000,"memo":"公設","access":"渋谷３号公園","addr_neighbourhood":"","addre_quarter":"福田","addr_city":"大和市","addr_province":"神奈川県","address":"大和市福田１９８６－２ ","id":"024-304-4","areaname":"南分署４管区","jurisdiction":"南分署","name_zh":"消防水箱","name_es":"cistermas","name_ja_hira":"ぼうかすいそう","name_ja":"防火水槽","name_ja_latn":"Bōkasuisō","name_en":"Watar Tank","name":"防火水槽","longitude":139.4623251,"latitude":35.43313177}},{"type":"Feature","geometry":{"type":"Point","coordinates":[139.46415,35.425784]},"properties":{"cartodb_id":290,"addr_housenumber":null,"addr_block_number":1607,"cd":213016000,"memo":"公設","access":"ヤマザキショップ","addr_neighbourhood":"","addre_quarter":"福田","addr_city":"大和市","addr_province":"神奈川県","address":"大和市福田１６０７ ","id":"024-304-6","areaname":"南分署４管区","jurisdiction":"南分署","name_zh":"消防水箱","name_es":"cistermas","name_ja_hira":"ぼうかすいそう","name_ja":"防火水槽","name_ja_latn":"Bōkasuisō","name_en":"Watar Tank","name":"防火水槽","longitude":139.4641496,"latitude":35.42578352}},{"type":"Feature","geometry":{"type":"Point","coordinates":[139.453719,35.434993]},"properties":{"cartodb_id":291,"addr_housenumber":null,"addr_block_number":4036,"cd":213016000,"memo":"公設","access":"島村工務店","addr_neighbourhood":"","addre_quarter":"福田","addr_city":"大和市","addr_province":"神奈川県","address":"大和市福田４０３６ ","id":"024-304-7","areaname":"南分署４管区","jurisdiction":"南分署","name_zh":"消防水箱","name_es":"cistermas","name_ja_hira":"ぼうかすいそう","name_ja":"防火水槽","name_ja_latn":"Bōkasuisō","name_en":"Watar Tank","name":"防火水槽","longitude":139.4537193,"latitude":35.43499283}},{"type":"Feature","geometry":{"type":"Point","coordinates":[139.464512,35.427945]},"properties":{"cartodb_id":292,"addr_housenumber":35,"addr_block_number":1663,"cd":213016000,"memo":"公設","access":"ﾌﾘｰﾀﾞﾑｽｸｪｱ丘の街公園","addr_neighbourhood":"","addre_quarter":"福田","addr_city":"大和市","addr_province":"神奈川県","address":"大和市福田１６６３－３５ ","id":"024-304-8","areaname":"南分署４管区","jurisdiction":"南分署","name_zh":"消防水箱","name_es":"cistermas","name_ja_hira":"ぼうかすいそう","name_ja":"防火水槽","name_ja_latn":"Bōkasuisō","name_en":"Watar Tank","name":"防火水槽","longitude":139.4645117,"latitude":35.42794495}},{"type":"Feature","geometry":{"type":"Point","coordinates":[139.463681,35.430592]},"properties":{"cartodb_id":293,"addr_housenumber":null,"addr_block_number":1937,"cd":213016000,"memo":"公設","access":"渋谷４号公園","addr_neighbourhood":"","addre_quarter":"福田","addr_city":"大和市","addr_province":"神奈川県","address":"大和市福田１９３７ ","id":"024-304-9","areaname":"南分署４管区","jurisdiction":"南分署","name_zh":"消防水箱","name_es":"cistermas","name_ja_hira":"ぼうかすいそう","name_ja":"防火水槽","name_ja_latn":"Bōkasuisō","name_en":"Watar Tank","name":"防火水槽","longitude":139.4636809,"latitude":35.43059184}},{"type":"Feature","geometry":{"type":"Point","coordinates":[139.454442,35.426509]},"properties":{"cartodb_id":294,"addr_housenumber":3,"addr_block_number":35,"cd":213016000,"memo":"公設","access":"","addr_neighbourhood":"","addre_quarter":"福田","addr_city":"大和市","addr_province":"神奈川県","address":"大和市福田３５－３ ","id":"024-304-10","areaname":"南分署４管区","jurisdiction":"南分署","name_zh":"消防水箱","name_es":"cistermas","name_ja_hira":"ぼうかすいそう","name_ja":"防火水槽","name_ja_latn":"Bōkasuisō","name_en":"Watar Tank","name":"防火水槽","longitude":139.4544425,"latitude":35.42650887}},{"type":"Feature","geometry":{"type":"Point","coordinates":[139.455245,35.431236]},"properties":{"cartodb_id":295,"addr_housenumber":4,"addr_block_number":449,"cd":213016000,"memo":"公設","access":"","addr_neighbourhood":"","addre_quarter":"福田","addr_city":"大和市","addr_province":"神奈川県","address":"大和市福田４４９－４ ","id":"024-304-11","areaname":"南分署４管区","jurisdiction":"南分署","name_zh":"消防水箱","name_es":"cistermas","name_ja_hira":"ぼうかすいそう","name_ja":"防火水槽","name_ja_latn":"Bōkasuisō","name_en":"Watar Tank","name":"防火水槽","longitude":139.4552452,"latitude":35.43123613}},{"type":"Feature","geometry":{"type":"Point","coordinates":[139.454838,35.437093]},"properties":{"cartodb_id":296,"addr_housenumber":29,"addr_block_number":3970,"cd":213016000,"memo":"公設","access":"","addr_neighbourhood":"","addre_quarter":"福田","addr_city":"大和市","addr_province":"神奈川県","address":"大和市福田３９７０－２９ ","id":"024-304-12","areaname":"南分署４管区","jurisdiction":"南分署","name_zh":"消防水箱","name_es":"cistermas","name_ja_hira":"ぼうかすいそう","name_ja":"防火水槽","name_ja_latn":"Bōkasuisō","name_en":"Watar Tank","name":"防火水槽","longitude":139.4548384,"latitude":35.43709318}},{"type":"Feature","geometry":{"type":"Point","coordinates":[139.456854,35.439413]},"properties":{"cartodb_id":297,"addr_housenumber":null,"addr_block_number":8,"cd":213008003,"memo":"公設","access":"","addr_neighbourhood":"三丁目","addre_quarter":"代官","addr_city":"大和市","addr_province":"神奈川県","address":"大和市代官三丁目８ ","id":"024-304-13","areaname":"南分署４管区","jurisdiction":"南分署","name_zh":"消防水箱","name_es":"cistermas","name_ja_hira":"ぼうかすいそう","name_ja":"防火水槽","name_ja_latn":"Bōkasuisō","name_en":"Watar Tank","name":"防火水槽","longitude":139.4568543,"latitude":35.43941299}},{"type":"Feature","geometry":{"type":"Point","coordinates":[139.454506,35.441084]},"properties":{"cartodb_id":298,"addr_housenumber":9,"addr_block_number":15,"cd":213008003,"memo":"公設","access":"代官マンション","addr_neighbourhood":"三丁目","addre_quarter":"代官","addr_city":"大和市","addr_province":"神奈川県","address":"大和市代官三丁目１５－９ ","id":"024-304-14","areaname":"南分署４管区","jurisdiction":"南分署","name_zh":"消防水箱","name_es":"cistermas","name_ja_hira":"ぼうかすいそう","name_ja":"防火水槽","name_ja_latn":"Bōkasuisō","name_en":"Watar Tank","name":"防火水槽","longitude":139.454506,"latitude":35.44108433}},{"type":"Feature","geometry":{"type":"Point","coordinates":[139.456893,35.431208]},"properties":{"cartodb_id":299,"addr_housenumber":null,"addr_block_number":570,"cd":213016000,"memo":"公設","access":"市立下福田小学校","addr_neighbourhood":"","addre_quarter":"福田","addr_city":"大和市","addr_province":"神奈川県","address":"大和市福田５７０ ","id":"024-304-15","areaname":"南分署４管区","jurisdiction":"南分署","name_zh":"消防水箱","name_es":"cistermas","name_ja_hira":"ぼうかすいそう","name_ja":"防火水槽","name_ja_latn":"Bōkasuisō","name_en":"Watar Tank","name":"防火水槽","longitude":139.4568926,"latitude":35.43120759}},{"type":"Feature","geometry":{"type":"Point","coordinates":[139.460579,35.441095]},"properties":{"cartodb_id":300,"addr_housenumber":null,"addr_block_number":20,"cd":213008001,"memo":"公設","access":"田中１号公園","addr_neighbourhood":"一丁目","addre_quarter":"代官","addr_city":"大和市","addr_province":"神奈川県","address":"大和市代官一丁目２０ ","id":"024-304-16","areaname":"南分署４管区","jurisdiction":"南分署","name_zh":"消防水箱","name_es":"cistermas","name_ja_hira":"ぼうかすいそう","name_ja":"防火水槽","name_ja_latn":"Bōkasuisō","name_en":"Watar Tank","name":"防火水槽","longitude":139.4605794,"latitude":35.44109464}},{"type":"Feature","geometry":{"type":"Point","coordinates":[139.463528,35.437651]},"properties":{"cartodb_id":301,"addr_housenumber":null,"addr_block_number":19,"cd":213025002,"memo":"公設","access":"札の辻２号公園","addr_neighbourhood":"二丁目","addre_quarter":"渋谷","addr_city":"大和市","addr_province":"神奈川県","address":"大和市渋谷二丁目１９ ","id":"024-304-17","areaname":"南分署４管区","jurisdiction":"南分署","name_zh":"消防水箱","name_es":"cistermas","name_ja_hira":"ぼうかすいそう","name_ja":"防火水槽","name_ja_latn":"Bōkasuisō","name_en":"Watar Tank","name":"防火水槽","longitude":139.4635277,"latitude":35.43765103}},{"type":"Feature","geometry":{"type":"Point","coordinates":[139.461283,35.439182]},"properties":{"cartodb_id":302,"addr_housenumber":null,"addr_block_number":5,"cd":213025003,"memo":"公設","access":"札の辻１号公園","addr_neighbourhood":"三丁目","addre_quarter":"渋谷","addr_city":"大和市","addr_province":"神奈川県","address":"大和市渋谷三丁目５ ","id":"024-304-18","areaname":"南分署４管区","jurisdiction":"南分署","name_zh":"消防水箱","name_es":"cistermas","name_ja_hira":"ぼうかすいそう","name_ja":"防火水槽","name_ja_latn":"Bōkasuisō","name_en":"Watar Tank","name":"防火水槽","longitude":139.4612825,"latitude":35.43918157}},{"type":"Feature","geometry":{"type":"Point","coordinates":[139.4613,35.425071]},"properties":{"cartodb_id":303,"addr_housenumber":1,"addr_block_number":1569,"cd":213016000,"memo":"公設","access":"市立下福田中学校","addr_neighbourhood":"","addre_quarter":"福田","addr_city":"大和市","addr_province":"神奈川県","address":"大和市福田１５６９－１ ","id":"024-304-19","areaname":"南分署４管区","jurisdiction":"南分署","name_zh":"消防水箱","name_es":"cistermas","name_ja_hira":"ぼうかすいそう","name_ja":"防火水槽","name_ja_latn":"Bōkasuisō","name_en":"Watar Tank","name":"防火水槽","longitude":139.4613003,"latitude":35.42507071}},{"type":"Feature","geometry":{"type":"Point","coordinates":[139.461134,35.428068]},"properties":{"cartodb_id":304,"addr_housenumber":null,"addr_block_number":1716,"cd":213016000,"memo":"公設","access":"あきしの台公園","addr_neighbourhood":"","addre_quarter":"福田","addr_city":"大和市","addr_province":"神奈川県","address":"大和市福田１７１６ ","id":"024-304-20","areaname":"南分署４管区","jurisdiction":"南分署","name_zh":"消防水箱","name_es":"cistermas","name_ja_hira":"ぼうかすいそう","name_ja":"防火水槽","name_ja_latn":"Bōkasuisō","name_en":"Watar Tank","name":"防火水槽","longitude":139.4611341,"latitude":35.42806759}},{"type":"Feature","geometry":{"type":"Point","coordinates":[139.458103,35.438422]},"properties":{"cartodb_id":305,"addr_housenumber":12,"addr_block_number":3755,"cd":213016000,"memo":"公設","access":"田中３号公園","addr_neighbourhood":"","addre_quarter":"福田","addr_city":"大和市","addr_province":"神奈川県","address":"大和市福田３７５５－１２ ","id":"024-304-21","areaname":"南分署４管区","jurisdiction":"南分署","name_zh":"消防水箱","name_es":"cistermas","name_ja_hira":"ぼうかすいそう","name_ja":"防火水槽","name_ja_latn":"Bōkasuisō","name_en":"Watar Tank","name":"防火水槽","longitude":139.4581029,"latitude":35.43842206}},{"type":"Feature","geometry":{"type":"Point","coordinates":[139.464696,35.446685]},"properties":{"cartodb_id":306,"addr_housenumber":1,"addr_block_number":15,"cd":213016003,"memo":"公設","access":"松ヶ丘公園","addr_neighbourhood":"三丁目","addre_quarter":"福田","addr_city":"大和市","addr_province":"神奈川県","address":"大和市福田三丁目１５－１ ","id":"024-304-22","areaname":"南分署４管区","jurisdiction":"南分署","name_zh":"消防水箱","name_es":"cistermas","name_ja_hira":"ぼうかすいそう","name_ja":"防火水槽","name_ja_latn":"Bōkasuisō","name_en":"Watar Tank","name":"防火水槽","longitude":139.4646958,"latitude":35.44668474}},{"type":"Feature","geometry":{"type":"Point","coordinates":[139.464462,35.440847]},"properties":{"cartodb_id":307,"addr_housenumber":1,"addr_block_number":4,"cd":213016004,"memo":"公設","access":"４号公園","addr_neighbourhood":"四丁目","addre_quarter":"福田","addr_city":"大和市","addr_province":"神奈川県","address":"大和市福田四丁目４－１ ","id":"024-304-23","areaname":"南分署４管区","jurisdiction":"南分署","name_zh":"消防水箱","name_es":"cistermas","name_ja_hira":"ぼうかすいそう","name_ja":"防火水槽","name_ja_latn":"Bōkasuisō","name_en":"Watar Tank","name":"防火水槽","longitude":139.4644621,"latitude":35.44084738}},{"type":"Feature","geometry":{"type":"Point","coordinates":[139.457631,35.432602]},"properties":{"cartodb_id":308,"addr_housenumber":null,"addr_block_number":505,"cd":213016000,"memo":"公設","access":"神明公園","addr_neighbourhood":"","addre_quarter":"福田","addr_city":"大和市","addr_province":"神奈川県","address":"大和市福田５０５ ","id":"024-304-24","areaname":"南分署４管区","jurisdiction":"南分署","name_zh":"消防水箱","name_es":"cistermas","name_ja_hira":"ぼうかすいそう","name_ja":"防火水槽","name_ja_latn":"Bōkasuisō","name_en":"Watar Tank","name":"防火水槽","longitude":139.4576314,"latitude":35.43260246}},{"type":"Feature","geometry":{"type":"Point","coordinates":[139.460059,35.428135]},"properties":{"cartodb_id":309,"addr_housenumber":null,"addr_block_number":955,"cd":213016000,"memo":"公設","access":"下福田南公園","addr_neighbourhood":"","addre_quarter":"福田","addr_city":"大和市","addr_province":"神奈川県","address":"大和市福田９５５ ","id":"024-304-25","areaname":"南分署４管区","jurisdiction":"南分署","name_zh":"消防水箱","name_es":"cistermas","name_ja_hira":"ぼうかすいそう","name_ja":"防火水槽","name_ja_latn":"Bōkasuisō","name_en":"Watar Tank","name":"防火水槽","longitude":139.4600592,"latitude":35.42813531}},{"type":"Feature","geometry":{"type":"Point","coordinates":[139.455729,35.440344]},"properties":{"cartodb_id":310,"addr_housenumber":null,"addr_block_number":11,"cd":213008003,"memo":"公設","access":"代官３丁目公園","addr_neighbourhood":"三丁目","addre_quarter":"代官","addr_city":"大和市","addr_province":"神奈川県","address":"大和市代官三丁目１１ ","id":"024-304-26","areaname":"南分署４管区","jurisdiction":"南分署","name_zh":"消防水箱","name_es":"cistermas","name_ja_hira":"ぼうかすいそう","name_ja":"防火水槽","name_ja_latn":"Bōkasuisō","name_en":"Watar Tank","name":"防火水槽","longitude":139.4557291,"latitude":35.44034393}},{"type":"Feature","geometry":{"type":"Point","coordinates":[139.456485,35.425596]},"properties":{"cartodb_id":311,"addr_housenumber":null,"addr_block_number":1319,"cd":213016000,"memo":"公設","access":"下福田南なかよし公園","addr_neighbourhood":"","addre_quarter":"福田","addr_city":"大和市","addr_province":"神奈川県","address":"大和市福田１３１９ ","id":"024-304-27","areaname":"南分署４管区","jurisdiction":"南分署","name_zh":"消防水箱","name_es":"cistermas","name_ja_hira":"ぼうかすいそう","name_ja":"防火水槽","name_ja_latn":"Bōkasuisō","name_en":"Watar Tank","name":"防火水槽","longitude":139.4564847,"latitude":35.42559601}},{"type":"Feature","geometry":{"type":"Point","coordinates":[139.462788,35.430198]},"properties":{"cartodb_id":312,"addr_housenumber":2,"addr_block_number":1807,"cd":213016000,"memo":"公設","access":"帰属公園内","addr_neighbourhood":"","addre_quarter":"福田","addr_city":"大和市","addr_province":"神奈川県","address":"大和市福田１８０７－２ ","id":"024-304-28","areaname":"南分署４管区","jurisdiction":"南分署","name_zh":"消防水箱","name_es":"cistermas","name_ja_hira":"ぼうかすいそう","name_ja":"防火水槽","name_ja_latn":"Bōkasuisō","name_en":"Watar Tank","name":"防火水槽","longitude":139.4627882,"latitude":35.43019768}},{"type":"Feature","geometry":{"type":"Point","coordinates":[139.463366,35.435502]},"properties":{"cartodb_id":313,"addr_housenumber":11,"addr_block_number":2071,"cd":213016000,"memo":"公設","access":"渋谷１号公園","addr_neighbourhood":"","addre_quarter":"福田","addr_city":"大和市","addr_province":"神奈川県","address":"大和市福田２０７１ 11街区","id":"024-304-29","areaname":"南分署４管区","jurisdiction":"南分署","name_zh":"消防水箱","name_es":"cistermas","name_ja_hira":"ぼうかすいそう","name_ja":"防火水槽","name_ja_latn":"Bōkasuisō","name_en":"Watar Tank","name":"防火水槽","longitude":139.4633661,"latitude":35.43550154}}]}