{"type": "FeatureCollection", "features": [{"type":"Feature","geometry":{"type":"Point","coordinates":[139.455527,35.490157]},"properties":{"cartodb_id":165,"__4":1,"ref":65,"id":165,"ref_yamato_type":"公共施設AED","__3":"","__2":"","opening_hour":"開館時間内","aed_type":"日本光電 AED2100","description":"設置場所：1階ロビー","__1":"1階ロビー","address":"大和市鶴間1-32-12","_":"勤労福祉会館","name":"勤労福祉会館 AED","name_en":"AED(Automated External Defibrillator)","name_ja":"AED（自動体外式除細動器）","latitude":35.49015744,"longitude":139.4555271}},{"type":"Feature","geometry":{"type":"Point","coordinates":[139.456226,35.473483]},"properties":{"cartodb_id":1,"__4":1,"ref":1,"id":1,"ref_yamato_type":"24時間コンビニAED","__3":"なし","__2":" 24/7","opening_hour":" 24/7","aed_type":"日本光電 AED2100","description":"設置場所：レジカウンター内 AED機種日本光電 AED2100","__1":"レジカウンター内","address":"大和市上草柳1－3－5","_":"セブンイレブン上草柳店","name":"セブンイレブン上草柳店 AED","name_en":"AED(Automated External Defibrillator)","name_ja":"AED（自動体外式除細動器）","latitude":35.47348292,"longitude":139.4562264}},{"type":"Feature","geometry":{"type":"Point","coordinates":[139.460814,35.469309]},"properties":{"cartodb_id":2,"__4":1,"ref":2,"id":2,"ref_yamato_type":"24時間コンビニAED","__3":"なし","__2":" 24/7","opening_hour":" 24/7","aed_type":"日本光電 AED2100","description":"設置場所：レジカウンター内","__1":"レジカウンター内","address":"大和市中央1－1－25","_":"セブンイレブン大和駅前店","name":"セブンイレブン大和駅前店 AED","name_en":"AED(Automated External Defibrillator)","name_ja":"AED（自動体外式除細動器）","latitude":35.46930927,"longitude":139.4608137}},{"type":"Feature","geometry":{"type":"Point","coordinates":[139.467174,35.444796]},"properties":{"cartodb_id":3,"__4":1,"ref":3,"id":3,"ref_yamato_type":"24時間コンビニAED","__3":"なし","__2":" 24/7","opening_hour":" 24/7","aed_type":"日本光電 AED2100","description":"設置場所：レジカウンター内","__1":"レジカウンター内","address":"大和市上和田1826－1","_":"セブンイレブン大和上和田店","name":"セブンイレブン大和上和田店 AED","name_en":"AED(Automated External Defibrillator)","name_ja":"AED（自動体外式除細動器）","latitude":35.44479594,"longitude":139.4671737}},{"type":"Feature","geometry":{"type":"Point","coordinates":[139.474336,35.449271]},"properties":{"cartodb_id":4,"__4":1,"ref":4,"id":4,"ref_yamato_type":"24時間コンビニAED","__3":"なし","__2":" 24/7","opening_hour":" 24/7","aed_type":"日本光電 AED2100","description":"設置場所：レジカウンター内","__1":"レジカウンター内","address":"大和市上和田1626－1","_":"セブンイレブン大和上和田中央店","name":"セブンイレブン大和上和田中央店 AED","name_en":"AED(Automated External Defibrillator)","name_ja":"AED（自動体外式除細動器）","latitude":35.44927058,"longitude":139.4743363}},{"type":"Feature","geometry":{"type":"Point","coordinates":[139.464667,35.449354]},"properties":{"cartodb_id":5,"__4":1,"ref":5,"id":5,"ref_yamato_type":"24時間コンビニAED","__3":"なし","__2":" 24/7","opening_hour":" 24/7","aed_type":"日本光電 AED2100","description":"設置場所：レジカウンター内","__1":"レジカウンター内","address":"大和市福田2－3－14","_":"セブンイレブン大和桜ヶ丘西口店","name":"セブンイレブン大和桜ヶ丘西口店 AED","name_en":"AED(Automated External Defibrillator)","name_ja":"AED（自動体外式除細動器）","latitude":35.44935444,"longitude":139.4646666}},{"type":"Feature","geometry":{"type":"Point","coordinates":[139.443434,35.468849]},"properties":{"cartodb_id":6,"__4":1,"ref":6,"id":6,"ref_yamato_type":"24時間コンビニAED","__3":"なし","__2":" 24/7","opening_hour":" 24/7","aed_type":"日本光電 AED2100","description":"設置場所：レジカウンター内","__1":"レジカウンター内","address":"大和市桜森1－6－20","_":"セブンイレブン大和桜森1丁目店","name":"セブンイレブン大和桜森1丁目店 AED","name_en":"AED(Automated External Defibrillator)","name_ja":"AED（自動体外式除細動器）","latitude":35.46884903,"longitude":139.4434339}},{"type":"Feature","geometry":{"type":"Point","coordinates":[139.453931,35.490432]},"properties":{"cartodb_id":7,"__4":1,"ref":7,"id":7,"ref_yamato_type":"24時間コンビニAED","__3":"なし","__2":" 24/7","opening_hour":" 24/7","aed_type":"日本光電 AED2100","description":"設置場所：レジカウンター内","__1":"レジカウンター内","address":"大和市鶴間1－31－3","_":"セブンイレブン大和市鶴間駅前店","name":"セブンイレブン大和市鶴間駅前店 AED","name_en":"AED(Automated External Defibrillator)","name_ja":"AED（自動体外式除細動器）","latitude":35.49043235,"longitude":139.4539308}},{"type":"Feature","geometry":{"type":"Point","coordinates":[139.461828,35.438017]},"properties":{"cartodb_id":8,"__4":1,"ref":8,"id":8,"ref_yamato_type":"24時間コンビニAED","__3":"なし","__2":" 24/7","opening_hour":" 24/7","aed_type":"日本光電 AED2100","description":"設置場所：レジカウンター内","__1":"レジカウンター内","address":"大和市渋谷3－9－1","_":"セブンイレブン大和渋谷3丁目店","name":"セブンイレブン大和渋谷3丁目店 AED","name_en":"AED(Automated External Defibrillator)","name_ja":"AED（自動体外式除細動器）","latitude":35.43801742,"longitude":139.4618282}},{"type":"Feature","geometry":{"type":"Point","coordinates":[139.464892,35.480317]},"properties":{"cartodb_id":9,"__4":1,"ref":9,"id":9,"ref_yamato_type":"24時間コンビニAED","__3":"なし","__2":" 24/7","opening_hour":" 24/7","aed_type":"日本光電 AED2100","description":"設置場所：レジカウンター内","__1":"レジカウンター内","address":"大和市深見東2－1－9","_":"セブンイレブン大和島津店","name":"セブンイレブン大和島津店 AED","name_en":"AED(Automated External Defibrillator)","name_ja":"AED（自動体外式除細動器）","latitude":35.48031731,"longitude":139.4648925}},{"type":"Feature","geometry":{"type":"Point","coordinates":[139.454014,35.494764]},"properties":{"cartodb_id":10,"__4":1,"ref":10,"id":10,"ref_yamato_type":"24時間コンビニAED","__3":"なし","__2":" 24/7","opening_hour":" 24/7","aed_type":"日本光電 AED2100","description":"設置場所：レジカウンター内","__1":"レジカウンター内","address":"大和市下鶴間2793","_":"セブンイレブン大和下鶴間店","name":"セブンイレブン大和下鶴間店 AED","name_en":"AED(Automated External Defibrillator)","name_ja":"AED（自動体外式除細動器）","latitude":35.49476436,"longitude":139.4540144}},{"type":"Feature","geometry":{"type":"Point","coordinates":[139.466441,35.501464]},"properties":{"cartodb_id":11,"__4":1,"ref":11,"id":11,"ref_yamato_type":"24時間コンビニAED","__3":"なし","__2":" 24/7","opening_hour":" 24/7","aed_type":"日本光電 AED2100","description":"設置場所：レジカウンター内","__1":"レジカウンター内","address":"大和市下鶴間2236－1","_":"セブンイレブン大和下鶴間宿店","name":"セブンイレブン大和下鶴間宿店 AED","name_en":"AED(Automated External Defibrillator)","name_ja":"AED（自動体外式除細動器）","latitude":35.50146414,"longitude":139.4664405}},{"type":"Feature","geometry":{"type":"Point","coordinates":[139.460735,35.462583]},"properties":{"cartodb_id":12,"__4":1,"ref":12,"id":12,"ref_yamato_type":"24時間コンビニAED","__3":"なし","__2":" 24/7","opening_hour":" 24/7","aed_type":"日本光電 AED2100","description":"設置場所：レジカウンター内","__1":"レジカウンター内","address":"大和市中央6－9－1","_":"セブンイレブン大和中央6丁目店","name":"セブンイレブン大和中央6丁目店 AED","name_en":"AED(Automated External Defibrillator)","name_ja":"AED（自動体外式除細動器）","latitude":35.46258316,"longitude":139.4607346}},{"type":"Feature","geometry":{"type":"Point","coordinates":[139.442469,35.511894]},"properties":{"cartodb_id":13,"__4":1,"ref":13,"id":13,"ref_yamato_type":"24時間コンビニAED","__3":"なし","__2":" 24/7","opening_hour":" 24/7","aed_type":"日本光電 AED2100","description":"設置場所：レジカウンター内","__1":"レジカウンター内","address":"大和市中央林間5－4－16","_":"セブンイレブン大和中央林間5丁目店","name":"セブンイレブン大和中央林間5丁目店 AED","name_en":"AED(Automated External Defibrillator)","name_ja":"AED（自動体外式除細動器）","latitude":35.51189421,"longitude":139.4424686}},{"type":"Feature","geometry":{"type":"Point","coordinates":[139.466767,35.455906]},"properties":{"cartodb_id":33,"__4":1,"ref":33,"id":33,"ref_yamato_type":"24時間コンビニAED","__3":"なし","__2":" 24/7","opening_hour":" 24/7","aed_type":"日本光電 AED2100","description":"設置場所：レジカウンター内","__1":"レジカウンター内","address":"大和市福田5682-6","_":"セブンイレブン大和福田東店","name":"セブンイレブン大和福田東店 AED","name_en":"AED(Automated External Defibrillator)","name_ja":"AED（自動体外式除細動器）","latitude":35.45590587,"longitude":139.4667665}},{"type":"Feature","geometry":{"type":"Point","coordinates":[139.444891,35.506924]},"properties":{"cartodb_id":14,"__4":1,"ref":14,"id":14,"ref_yamato_type":"24時間コンビニAED","__3":"なし","__2":" 24/7","opening_hour":" 24/7","aed_type":"日本光電 AED2100","description":"設置場所：レジカウンター内","__1":"レジカウンター内","address":"大和市中央林間4－6－20","_":"セブンイレブン大和中央林間駅前店","name":"セブンイレブン大和中央林間駅前店 AED","name_en":"AED(Automated External Defibrillator)","name_ja":"AED（自動体外式除細動器）","latitude":35.50692382,"longitude":139.4448906}},{"type":"Feature","geometry":{"type":"Point","coordinates":[139.459414,35.511777]},"properties":{"cartodb_id":15,"__4":1,"ref":15,"id":15,"ref_yamato_type":"24時間コンビニAED","__3":"なし","__2":" 24/7","opening_hour":" 24/7","aed_type":"日本光電 AED2100","description":"設置場所：レジカウンター内","__1":"レジカウンター内","address":"大和市下鶴間524－1","_":"セブンイレブン大和つきみ野駅北店","name":"セブンイレブン大和つきみ野駅北店 AED","name_en":"AED(Automated External Defibrillator)","name_ja":"AED（自動体外式除細動器）","latitude":35.51177742,"longitude":139.4594141}},{"type":"Feature","geometry":{"type":"Point","coordinates":[139.448175,35.487964]},"properties":{"cartodb_id":16,"__4":1,"ref":16,"id":16,"ref_yamato_type":"24時間コンビニAED","__3":"なし","__2":" 24/7","opening_hour":" 24/7","aed_type":"日本光電 AED2100","description":"設置場所：レジカウンター内","__1":"レジカウンター内","address":"大和市西鶴間2－1－1","_":"セブンイレブン大和西鶴間店","name":"セブンイレブン大和西鶴間店 AED","name_en":"AED(Automated External Defibrillator)","name_ja":"AED（自動体外式除細動器）","latitude":35.4879642,"longitude":139.4481755}},{"type":"Feature","geometry":{"type":"Point","coordinates":[139.461764,35.476329]},"properties":{"cartodb_id":17,"__4":1,"ref":17,"id":17,"ref_yamato_type":"24時間コンビニAED","__3":"なし","__2":" 24/7","opening_hour":" 24/7","aed_type":"日本光電 AED2100","description":"設置場所：レジカウンター内","__1":"レジカウンター内","address":"大和市深見西2－4－4","_":"セブンイレブン大和深見店","name":"セブンイレブン大和深見店 AED","name_en":"AED(Automated External Defibrillator)","name_ja":"AED（自動体外式除細動器）","latitude":35.47632898,"longitude":139.461764}},{"type":"Feature","geometry":{"type":"Point","coordinates":[139.461858,35.43454]},"properties":{"cartodb_id":18,"__4":1,"ref":18,"id":18,"ref_yamato_type":"24時間コンビニAED","__3":"なし","__2":" 24/7","opening_hour":" 24/7","aed_type":"日本光電 AED2100","description":"設置場所：レジカウンター内","__1":"レジカウンター内","address":"大和市福田1995－1","_":"セブンイレブン大和福田店","name":"セブンイレブン大和福田店 AED","name_en":"AED(Automated External Defibrillator)","name_ja":"AED（自動体外式除細動器）","latitude":35.43454038,"longitude":139.4618576}},{"type":"Feature","geometry":{"type":"Point","coordinates":[139.435623,35.49097]},"properties":{"cartodb_id":19,"__4":1,"ref":19,"id":19,"ref_yamato_type":"24時間コンビニAED","__3":"なし","__2":" 24/7","opening_hour":" 24/7","aed_type":"日本光電 AED2100","description":"設置場所：レジカウンター内","__1":"レジカウンター内","address":"大和市南林間7－25－11","_":"セブンイレブン大和南林間7丁目店","name":"セブンイレブン大和南林間7丁目店 AED","name_en":"AED(Automated External Defibrillator)","name_ja":"AED（自動体外式除細動器）","latitude":35.49097008,"longitude":139.4356229}},{"type":"Feature","geometry":{"type":"Point","coordinates":[139.44751,35.497254]},"properties":{"cartodb_id":20,"__4":1,"ref":20,"id":20,"ref_yamato_type":"24時間コンビニAED","__3":"なし","__2":" 24/7","opening_hour":" 24/7","aed_type":"日本光電 AED2100","description":"設置場所：レジカウンター内","__1":"レジカウンター内","address":"大和市林間2－2－1","_":"セブンイレブン大和林間2丁目店","name":"セブンイレブン大和林間2丁目店 AED","name_en":"AED(Automated External Defibrillator)","name_ja":"AED（自動体外式除細動器）","latitude":35.4972543,"longitude":139.4475099}},{"type":"Feature","geometry":{"type":"Point","coordinates":[139.463975,35.46093]},"properties":{"cartodb_id":21,"__4":1,"ref":21,"id":21,"ref_yamato_type":"24時間コンビニAED","__3":"なし","__2":" 24/7","opening_hour":" 24/7","aed_type":"日本光電 AED2100","description":"設置場所：レジカウンター内","__1":"レジカウンター内","address":"大和市柳橋1－5－1","_":"セブンイレブン大和柳橋1丁目店","name":"セブンイレブン大和柳橋1丁目店 AED","name_en":"AED(Automated External Defibrillator)","name_ja":"AED（自動体外式除細動器）","latitude":35.46092984,"longitude":139.4639753}},{"type":"Feature","geometry":{"type":"Point","coordinates":[139.450892,35.495254]},"properties":{"cartodb_id":22,"__4":1,"ref":22,"id":22,"ref_yamato_type":"24時間コンビニAED","__3":"なし","__2":" 24/7","opening_hour":" 24/7","aed_type":"日本光電 AED2100","description":"設置場所：レジカウンター内","__1":"レジカウンター内","address":"大和市林間1－3217－16","_":"セブンイレブン大和林間1丁目店","name":"セブンイレブン大和林間1丁目店 AED","name_en":"AED(Automated External Defibrillator)","name_ja":"AED（自動体外式除細動器）","latitude":35.49525412,"longitude":139.4508918}},{"type":"Feature","geometry":{"type":"Point","coordinates":[139.455849,35.486762]},"properties":{"cartodb_id":23,"__4":1,"ref":23,"id":23,"ref_yamato_type":"24時間コンビニAED","__3":"なし","__2":" 24/7","opening_hour":" 24/7","aed_type":"日本光電 AED2100","description":"設置場所：レジカウンター内","__1":"レジカウンター内","address":"大和市鶴間1－20－24","_":"セブンイレブン大和鶴間1丁目店","name":"セブンイレブン大和鶴間1丁目店 AED","name_en":"AED(Automated External Defibrillator)","name_ja":"AED（自動体外式除細動器）","latitude":35.48676202,"longitude":139.455849}},{"type":"Feature","geometry":{"type":"Point","coordinates":[139.465257,35.432903]},"properties":{"cartodb_id":24,"__4":1,"ref":24,"id":24,"ref_yamato_type":"24時間コンビニAED","__3":"なし","__2":" 24/7","opening_hour":" 24/7","aed_type":"日本光電 AED2100","description":"設置場所：レジカウンター内","__1":"レジカウンター内","address":"大和市福田2026－1","_":"セブンイレブン大和高座渋谷駅東口店","name":"セブンイレブン大和高座渋谷駅東口店 AED","name_en":"AED(Automated External Defibrillator)","name_ja":"AED（自動体外式除細動器）","latitude":35.43290315,"longitude":139.4652567}},{"type":"Feature","geometry":{"type":"Point","coordinates":[139.443264,35.507775]},"properties":{"cartodb_id":25,"__4":1,"ref":25,"id":25,"ref_yamato_type":"24時間コンビニAED","__3":"なし","__2":" 24/7","opening_hour":" 24/7","aed_type":"日本光電 AED2100","description":"設置場所：レジカウンター内","__1":"レジカウンター内","address":"大和市中央林間3－11－1","_":"セブンイレブン大和中央林間3丁目店","name":"セブンイレブン大和中央林間3丁目店 AED","name_en":"AED(Automated External Defibrillator)","name_ja":"AED（自動体外式除細動器）","latitude":35.50777502,"longitude":139.4432639}},{"type":"Feature","geometry":{"type":"Point","coordinates":[139.437464,35.473006]},"properties":{"cartodb_id":26,"__4":1,"ref":26,"id":26,"ref_yamato_type":"24時間コンビニAED","__3":"なし","__2":" 24/7","opening_hour":" 24/7","aed_type":"日本光電 AED2100","description":"設置場所：レジカウンター内","__1":"レジカウンター内","address":"大和市桜森3－12－18","_":"セブンイレブン大和桜森店","name":"セブンイレブン大和桜森店 AED","name_en":"AED(Automated External Defibrillator)","name_ja":"AED（自動体外式除細動器）","latitude":35.47300628,"longitude":139.4374642}},{"type":"Feature","geometry":{"type":"Point","coordinates":[139.465997,35.449936]},"properties":{"cartodb_id":27,"__4":1,"ref":27,"id":27,"ref_yamato_type":"24時間コンビニAED","__3":"なし","__2":" 24/7","opening_hour":" 24/7","aed_type":"日本光電 AED2100","description":"設置場所：レジカウンター内","__1":"レジカウンター内","address":"大和市福田5515-1","_":"セブンイレブン桜ヶ丘東口店","name":"セブンイレブン桜ヶ丘東口店 AED","name_en":"AED(Automated External Defibrillator)","name_ja":"AED（自動体外式除細動器）","latitude":35.44993626,"longitude":139.4659974}},{"type":"Feature","geometry":{"type":"Point","coordinates":[139.458494,35.467217]},"properties":{"cartodb_id":28,"__4":1,"ref":28,"id":28,"ref_yamato_type":"24時間コンビニAED","__3":"なし","__2":" 24/7","opening_hour":" 24/7","aed_type":"日本光電 AED2100","description":"設置場所：レジカウンター内","__1":"レジカウンター内","address":"大和市中央5-3-18","_":"セブンイレブン大和中央5丁目店","name":"セブンイレブン大和中央5丁目店 AED","name_en":"AED(Automated External Defibrillator)","name_ja":"AED（自動体外式除細動器）","latitude":35.46721718,"longitude":139.4584937}},{"type":"Feature","geometry":{"type":"Point","coordinates":[139.463429,35.485196]},"properties":{"cartodb_id":29,"__4":1,"ref":29,"id":29,"ref_yamato_type":"24時間コンビニAED","__3":"なし","__2":" 24/7","opening_hour":" 24/7","aed_type":"日本光電 AED2100","description":"設置場所：レジカウンター内","__1":"レジカウンター内","address":"大和市深見西6-5-4","_":"セブンイレブン大和深見西6丁目店","name":"セブンイレブン大和深見西6丁目店 AED","name_en":"AED(Automated External Defibrillator)","name_ja":"AED（自動体外式除細動器）","latitude":35.48519558,"longitude":139.4634287}},{"type":"Feature","geometry":{"type":"Point","coordinates":[139.464061,35.469992]},"properties":{"cartodb_id":30,"__4":1,"ref":30,"id":30,"ref_yamato_type":"24時間コンビニAED","__3":"なし","__2":" 24/7","opening_hour":" 24/7","aed_type":"日本光電 AED2100","description":"設置場所：レジカウンター内","__1":"レジカウンター内","address":"大和市大和東1－8－12","_":"セブンイレブン大和東1丁目店","name":"セブンイレブン大和東1丁目店 AED","name_en":"AED(Automated External Defibrillator)","name_ja":"AED（自動体外式除細動器）","latitude":35.46999181,"longitude":139.4640606}},{"type":"Feature","geometry":{"type":"Point","coordinates":[139.461856,35.492578]},"properties":{"cartodb_id":31,"__4":1,"ref":31,"id":31,"ref_yamato_type":"24時間コンビニAED","__3":"なし","__2":" 24/7","opening_hour":" 24/7","aed_type":"日本光電 AED2100","description":"設置場所：レジカウンター内","__1":"レジカウンター内","address":"大和市下鶴間2-9-12","_":"セブンイレブン大和下鶴間２丁目店","name":"セブンイレブン大和下鶴間２丁目店 AED","name_en":"AED(Automated External Defibrillator)","name_ja":"AED（自動体外式除細動器）","latitude":35.49257834,"longitude":139.4618563}},{"type":"Feature","geometry":{"type":"Point","coordinates":[139.443212,35.502094]},"properties":{"cartodb_id":32,"__4":1,"ref":32,"id":32,"ref_yamato_type":"24時間コンビニAED","__3":"なし","__2":" 24/7","opening_hour":" 24/7","aed_type":"日本光電 AED2100","description":"設置場所：レジカウンター内","__1":"レジカウンター内","address":"大和市中央林間１－９","_":"セブンイレブン大和中央林間１丁目店","name":"セブンイレブン大和中央林間１丁目店 AED","name_en":"AED(Automated External Defibrillator)","name_ja":"AED（自動体外式除細動器）","latitude":35.50209359,"longitude":139.4432124}},{"type":"Feature","geometry":{"type":"Point","coordinates":[139.451468,35.484935]},"properties":{"cartodb_id":34,"__4":1,"ref":34,"id":34,"ref_yamato_type":"24時間コンビニAED","__3":"なし","__2":" 24/7","opening_hour":" 24/7","aed_type":"日本光電 AED2100","description":"設置場所：レジカウンター内","__1":"レジカウンター内","address":"大和市上草柳7-394-7","_":"セブンイレブン大和上草柳７丁目店","name":"セブンイレブン大和上草柳７丁目店 AED","name_en":"AED(Automated External Defibrillator)","name_ja":"AED（自動体外式除細動器）","latitude":35.48493529,"longitude":139.4514679}},{"type":"Feature","geometry":{"type":"Point","coordinates":[139.447298,35.506039]},"properties":{"cartodb_id":35,"__4":1,"ref":35,"id":35,"ref_yamato_type":"24時間コンビニAED","__3":"なし","__2":" 24/7","opening_hour":" 24/7","aed_type":"日本光電 AED2100","description":"設置場所：レジカウンター内","__1":"レジカウンター内","address":"大和市中央林間4-20-16","_":"セブンイレブン大和中央林間４丁目店","name":"セブンイレブン大和中央林間４丁目店 AED","name_en":"AED(Automated External Defibrillator)","name_ja":"AED（自動体外式除細動器）","latitude":35.50603933,"longitude":139.4472978}},{"type":"Feature","geometry":{"type":"Point","coordinates":[139.463582,35.505956]},"properties":{"cartodb_id":36,"__4":1,"ref":36,"id":36,"ref_yamato_type":"24時間コンビニAED","__3":"なし","__2":" 24/7","opening_hour":" 24/7","aed_type":"日本光電 AED2100","description":"設置場所：レジカウンター内","__1":"レジカウンター内","address":"大和市下鶴間809-1","_":"セブンイレブン大和下鶴間東店","name":"セブンイレブン大和下鶴間東店 AED","name_en":"AED(Automated External Defibrillator)","name_ja":"AED（自動体外式除細動器）","latitude":35.50595629,"longitude":139.4635817}},{"type":"Feature","geometry":{"type":"Point","coordinates":[139.465475,35.452384]},"properties":{"cartodb_id":37,"__4":1,"ref":37,"id":37,"ref_yamato_type":"24時間コンビニAED","__3":"なし","__2":" 24/7","opening_hour":" 24/7","aed_type":"日本光電 AED2100","description":"設置場所：レジカウンター内","__1":"レジカウンター内","address":"大和市福田1-1-1","_":"セブンイレブン大和福田１丁目店","name":"セブンイレブン大和福田１丁目店 AED","name_en":"AED(Automated External Defibrillator)","name_ja":"AED（自動体外式除細動器）","latitude":35.45238377,"longitude":139.4654753}},{"type":"Feature","geometry":{"type":"Point","coordinates":[139.471973,35.431187]},"properties":{"cartodb_id":38,"__4":1,"ref":38,"id":38,"ref_yamato_type":"24時間コンビニAED","__3":"なし","__2":" 24/7","opening_hour":" 24/7","aed_type":"日本光電 AED2100","description":"設置場所：レジカウンター内","__1":"レジカウンター内","address":"大和市下和田104","_":"セブンイレブン大和いちょう団地店","name":"セブンイレブン大和いちょう団地店 AED","name_en":"AED(Automated External Defibrillator)","name_ja":"AED（自動体外式除細動器）","latitude":35.43118669,"longitude":139.471973}},{"type":"Feature","geometry":{"type":"Point","coordinates":[139.46578,35.440284]},"properties":{"cartodb_id":39,"__4":1,"ref":39,"id":39,"ref_yamato_type":"24時間コンビニAED","__3":"なし","__2":" 24/7","opening_hour":" 24/7","aed_type":"フィリップス FRX","description":"設置場所：レジカウンター内","__1":"レジカウンター内","address":"大和市福田2339-12","_":"セブンイレブン大和福田中央店","name":"セブンイレブン大和福田中央店 AED","name_en":"AED(Automated External Defibrillator)","name_ja":"AED（自動体外式除細動器）","latitude":35.4402844,"longitude":139.4657796}},{"type":"Feature","geometry":{"type":"Point","coordinates":[139.463081,35.470876]},"properties":{"cartodb_id":40,"__4":1,"ref":40,"id":40,"ref_yamato_type":"24時間コンビニAED","__3":"なし","__2":" 24/7","opening_hour":" 24/7","aed_type":"フィリップス FRX","description":"設置場所：レジカウンター内","__1":"レジカウンター内","address":"大和市大和東1-5-14","_":"セブンイレブン大和昭和通り店","name":"セブンイレブン大和昭和通り店 AED","name_en":"AED(Automated External Defibrillator)","name_ja":"AED（自動体外式除細動器）","latitude":35.470876,"longitude":139.463081}},{"type":"Feature","geometry":{"type":"Point","coordinates":[139.452516,35.497165]},"properties":{"cartodb_id":41,"__4":1,"ref":41,"id":41,"ref_yamato_type":"24時間コンビニAED","__3":"なし","__2":" 24/7","opening_hour":" 24/7","aed_type":"フィリップス FRX","description":"設置場所：レジカウンター内","__1":"レジカウンター内","address":"大和市林間1-18-18","_":"セブンイレブン大和林間店","name":"セブンイレブン大和林間店 AED","name_en":"AED(Automated External Defibrillator)","name_ja":"AED（自動体外式除細動器）","latitude":35.497165,"longitude":139.452516}},{"type":"Feature","geometry":{"type":"Point","coordinates":[139.456795,35.491794]},"properties":{"cartodb_id":42,"__4":1,"ref":1,"id":42,"ref_yamato_type":"24時間コンビニAED","__3":"なし","__2":" 24/7","opening_hour":" 24/7","aed_type":"日本光電 AED2100","description":"設置場所：レジカウンター内","__1":"レジカウンター内","address":"大和市下鶴間2777－5－6－B","_":"ファミリーマート大和下鶴間店","name":"ファミリーマート大和下鶴間店 AED","name_en":"AED(Automated External Defibrillator)","name_ja":"AED（自動体外式除細動器）","latitude":35.49179437,"longitude":139.4567954}},{"type":"Feature","geometry":{"type":"Point","coordinates":[139.447449,35.495331]},"properties":{"cartodb_id":43,"__4":1,"ref":2,"id":43,"ref_yamato_type":"24時間コンビニAED","__3":"なし","__2":" 24/7","opening_hour":" 24/7","aed_type":"日本光電 AED2100","description":"設置場所：レジカウンター内","__1":"レジカウンター内","address":"大和市南林間1－7－14","_":"ファミリーマート南林間駅前店","name":"ファミリーマート南林間駅前店 AED","name_en":"AED(Automated External Defibrillator)","name_ja":"AED（自動体外式除細動器）","latitude":35.49533058,"longitude":139.447449}},{"type":"Feature","geometry":{"type":"Point","coordinates":[139.460715,35.474719]},"properties":{"cartodb_id":44,"__4":1,"ref":3,"id":44,"ref_yamato_type":"24時間コンビニAED","__3":"なし","__2":" 24/7","opening_hour":" 24/7","aed_type":"日本光電 AED2100","description":"設置場所：レジカウンター内","__1":"レジカウンター内","address":"大和市深見西1－2－32","_":"ファミリーマート深見西一丁目店","name":"ファミリーマート深見西一丁目店 AED","name_en":"AED(Automated External Defibrillator)","name_ja":"AED（自動体外式除細動器）","latitude":35.47471904,"longitude":139.4607155}},{"type":"Feature","geometry":{"type":"Point","coordinates":[139.464039,35.475394]},"properties":{"cartodb_id":45,"__4":1,"ref":4,"id":45,"ref_yamato_type":"24時間コンビニAED","__3":"なし","__2":" 24/7","opening_hour":" 24/7","aed_type":"日本光電 AED2100","description":"設置場所：レジカウンター内","__1":"レジカウンター内","address":"大和市深見西2－2－2","_":"ファミリーマート深見西店","name":"ファミリーマート深見西店 AED","name_en":"AED(Automated External Defibrillator)","name_ja":"AED（自動体外式除細動器）","latitude":35.47539444,"longitude":139.464039}},{"type":"Feature","geometry":{"type":"Point","coordinates":[139.461946,35.470584]},"properties":{"cartodb_id":46,"__4":1,"ref":5,"id":46,"ref_yamato_type":"24時間コンビニAED","__3":"なし","__2":" 24/7","opening_hour":" 24/7","aed_type":"日本光電 AED2100","description":"設置場所：レジカウンター内","__1":"レジカウンター内","address":"大和市大和東1－3－11","_":"ファミリーマート大和東一丁目店","name":"ファミリーマート大和東一丁目店 AED","name_en":"AED(Automated External Defibrillator)","name_ja":"AED（自動体外式除細動器）","latitude":35.47058351,"longitude":139.461946}},{"type":"Feature","geometry":{"type":"Point","coordinates":[139.462481,35.469488]},"properties":{"cartodb_id":47,"__4":1,"ref":6,"id":47,"ref_yamato_type":"24時間コンビニAED","__3":"なし","__2":" 24/7","opening_hour":" 24/7","aed_type":"日本光電 AED2100","description":"設置場所：レジカウンター内","__1":"レジカウンター内","address":"大和市大和南1－3－3","_":"ファミリーマート魚音大和南店","name":"ファミリーマート魚音大和南店 AED","name_en":"AED(Automated External Defibrillator)","name_ja":"AED（自動体外式除細動器）","latitude":35.46948773,"longitude":139.4624813}},{"type":"Feature","geometry":{"type":"Point","coordinates":[139.446165,35.508004]},"properties":{"cartodb_id":48,"__4":1,"ref":7,"id":48,"ref_yamato_type":"24時間コンビニAED","__3":"なし","__2":" 24/7","opening_hour":" 24/7","aed_type":"日本光電 AED2100","description":"設置場所：レジカウンター内","__1":"レジカウンター内","address":"大和市中央林間4－14－20","_":"ファミリーマート中央林間駅東口店","name":"ファミリーマート中央林間駅東口店 AED","name_en":"AED(Automated External Defibrillator)","name_ja":"AED（自動体外式除細動器）","latitude":35.50800374,"longitude":139.4461647}},{"type":"Feature","geometry":{"type":"Point","coordinates":[139.443941,35.508431]},"properties":{"cartodb_id":49,"__4":1,"ref":8,"id":49,"ref_yamato_type":"24時間コンビニAED","__3":"なし","__2":" 24/7","opening_hour":" 24/7","aed_type":"日本光電 AED2100","description":"設置場所：レジカウンター内","__1":"レジカウンター内","address":"大和市中央林間3－3－8","_":"ファミリーマート中央林間駅前店","name":"ファミリーマート中央林間駅前店 AED","name_en":"AED(Automated External Defibrillator)","name_ja":"AED（自動体外式除細動器）","latitude":35.50843135,"longitude":139.4439406}},{"type":"Feature","geometry":{"type":"Point","coordinates":[139.458061,35.458614]},"properties":{"cartodb_id":50,"__4":1,"ref":9,"id":50,"ref_yamato_type":"24時間コンビニAED","__3":"なし","__2":" 24/7","opening_hour":" 24/7","aed_type":"日本光電 AED2100","description":"設置場所：レジカウンター内","__1":"レジカウンター内","address":"大和市草柳3－2－4","_":"ファミリーマート大和草柳三丁目店","name":"ファミリーマート大和草柳三丁目店 AED","name_en":"AED(Automated External Defibrillator)","name_ja":"AED（自動体外式除細動器）","latitude":35.45861428,"longitude":139.4580608}},{"type":"Feature","geometry":{"type":"Point","coordinates":[139.456311,35.516238]},"properties":{"cartodb_id":51,"__4":1,"ref":10,"id":51,"ref_yamato_type":"24時間コンビニAED","__3":"なし","__2":" 24/7","opening_hour":" 24/7","aed_type":"日本光電 AED2100","description":"設置場所：レジカウンター内","__1":"レジカウンター内","address":"大和市下鶴間44－1","_":"ファミリーマートつきみ野入口店","name":"ファミリーマートつきみ野入口店 AED","name_en":"AED(Automated External Defibrillator)","name_ja":"AED（自動体外式除細動器）","latitude":35.51623849,"longitude":139.4563111}},{"type":"Feature","geometry":{"type":"Point","coordinates":[139.458127,35.439586]},"properties":{"cartodb_id":52,"__4":1,"ref":11,"id":52,"ref_yamato_type":"24時間コンビニAED","__3":"なし","__2":" 24/7","opening_hour":" 24/7","aed_type":"日本光電 AED2100","description":"設置場所：レジカウンター内","__1":"レジカウンター内","address":"大和市代官2－17－4","_":"ファミリーマート大和代官二丁目店","name":"ファミリーマート大和代官二丁目店 AED","name_en":"AED(Automated External Defibrillator)","name_ja":"AED（自動体外式除細動器）","latitude":35.43958642,"longitude":139.4581271}},{"type":"Feature","geometry":{"type":"Point","coordinates":[139.453846,35.439087]},"properties":{"cartodb_id":53,"__4":1,"ref":12,"id":53,"ref_yamato_type":"24時間コンビニAED","__3":"なし","__2":" 24/7","opening_hour":" 24/7","aed_type":"日本光電 AED2100","description":"設置場所：レジカウンター内","__1":"レジカウンター内","address":"大和市代官4－18－6","_":"ファミリーマート大和代官四丁目店","name":"ファミリーマート大和代官四丁目店 AED","name_en":"AED(Automated External Defibrillator)","name_ja":"AED（自動体外式除細動器）","latitude":35.43908654,"longitude":139.4538464}},{"type":"Feature","geometry":{"type":"Point","coordinates":[139.444913,35.471909]},"properties":{"cartodb_id":54,"__4":1,"ref":13,"id":54,"ref_yamato_type":"24時間コンビニAED","__3":"なし","__2":" 24/7","opening_hour":" 24/7","aed_type":"日本光電 AED2100","description":"設置場所：レジカウンター内","__1":"レジカウンター内","address":"大和市上草柳104-3","_":"ファミリーマート大和上草柳店","name":"ファミリーマート大和上草柳店 AED","name_en":"AED(Automated External Defibrillator)","name_ja":"AED（自動体外式除細動器）","latitude":35.47190859,"longitude":139.4449126}},{"type":"Feature","geometry":{"type":"Point","coordinates":[139.466883,35.463406]},"properties":{"cartodb_id":55,"__4":1,"ref":14,"id":55,"ref_yamato_type":"24時間コンビニAED","__3":"なし","__2":" 24/7","opening_hour":" 24/7","aed_type":"日本光電 AED2100","description":"設置場所：レジカウンター内","__1":"レジカウンター内","address":"大和市大和南2-13-12","_":"ファミリーマート大和南二丁目店","name":"ファミリーマート大和南二丁目店 AED","name_en":"AED(Automated External Defibrillator)","name_ja":"AED（自動体外式除細動器）","latitude":35.46340567,"longitude":139.4668831}},{"type":"Feature","geometry":{"type":"Point","coordinates":[139.464905,35.432319]},"properties":{"cartodb_id":56,"__4":1,"ref":15,"id":56,"ref_yamato_type":"24時間コンビニAED","__3":"なし","__2":" 24/7","opening_hour":" 24/7","aed_type":"日本光電 AED2100","description":"設置場所：レジカウンター内","__1":"レジカウンター内","address":"大和市福田2016-2","_":"ファミリーマート高座渋谷駅店","name":"ファミリーマート高座渋谷駅店 AED","name_en":"AED(Automated External Defibrillator)","name_ja":"AED（自動体外式除細動器）","latitude":35.43231851,"longitude":139.4649046}},{"type":"Feature","geometry":{"type":"Point","coordinates":[139.465308,35.473821]},"properties":{"cartodb_id":57,"__4":1,"ref":16,"id":57,"ref_yamato_type":"24時間コンビニAED","__3":"なし","__2":" 24/7","opening_hour":" 24/7","aed_type":"日本光電 AED2100","description":"設置場所：レジカウンター内","__1":"レジカウンター内","address":"大和市大和東3-11-17","_":"ファミリーマート大和東三丁目店","name":"ファミリーマート大和東三丁目店 AED","name_en":"AED(Automated External Defibrillator)","name_ja":"AED（自動体外式除細動器）","latitude":35.47382055,"longitude":139.4653081}},{"type":"Feature","geometry":{"type":"Point","coordinates":[139.448428,35.507027]},"properties":{"cartodb_id":58,"__4":1,"ref":17,"id":58,"ref_yamato_type":"24時間コンビニAED","__3":"なし","__2":" 24/7","opening_hour":" 24/7","aed_type":"日本光電 AED2100","description":"設置場所：レジカウンター内","__1":"レジカウンター内","address":"大和市中央林間4-29-20","_":"ファミリーマートサンズ中央林間四丁目店","name":"ファミリーマートサンズ中央林間四丁目店 AED","name_en":"AED(Automated External Defibrillator)","name_ja":"AED（自動体外式除細動器）","latitude":35.50702747,"longitude":139.4484284}},{"type":"Feature","geometry":{"type":"Point","coordinates":[139.431214,35.503808]},"properties":{"cartodb_id":59,"__4":1,"ref":18,"id":59,"ref_yamato_type":"24時間コンビニAED","__3":"なし","__2":" 24/7","opening_hour":" 24/7","aed_type":"フィリップス FRX","description":"設置場所：レジカウンター内","__1":"レジカウンター内","address":"大和市中央林間西6-10-54","_":"ファミリーマート中央林間西六丁目店","name":"ファミリーマート中央林間西六丁目店 AED","name_en":"AED(Automated External Defibrillator)","name_ja":"AED（自動体外式除細動器）","latitude":35.50380829,"longitude":139.4312143}},{"type":"Feature","geometry":{"type":"Point","coordinates":[139.471303,35.43694]},"properties":{"cartodb_id":60,"__4":1,"ref":1,"id":60,"ref_yamato_type":"24時間コンビニAED","__3":"なし","__2":" 24/7","opening_hour":" 24/7","aed_type":"日本光電 AED2100","description":"設置場所：レジカウンター内","__1":"レジカウンター内","address":"大和市上和田3294","_":"スリーエフ大和上和田団地店","name":"スリーエフ大和上和田団地店 AED","name_en":"AED(Automated External Defibrillator)","name_ja":"AED（自動体外式除細動器）","latitude":35.43694035,"longitude":139.4713031}},{"type":"Feature","geometry":{"type":"Point","coordinates":[139.43999,35.470312]},"properties":{"cartodb_id":61,"__4":1,"ref":2,"id":61,"ref_yamato_type":"24時間コンビニAED","__3":"なし","__2":" 24/7","opening_hour":" 24/7","aed_type":"日本光電 AED2100","description":"設置場所：レジカウンター内","__1":"レジカウンター内","address":"大和市桜森2－8－15","_":"スリーエフ相模大塚駅前店","name":"スリーエフ相模大塚駅前店 AED","name_en":"AED(Automated External Defibrillator)","name_ja":"AED（自動体外式除細動器）","latitude":35.4703119,"longitude":139.4399903}},{"type":"Feature","geometry":{"type":"Point","coordinates":[139.46049,35.469789]},"properties":{"cartodb_id":62,"__4":1,"ref":3,"id":62,"ref_yamato_type":"24時間コンビニAED","__3":"なし","__2":" 24/7","opening_hour":" 24/7","aed_type":"日本光電 AED2100","description":"設置場所：レジカウンター内","__1":"レジカウンター内","address":"大和市中央4－1－24","_":"スリーエフ大和駅前店","name":"スリーエフ大和駅前店 AED","name_en":"AED(Automated External Defibrillator)","name_ja":"AED（自動体外式除細動器）","latitude":35.46978894,"longitude":139.4604904}},{"type":"Feature","geometry":{"type":"Point","coordinates":[139.449425,35.485452]},"properties":{"cartodb_id":63,"__4":1,"ref":4,"id":63,"ref_yamato_type":"24時間コンビニAED","__3":"なし","__2":" 24/7","opening_hour":" 24/7","aed_type":"日本光電 AED2100","description":"設置場所：レジカウンター内","__1":"レジカウンター内","address":"大和市西鶴間4－7－5","_":"スリーエフ大和西鶴間店","name":"スリーエフ大和西鶴間店 AED","name_en":"AED(Automated External Defibrillator)","name_ja":"AED（自動体外式除細動器）","latitude":35.48545223,"longitude":139.4494255}},{"type":"Feature","geometry":{"type":"Point","coordinates":[139.464432,35.432005]},"properties":{"cartodb_id":64,"__4":1,"ref":5,"id":64,"ref_yamato_type":"24時間コンビニAED","__3":"なし","__2":" 24/7","opening_hour":" 24/7","aed_type":"日本光電 AED2100","description":"設置場所：レジカウンター内","__1":"レジカウンター内","address":"大和市福田2017","_":"スリーエフ高座渋谷駅西口店","name":"スリーエフ高座渋谷駅西口店 AED","name_en":"AED(Automated External Defibrillator)","name_ja":"AED（自動体外式除細動器）","latitude":35.43200513,"longitude":139.464432}},{"type":"Feature","geometry":{"type":"Point","coordinates":[139.462048,35.474008]},"properties":{"cartodb_id":65,"__4":1,"ref":6,"id":65,"ref_yamato_type":"24時間コンビニAED","__3":"なし","__2":" 24/7","opening_hour":" 24/7","aed_type":"日本光電 AED2100","description":"設置場所：レジカウンター内","__1":"レジカウンター内","address":"大和市大和東2－9－17","_":"スリーエフ大和東店","name":"スリーエフ大和東店 AED","name_en":"AED(Automated External Defibrillator)","name_ja":"AED（自動体外式除細動器）","latitude":35.47400799,"longitude":139.4620479}},{"type":"Feature","geometry":{"type":"Point","coordinates":[139.451273,35.490005]},"properties":{"cartodb_id":66,"__4":1,"ref":1,"id":66,"ref_yamato_type":"24時間コンビニAED","__3":"なし","__2":" 24/7","opening_hour":" 24/7","aed_type":"フィリップスＨＳ-１","description":"設置場所：レジカウンター内","__1":"レジカウンター内","address":"大和市鶴間2－1－24","_":"ローソン大和鶴間駅前店","name":"ローソン大和鶴間駅前店 AED","name_en":"AED(Automated External Defibrillator)","name_ja":"AED（自動体外式除細動器）","latitude":35.4900047,"longitude":139.4512729}},{"type":"Feature","geometry":{"type":"Point","coordinates":[139.449248,35.488338]},"properties":{"cartodb_id":67,"__4":1,"ref":2,"id":67,"ref_yamato_type":"24時間コンビニAED","__3":"なし","__2":" 24/7","opening_hour":" 24/7","aed_type":"フィリップスＨＳ-１","description":"設置場所：レジカウンター内","__1":"レジカウンター内","address":"大和市西鶴間3-13-23","_":"ローソン西鶴間三丁目店","name":"ローソン西鶴間三丁目店 AED","name_en":"AED(Automated External Defibrillator)","name_ja":"AED（自動体外式除細動器）","latitude":35.48833783,"longitude":139.4492482}},{"type":"Feature","geometry":{"type":"Point","coordinates":[139.450743,35.483176]},"properties":{"cartodb_id":68,"__4":1,"ref":3,"id":68,"ref_yamato_type":"24時間コンビニAED","__3":"なし","__2":" 24/7","opening_hour":" 24/7","aed_type":"フィリップスＨＳ-１","description":"設置場所：レジカウンター内","__1":"レジカウンター内","address":"大和市上草柳8－16－18","_":"ローソン上草柳八丁目店","name":"ローソン上草柳八丁目店 AED","name_en":"AED(Automated External Defibrillator)","name_ja":"AED（自動体外式除細動器）","latitude":35.48317571,"longitude":139.4507432}},{"type":"Feature","geometry":{"type":"Point","coordinates":[139.452913,35.479834]},"properties":{"cartodb_id":69,"__4":1,"ref":4,"id":69,"ref_yamato_type":"24時間コンビニAED","__3":"なし","__2":" 24/7","opening_hour":" 24/7","aed_type":"フィリップスＨＳ-１","description":"設置場所：レジカウンター内","__1":"レジカウンター内","address":"大和市上草柳5－4－6","_":"ローソン上草柳五丁目店","name":"ローソン上草柳五丁目店 AED","name_en":"AED(Automated External Defibrillator)","name_ja":"AED（自動体外式除細動器）","latitude":35.47983403,"longitude":139.4529128}},{"type":"Feature","geometry":{"type":"Point","coordinates":[139.464827,35.482639]},"properties":{"cartodb_id":70,"__4":1,"ref":5,"id":70,"ref_yamato_type":"24時間コンビニAED","__3":"なし","__2":" 24/7","opening_hour":" 24/7","aed_type":"フィリップスＨＳ-１","description":"設置場所：レジカウンター内","__1":"レジカウンター内","address":"大和市深見東3－1－6","_":"ローソン大和深見東三丁目店","name":"ローソン大和深見東三丁目店 AED","name_en":"AED(Automated External Defibrillator)","name_ja":"AED（自動体外式除細動器）","latitude":35.48263937,"longitude":139.4648268}},{"type":"Feature","geometry":{"type":"Point","coordinates":[139.450172,35.501069]},"properties":{"cartodb_id":71,"__4":1,"ref":6,"id":71,"ref_yamato_type":"24時間コンビニAED","__3":"なし","__2":" 24/7","opening_hour":" 24/7","aed_type":"フィリップスＨＳ-１","description":"設置場所：レジカウンター内","__1":"レジカウンター内","address":"大和市下鶴間1774","_":"ローソン大和下鶴間店","name":"ローソン大和下鶴間店 AED","name_en":"AED(Automated External Defibrillator)","name_ja":"AED（自動体外式除細動器）","latitude":35.50106865,"longitude":139.4501716}},{"type":"Feature","geometry":{"type":"Point","coordinates":[139.462153,35.444117]},"properties":{"cartodb_id":158,"__4":1,"ref":58,"id":158,"ref_yamato_type":"公共施設AED","__3":"","__2":"","opening_hour":"開校時間内","aed_type":"日本光電 AED2100","description":"設置場所：1階昇降口","__1":"1階昇降口","address":"大和市福田5-22-1","_":"福田小学校","name":"福田小学校 AED","name_en":"AED(Automated External Defibrillator)","name_ja":"AED（自動体外式除細動器）","latitude":35.44411749,"longitude":139.4621531}},{"type":"Feature","geometry":{"type":"Point","coordinates":[139.435933,35.501021]},"properties":{"cartodb_id":72,"__4":1,"ref":7,"id":72,"ref_yamato_type":"24時間コンビニAED","__3":"なし","__2":" 24/7","opening_hour":" 24/7","aed_type":"フィリップスＨＳ-１","description":"設置場所：レジカウンター内","__1":"レジカウンター内","address":"大和市中央林間西2－17－22","_":"ローソン大和中央林間西二丁目店","name":"ローソン大和中央林間西二丁目店 AED","name_en":"AED(Automated External Defibrillator)","name_ja":"AED（自動体外式除細動器）","latitude":35.50102121,"longitude":139.4359326}},{"type":"Feature","geometry":{"type":"Point","coordinates":[139.462316,35.47025]},"properties":{"cartodb_id":73,"__4":1,"ref":8,"id":73,"ref_yamato_type":"24時間コンビニAED","__3":"なし","__2":" 24/7","opening_hour":" 24/7","aed_type":"フィリップスＨＳ-１","description":"設置場所：レジカウンター内","__1":"レジカウンター内","address":"大和市大和東1－4－20","_":"ローソン大和駅前店","name":"ローソン大和駅前店 AED","name_en":"AED(Automated External Defibrillator)","name_ja":"AED（自動体外式除細動器）","latitude":35.4702498,"longitude":139.4623158}},{"type":"Feature","geometry":{"type":"Point","coordinates":[139.462277,35.508013]},"properties":{"cartodb_id":74,"__4":1,"ref":9,"id":74,"ref_yamato_type":"24時間コンビニAED","__3":"なし","__2":" 24/7","opening_hour":" 24/7","aed_type":"フィリップスＨＳ-１","description":"設置場所：レジカウンター内","__1":"レジカウンター内","address":"大和市下鶴間697－1","_":"ローソンつきみ野店","name":"ローソンつきみ野店 AED","name_en":"AED(Automated External Defibrillator)","name_ja":"AED（自動体外式除細動器）","latitude":35.50801304,"longitude":139.4622775}},{"type":"Feature","geometry":{"type":"Point","coordinates":[139.471277,35.451366]},"properties":{"cartodb_id":75,"__4":1,"ref":10,"id":75,"ref_yamato_type":"24時間コンビニAED","__3":"なし","__2":" 24/7","opening_hour":" 24/7","aed_type":"フィリップスＨＳ-１","description":"設置場所：レジカウンター内","__1":"レジカウンター内","address":"大和市上和田1026－1","_":"ローソン上和田店","name":"ローソン上和田店 AED","name_en":"AED(Automated External Defibrillator)","name_ja":"AED（自動体外式除細動器）","latitude":35.45136596,"longitude":139.4712774}},{"type":"Feature","geometry":{"type":"Point","coordinates":[139.46736,35.449001]},"properties":{"cartodb_id":76,"__4":1,"ref":11,"id":76,"ref_yamato_type":"24時間コンビニAED","__3":"なし","__2":" 24/7","opening_hour":" 24/7","aed_type":"フィリップスＨＳ-１","description":"設置場所：レジカウンター内","__1":"レジカウンター内","address":"大和市上和田1790－1","_":"ローソン桜ヶ丘南店","name":"ローソン桜ヶ丘南店 AED","name_en":"AED(Automated External Defibrillator)","name_ja":"AED（自動体外式除細動器）","latitude":35.44900069,"longitude":139.4673603}},{"type":"Feature","geometry":{"type":"Point","coordinates":[139.45717,35.46312]},"properties":{"cartodb_id":77,"__4":1,"ref":12,"id":77,"ref_yamato_type":"24時間コンビニAED","__3":"なし","__2":" 24/7","opening_hour":" 24/7","aed_type":"フィリップスＨＳ-１","description":"設置場所：レジカウンター内","__1":"レジカウンター内","address":"大和市草柳2-21-1","_":"ローソン大和草柳二丁目店","name":"ローソン大和草柳二丁目店 AED","name_en":"AED(Automated External Defibrillator)","name_ja":"AED（自動体外式除細動器）","latitude":35.46311959,"longitude":139.4571699}},{"type":"Feature","geometry":{"type":"Point","coordinates":[139.466168,35.42971]},"properties":{"cartodb_id":78,"__4":1,"ref":13,"id":78,"ref_yamato_type":"24時間コンビニAED","__3":"なし","__2":" 24/7","opening_hour":" 24/7","aed_type":"フィリップスＨＳ-１","description":"設置場所：レジカウンター内","__1":"レジカウンター内","address":"大和市下和田906-1","_":"ローソン大和高座渋谷東店","name":"ローソン大和高座渋谷東店 AED","name_en":"AED(Automated External Defibrillator)","name_ja":"AED（自動体外式除細動器）","latitude":35.42971048,"longitude":139.4661682}},{"type":"Feature","geometry":{"type":"Point","coordinates":[139.443555,35.493753]},"properties":{"cartodb_id":79,"__4":1,"ref":14,"id":79,"ref_yamato_type":"24時間コンビニAED","__3":"なし","__2":" 24/7","opening_hour":" 24/7","aed_type":"フィリップスＨＳ-１","description":"設置場所：レジカウンター内","__1":"レジカウンター内","address":"大和市南林間4-7-18","_":"ローソン大和南林間五条通り店","name":"ローソン大和南林間五条通り店 AED","name_en":"AED(Automated External Defibrillator)","name_ja":"AED（自動体外式除細動器）","latitude":35.49375292,"longitude":139.4435546}},{"type":"Feature","geometry":{"type":"Point","coordinates":[139.462016,35.461218]},"properties":{"cartodb_id":80,"__4":1,"ref":15,"id":80,"ref_yamato_type":"24時間コンビニAED","__3":"なし","__2":" 24/7","opening_hour":" 24/7","aed_type":"フィリップスＨＳ-１","description":"設置場所：レジカウンター内","__1":"レジカウンター内","address":"大和市柳橋1-22-1","_":"ローソン大和柳橋一丁目店","name":"ローソン大和柳橋一丁目店 AED","name_en":"AED(Automated External Defibrillator)","name_ja":"AED（自動体外式除細動器）","latitude":35.46121774,"longitude":139.4620163}},{"type":"Feature","geometry":{"type":"Point","coordinates":[139.46483,35.450356]},"properties":{"cartodb_id":81,"__4":1,"ref":16,"id":81,"ref_yamato_type":"24時間コンビニAED","__3":"なし","__2":" 24/7","opening_hour":" 24/7","aed_type":"フィリップスFRX","description":"設置場所：レジカウンター内","__1":"レジカウンター内","address":"大和市福田2-3-2","_":"ローソン小田急桜ヶ丘店","name":"ローソン小田急桜ヶ丘店 AED","name_en":"AED(Automated External Defibrillator)","name_ja":"AED（自動体外式除細動器）","latitude":35.45035585,"longitude":139.46483}},{"type":"Feature","geometry":{"type":"Point","coordinates":[139.468679,35.425106]},"properties":{"cartodb_id":82,"__4":1,"ref":17,"id":82,"ref_yamato_type":"24時間コンビニAED","__3":"なし","__2":" 24/7","opening_hour":" 24/7","aed_type":"フィリップスＨＳ-１","description":"設置場所：レジカウンター内","__1":"レジカウンター内","address":"大和市下和田771-1","_":"ローソン大和下和田店","name":"ローソン大和下和田店 AED","name_en":"AED(Automated External Defibrillator)","name_ja":"AED（自動体外式除細動器）","latitude":35.42510555,"longitude":139.4686791}},{"type":"Feature","geometry":{"type":"Point","coordinates":[139.457601,35.50979]},"properties":{"cartodb_id":83,"__4":1,"ref":18,"id":83,"ref_yamato_type":"24時間コンビニAED","__3":"なし","__2":" 24/7","opening_hour":" 24/7","aed_type":"フィリップスＨＳ-１","description":"設置場所：レジカウンター内","__1":"レジカウンター内","address":"大和市つきみ野3－24－3","_":"ローソンつきみ野駅前店","name":"ローソンつきみ野駅前店 AED","name_en":"AED(Automated External Defibrillator)","name_ja":"AED（自動体外式除細動器）","latitude":35.50979002,"longitude":139.4576007}},{"type":"Feature","geometry":{"type":"Point","coordinates":[139.467137,35.465355]},"properties":{"cartodb_id":84,"__4":1,"ref":19,"id":84,"ref_yamato_type":"24時間コンビニAED","__3":"なし","__2":" 24/7","opening_hour":" 24/7","aed_type":"フィリップスFRX","description":"設置場所：レジカウンター内","__1":"レジカウンター内","address":"大和市深見台1-7-29","_":"ローソン大和深見台店","name":"ローソン大和深見台店 AED","name_en":"AED(Automated External Defibrillator)","name_ja":"AED（自動体外式除細動器）","latitude":35.465355,"longitude":139.467137}},{"type":"Feature","geometry":{"type":"Point","coordinates":[139.460577,35.464297]},"properties":{"cartodb_id":85,"__4":1,"ref":1,"id":85,"ref_yamato_type":"24時間コンビニAED","__3":"なし","__2":" 24/7","opening_hour":" 24/7","aed_type":"フィリップスＨＳ-１","description":"設置場所：レジカウンター内","__1":"レジカウンター内","address":"大和市中央6-6-27","_":"ローソン ストア100大和中央六丁目店","name":"ローソン ストア100大和中央六丁目店 AED","name_en":"AED(Automated External Defibrillator)","name_ja":"AED（自動体外式除細動器）","latitude":35.46429722,"longitude":139.460577}},{"type":"Feature","geometry":{"type":"Point","coordinates":[139.445778,35.496374]},"properties":{"cartodb_id":86,"__4":1,"ref":2,"id":86,"ref_yamato_type":"24時間コンビニAED","__3":"なし","__2":" 24/7","opening_hour":" 24/7","aed_type":"フィリップスＨＳ-１","description":"設置場所：レジカウンター内","__1":"レジカウンター内","address":"大和市南林間2－9－3","_":"ローソン ストア100南林間店","name":"ローソン ストア100南林間店 AED","name_en":"AED(Automated External Defibrillator)","name_ja":"AED（自動体外式除細動器）","latitude":35.49637432,"longitude":139.4457782}},{"type":"Feature","geometry":{"type":"Point","coordinates":[139.437532,35.491449]},"properties":{"cartodb_id":87,"__4":1,"ref":3,"id":87,"ref_yamato_type":"24時間コンビニAED","__3":"なし","__2":" 24/7","opening_hour":" 24/7","aed_type":"フィリップスＨＳ-１","description":"設置場所：レジカウンター内","__1":"レジカウンター内","address":"大和市南林間7－13－9","_":"ローソン ストア100南林間十一条店","name":"ローソン ストア100南林間十一条店 AED","name_en":"AED(Automated External Defibrillator)","name_ja":"AED（自動体外式除細動器）","latitude":35.49144864,"longitude":139.4375321}},{"type":"Feature","geometry":{"type":"Point","coordinates":[139.465122,35.477413]},"properties":{"cartodb_id":88,"__4":1,"ref":4,"id":88,"ref_yamato_type":"24時間コンビニAED","__3":"なし","__2":" 24/7","opening_hour":" 24/7","aed_type":"フィリップスＨＳ-１","description":"設置場所：レジカウンター内","__1":"レジカウンター内","address":"大和市深見東1－1－13","_":"ローソン ストア100大和深見東店","name":"ローソン ストア100大和深見東店 AED","name_en":"AED(Automated External Defibrillator)","name_ja":"AED（自動体外式除細動器）","latitude":35.47741281,"longitude":139.4651217}},{"type":"Feature","geometry":{"type":"Point","coordinates":[139.458972,35.474095]},"properties":{"cartodb_id":89,"__4":1,"ref":5,"id":89,"ref_yamato_type":"24時間コンビニAED","__3":"なし","__2":" 24/7","opening_hour":" 24/7","aed_type":"フィリップスＨＳ-１","description":"設置場所：レジカウンター内","__1":"レジカウンター内","address":"大和市中央2－13－23","_":"ローソン ストア100大和中央二丁目店","name":"ローソン ストア100大和中央二丁目店 AED","name_en":"AED(Automated External Defibrillator)","name_ja":"AED（自動体外式除細動器）","latitude":35.4740948,"longitude":139.4589717}},{"type":"Feature","geometry":{"type":"Point","coordinates":[139.451406,35.510689]},"properties":{"cartodb_id":90,"__4":1,"ref":1,"id":90,"ref_yamato_type":"24時間コンビニAED","__3":"なし","__2":" 24/7","opening_hour":" 24/7","aed_type":"日本光電 AED2100","description":"設置場所：レジカウンター内","__1":"レジカウンター内","address":"大和市下鶴間1554-5","_":"サークルKサンクス大和下鶴間北店","name":"サークルKサンクス大和下鶴間北店 AED","name_en":"AED(Automated External Defibrillator)","name_ja":"AED（自動体外式除細動器）","latitude":35.51068895,"longitude":139.4514056}},{"type":"Feature","geometry":{"type":"Point","coordinates":[139.453604,35.483717]},"properties":{"cartodb_id":159,"__4":1,"ref":59,"id":159,"ref_yamato_type":"公共施設AED","__3":"","__2":"","opening_hour":"開校時間内","aed_type":"日本光電 AED2100","description":"設置場所：1階昇降口","__1":"1階昇降口","address":"大和市上草柳7-2-26","_":"大野原小学校","name":"大野原小学校 AED","name_en":"AED(Automated External Defibrillator)","name_ja":"AED（自動体外式除細動器）","latitude":35.48371741,"longitude":139.453604}},{"type":"Feature","geometry":{"type":"Point","coordinates":[139.447818,35.493486]},"properties":{"cartodb_id":91,"__4":1,"ref":2,"id":91,"ref_yamato_type":"24時間コンビニAED","__3":"なし","__2":" 24/7","opening_hour":" 24/7","aed_type":"日本光電 AED2100","description":"設置場所：レジカウンター内","__1":"レジカウンター内","address":"大和市南林間1-2-14","_":"サークルKサンクス南林間店","name":"サークルKサンクス南林間店 AED","name_en":"AED(Automated External Defibrillator)","name_ja":"AED（自動体外式除細動器）","latitude":35.49348583,"longitude":139.4478176}},{"type":"Feature","geometry":{"type":"Point","coordinates":[139.463783,35.486278]},"properties":{"cartodb_id":92,"__4":1,"ref":3,"id":92,"ref_yamato_type":"24時間コンビニAED","__3":"なし","__2":" 24/7","opening_hour":" 24/7","aed_type":"日本光電 AED2100","description":"設置場所：レジカウンター内","__1":"レジカウンター内","address":"大和市深見西6-7-25","_":"サークルKサンクス大和深見西６丁目店","name":"サークルKサンクス大和深見西６丁目店 AED","name_en":"AED(Automated External Defibrillator)","name_ja":"AED（自動体外式除細動器）","latitude":35.48627828,"longitude":139.4637828}},{"type":"Feature","geometry":{"type":"Point","coordinates":[139.44124,35.483602]},"properties":{"cartodb_id":93,"__4":1,"ref":4,"id":93,"ref_yamato_type":"24時間コンビニAED","__3":"なし","__2":" 24/7","opening_hour":" 24/7","aed_type":"日本光電 AED2100","description":"設置場所：レジカウンター内","__1":"レジカウンター内","address":"大和市西鶴間8-1-5","_":"サークルKサンクス大和西鶴間店","name":"サークルKサンクス大和西鶴間店 AED","name_en":"AED(Automated External Defibrillator)","name_ja":"AED（自動体外式除細動器）","latitude":35.48360153,"longitude":139.44124}},{"type":"Feature","geometry":{"type":"Point","coordinates":[139.468308,35.430306]},"properties":{"cartodb_id":94,"__4":1,"ref":5,"id":94,"ref_yamato_type":"24時間コンビニAED","__3":"なし","__2":" 24/7","opening_hour":" 24/7","aed_type":"日本光電 AED2100","description":"設置場所：レジカウンター内","__1":"レジカウンター内","address":"大和市下和田960","_":"サークルKサンクス大和下和田店","name":"サークルKサンクス大和下和田店 AED","name_en":"AED(Automated External Defibrillator)","name_ja":"AED（自動体外式除細動器）","latitude":35.43030586,"longitude":139.4683083}},{"type":"Feature","geometry":{"type":"Point","coordinates":[139.459053,35.483116]},"properties":{"cartodb_id":95,"__4":1,"ref":6,"id":95,"ref_yamato_type":"24時間コンビニAED","__3":"なし","__2":" 24/7","opening_hour":" 24/7","aed_type":"日本光電 AED2100","description":"設置場所：レジカウンター内","__1":"レジカウンター内","address":"大和市深見西6-1ｰ2","_":"サークルKサンクス大和深見西店","name":"サークルKサンクス大和深見西店 AED","name_en":"AED(Automated External Defibrillator)","name_ja":"AED（自動体外式除細動器）","latitude":35.483116,"longitude":139.459053}},{"type":"Feature","geometry":{"type":"Point","coordinates":[139.45206,35.501223]},"properties":{"cartodb_id":96,"__4":1,"ref":1,"id":96,"ref_yamato_type":"24時間コンビニAED","__3":"なし","__2":" 24/7","opening_hour":" 24/7","aed_type":"日本光電 AED2100","description":"設置場所：レジカウンター内","__1":"レジカウンター内","address":"大和市下鶴間1785-10大和市下鶴間1785-10","_":"ミニストップ大和下鶴間店","name":"ミニストップ大和下鶴間店 AED","name_en":"AED(Automated External Defibrillator)","name_ja":"AED（自動体外式除細動器）","latitude":35.50122303,"longitude":139.4520599}},{"type":"Feature","geometry":{"type":"Point","coordinates":[139.464419,35.457551]},"properties":{"cartodb_id":97,"__4":1,"ref":4,"id":97,"ref_yamato_type":"24時間コンビニAED","__3":"なし","__2":" 24/7","opening_hour":" 24/7","aed_type":"日本光電 AED2100","description":"設置場所：レジカウンター内","__1":"レジカウンター内","address":"大和市柳橋2-15-5","_":"ミニストップ大和柳橋店","name":"ミニストップ大和柳橋店 AED","name_en":"AED(Automated External Defibrillator)","name_ja":"AED（自動体外式除細動器）","latitude":35.45755129,"longitude":139.4644194}},{"type":"Feature","geometry":{"type":"Point","coordinates":[139.457652,35.459916]},"properties":{"cartodb_id":98,"__4":1,"ref":3,"id":98,"ref_yamato_type":"24時間コンビニAED","__3":"なし","__2":" 24/7","opening_hour":" 24/7","aed_type":"日本光電 AED2100","description":"設置場所：レジカウンター内","__1":"レジカウンター内","address":"大和市草柳3-22-1","_":"ミニストップ大和草柳３丁目店","name":"ミニストップ大和草柳３丁目店 AED","name_en":"AED(Automated External Defibrillator)","name_ja":"AED（自動体外式除細動器）","latitude":35.45991646,"longitude":139.4576517}},{"type":"Feature","geometry":{"type":"Point","coordinates":[139.438173,35.475133]},"properties":{"cartodb_id":99,"__4":1,"ref":2,"id":99,"ref_yamato_type":"24時間コンビニAED","__3":"なし","__2":" 24/7","opening_hour":" 24/7","aed_type":"日本光電 AED2100","description":"設置場所：レジカウンター内","__1":"レジカウンター内","address":"大和市上草柳170-5","_":"ミニストップ大和上草柳店","name":"ミニストップ大和上草柳店 AED","name_en":"AED(Automated External Defibrillator)","name_ja":"AED（自動体外式除細動器）","latitude":35.47513315,"longitude":139.4381731}},{"type":"Feature","geometry":{"type":"Point","coordinates":[139.458246,35.440514]},"properties":{"cartodb_id":100,"__4":1,"ref":5,"id":100,"ref_yamato_type":"24時間コンビニAED","__3":"なし","__2":" 24/7","opening_hour":" 24/7","aed_type":"日本光電 AED2100","description":"設置場所：レジカウンター内","__1":"レジカウンター内","address":"大和市代官2-6-6","_":"ミニストップ大和代官二丁目店","name":"ミニストップ大和代官二丁目店 AED","name_en":"AED(Automated External Defibrillator)","name_ja":"AED（自動体外式除細動器）","latitude":35.44051408,"longitude":139.4582458}},{"type":"Feature","geometry":{"type":"Point","coordinates":[139.45785,35.487471]},"properties":{"cartodb_id":101,"__4":1,"ref":1,"id":101,"ref_yamato_type":"公共施設AED","__3":"土・日・祝","__2":"8:30～17:00","opening_hour":"開館時間内","aed_type":"日本光電 AED2100","description":"設置場所：1階ロビー","__1":"1階ロビー","address":"大和市下鶴間1-1-1","_":"大和市役所","name":"大和市役所 AED","name_en":"AED(Automated External Defibrillator)","name_ja":"AED（自動体外式除細動器）","latitude":35.48747063,"longitude":139.4578495}},{"type":"Feature","geometry":{"type":"Point","coordinates":[139.461326,35.476154]},"properties":{"cartodb_id":102,"__4":1,"ref":2,"id":102,"ref_yamato_type":"公共施設AED","__3":"","__2":"","opening_hour":"開館時間内","aed_type":"日本光電 AED2100","description":"設置場所：1階ロビー","__1":"1階ロビー","address":"大和市深見西1-3-17","_":"生涯学習センター","name":"生涯学習センター AED","name_en":"AED(Automated External Defibrillator)","name_ja":"AED（自動体外式除細動器）","latitude":35.47615411,"longitude":139.4613263}},{"type":"Feature","geometry":{"type":"Point","coordinates":[139.464094,35.43295]},"properties":{"cartodb_id":103,"__4":1,"ref":3,"id":103,"ref_yamato_type":"公共施設AED","__3":"","__2":"","opening_hour":"開館時間内","aed_type":"日本光電 AED2100","description":"設置場所：玄関ホール","__1":"玄関ホール","address":"大和市福田2021-2","_":"渋谷学習センター","name":"渋谷学習センター AED","name_en":"AED(Automated External Defibrillator)","name_ja":"AED（自動体外式除細動器）","latitude":35.43294967,"longitude":139.4640943}},{"type":"Feature","geometry":{"type":"Point","coordinates":[139.44577,35.500956]},"properties":{"cartodb_id":104,"__4":1,"ref":4,"id":104,"ref_yamato_type":"公共施設AED","__3":"","__2":"","opening_hour":"開館時間内","aed_type":"日本光電 AED2100","description":"設置場所：1階ロビー","__1":"1階ロビー","address":"大和市林間2-6-18","_":"林間学習センター","name":"林間学習センター AED","name_en":"AED(Automated External Defibrillator)","name_ja":"AED（自動体外式除細動器）","latitude":35.50095631,"longitude":139.4457696}},{"type":"Feature","geometry":{"type":"Point","coordinates":[139.454289,35.510901]},"properties":{"cartodb_id":105,"__4":1,"ref":5,"id":105,"ref_yamato_type":"公共施設AED","__3":"","__2":"","opening_hour":"開館時間内","aed_type":"日本光電 AED2100","description":"設置場所：玄関ホール","__1":"玄関ホール","address":"大和市つきみ野5-3-5","_":"つきみ野学習センター","name":"つきみ野学習センター AED","name_en":"AED(Automated External Defibrillator)","name_ja":"AED（自動体外式除細動器）","latitude":35.5109014,"longitude":139.4542889}},{"type":"Feature","geometry":{"type":"Point","coordinates":[139.462691,35.450776]},"properties":{"cartodb_id":106,"__4":1,"ref":6,"id":106,"ref_yamato_type":"公共施設AED","__3":"","__2":"","opening_hour":"開館時間内","aed_type":"日本光電 AED2100","description":"設置場所：1階ロビー","__1":"1階ロビー","address":"大和市福田1-30-1","_":"桜丘学習センター","name":"桜丘学習センター AED","name_en":"AED(Automated External Defibrillator)","name_ja":"AED（自動体外式除細動器）","latitude":35.45077644,"longitude":139.4626914}},{"type":"Feature","geometry":{"type":"Point","coordinates":[139.461453,35.475455]},"properties":{"cartodb_id":107,"__4":1,"ref":7,"id":107,"ref_yamato_type":"公共施設AED","__3":"","__2":"","opening_hour":"開館時間内","aed_type":"日本光電 AED2100","description":"設置場所：1階ロビー","__1":"1階ロビー","address":"大和市深見西1-2-17","_":"図書館","name":"図書館 AED","name_en":"AED(Automated External Defibrillator)","name_ja":"AED（自動体外式除細動器）","latitude":35.47545547,"longitude":139.4614534}},{"type":"Feature","geometry":{"type":"Point","coordinates":[139.462806,35.466425]},"properties":{"cartodb_id":108,"__4":1,"ref":8,"id":108,"ref_yamato_type":"公共施設AED","__3":"","__2":"","opening_hour":"開館時間内","aed_type":"日本光電 AED2100","description":"設置場所：1階ロビー","__1":"1階ロビー","address":"大和市中央1-5-14","_":"青少年センター","name":"青少年センター AED","name_en":"AED(Automated External Defibrillator)","name_ja":"AED（自動体外式除細動器）","latitude":35.46642515,"longitude":139.4628061}},{"type":"Feature","geometry":{"type":"Point","coordinates":[139.464383,35.432955]},"properties":{"cartodb_id":109,"__4":1,"ref":9,"id":109,"ref_yamato_type":"公共施設AED","__3":"","__2":"","opening_hour":"開館時間内","aed_type":"日本光電 AED2100","description":"設置場所：事務所内","__1":"事務所内","address":"大和市福田2021-2","_":"渋谷分室","name":"渋谷分室 AED","name_en":"AED(Automated External Defibrillator)","name_ja":"AED（自動体外式除細動器）","latitude":35.43295531,"longitude":139.4643834}},{"type":"Feature","geometry":{"type":"Point","coordinates":[139.43932,35.505161]},"properties":{"cartodb_id":110,"__4":1,"ref":10,"id":110,"ref_yamato_type":"公共施設AED","__3":"","__2":"","opening_hour":"開館時間内","aed_type":"日本光電 AED2100","description":"設置場所：玄関ホール","__1":"玄関ホール","address":"大和市下鶴間4163-23","_":"コミュニティセンター緑野会館","name":"コミュニティセンター緑野会館 AED","name_en":"AED(Automated External Defibrillator)","name_ja":"AED（自動体外式除細動器）","latitude":35.50516123,"longitude":139.4393198}},{"type":"Feature","geometry":{"type":"Point","coordinates":[139.43819,35.49234]},"properties":{"cartodb_id":111,"__4":1,"ref":11,"id":111,"ref_yamato_type":"公共施設AED","__3":"","__2":"","opening_hour":"開館時間内","aed_type":"日本光電 AED2100","description":"設置場所：玄関ホール","__1":"玄関ホール","address":"大和市南林間7-14-24","_":"コミュニティセンター南林間会館","name":"コミュニティセンター南林間会館 AED","name_en":"AED(Automated External Defibrillator)","name_ja":"AED（自動体外式除細動器）","latitude":35.49234023,"longitude":139.4381896}},{"type":"Feature","geometry":{"type":"Point","coordinates":[139.46657,35.473798]},"properties":{"cartodb_id":112,"__4":1,"ref":12,"id":112,"ref_yamato_type":"公共施設AED","__3":"","__2":"","opening_hour":"開館時間内","aed_type":"日本光電 AED2100","description":"設置場所：玄関ホール","__1":"玄関ホール","address":"大和市深見台4-10-29","_":"コミュニティセンター深見中会館","name":"コミュニティセンター深見中会館 AED","name_en":"AED(Automated External Defibrillator)","name_ja":"AED（自動体外式除細動器）","latitude":35.47379794,"longitude":139.4665704}},{"type":"Feature","geometry":{"type":"Point","coordinates":[139.441049,35.472755]},"properties":{"cartodb_id":113,"__4":1,"ref":13,"id":113,"ref_yamato_type":"公共施設AED","__3":"","__2":"","opening_hour":"開館時間内","aed_type":"日本光電 AED2100","description":"設置場所：玄関ホール","__1":"玄関ホール","address":"大和市桜森3-5-21","_":"コミュニティセンター桜森会館","name":"コミュニティセンター桜森会館 AED","name_en":"AED(Automated External Defibrillator)","name_ja":"AED（自動体外式除細動器）","latitude":35.47275509,"longitude":139.4410495}},{"type":"Feature","geometry":{"type":"Point","coordinates":[139.470676,35.452652]},"properties":{"cartodb_id":114,"__4":1,"ref":14,"id":114,"ref_yamato_type":"公共施設AED","__3":"","__2":"","opening_hour":"開館時間内","aed_type":"日本光電 AED2100","description":"設置場所：玄関ホール","__1":"玄関ホール","address":"大和市上和田860-1","_":"コミュニティセンター桜丘会館","name":"コミュニティセンター桜丘会館 AED","name_en":"AED(Automated External Defibrillator)","name_ja":"AED（自動体外式除細動器）","latitude":35.45265187,"longitude":139.4706756}},{"type":"Feature","geometry":{"type":"Point","coordinates":[139.457002,35.430622]},"properties":{"cartodb_id":115,"__4":1,"ref":15,"id":115,"ref_yamato_type":"公共施設AED","__3":"","__2":"","opening_hour":"開館時間内","aed_type":"日本光電 AED2100","description":"設置場所：玄関ホール","__1":"玄関ホール","address":"大和市福田611-1","_":"コミュニティセンター下福田会館","name":"コミュニティセンター下福田会館 AED","name_en":"AED(Automated External Defibrillator)","name_ja":"AED（自動体外式除細動器）","latitude":35.43062214,"longitude":139.4570016}},{"type":"Feature","geometry":{"type":"Point","coordinates":[139.449651,35.502206]},"properties":{"cartodb_id":116,"__4":1,"ref":16,"id":116,"ref_yamato_type":"公共施設AED","__3":"なし","__2":" 24/7","opening_hour":" 24/7","aed_type":"日本光電 AED2100","description":"設置場所：北分署","__1":"北分署","address":"大和市下鶴間1763-47","_":"消防署北分署","name":"消防署北分署 AED","name_en":"AED(Automated External Defibrillator)","name_ja":"AED（自動体外式除細動器）","latitude":35.50220592,"longitude":139.449651}},{"type":"Feature","geometry":{"type":"Point","coordinates":[139.46181,35.46107]},"properties":{"cartodb_id":117,"__4":1,"ref":17,"id":117,"ref_yamato_type":"公共施設AED","__3":"なし","__2":" 24/7","opening_hour":" 24/7","aed_type":"日本光電 AED2100","description":"設置場所：柳橋出張所","__1":"柳橋出張所","address":"大和市柳橋1-22-4","_":"消防署柳橋出張所","name":"消防署柳橋出張所 AED","name_en":"AED(Automated External Defibrillator)","name_ja":"AED（自動体外式除細動器）","latitude":35.46106996,"longitude":139.4618102}},{"type":"Feature","geometry":{"type":"Point","coordinates":[139.459817,35.481626]},"properties":{"cartodb_id":118,"__4":1,"ref":18,"id":118,"ref_yamato_type":"公共施設AED","__3":"なし","__2":" 24/7","opening_hour":" 24/7","aed_type":"日本光電 AED2100","description":"設置場所：本署","__1":"本署","address":"大和市深見西4-4-6","_":"消防署本署","name":"消防署本署 AED","name_en":"AED(Automated External Defibrillator)","name_ja":"AED（自動体外式除細動器）","latitude":35.4816258,"longitude":139.4598174}},{"type":"Feature","geometry":{"type":"Point","coordinates":[139.46727,35.439228]},"properties":{"cartodb_id":119,"__4":1,"ref":19,"id":119,"ref_yamato_type":"公共施設AED","__3":"なし","__2":" 24/7","opening_hour":" 24/7","aed_type":"日本光電 AED2100","description":"設置場所：南分署","__1":"南分署","address":"大和市上和田2771-12","_":"消防署南分署","name":"消防署南分署 AED","name_en":"AED(Automated External Defibrillator)","name_ja":"AED（自動体外式除細動器）","latitude":35.43922842,"longitude":139.4672696}},{"type":"Feature","geometry":{"type":"Point","coordinates":[139.439472,35.480437]},"properties":{"cartodb_id":120,"__4":1,"ref":20,"id":120,"ref_yamato_type":"公共施設AED","__3":"なし","__2":" 24/7","opening_hour":" 24/7","aed_type":"日本光電 AED2100","description":"設置場所：西出張所","__1":"西出張所","address":"大和市上草柳1842-2","_":"消防署西出張所","name":"消防署西出張所 AED","name_en":"AED(Automated External Defibrillator)","name_ja":"AED（自動体外式除細動器）","latitude":35.48043659,"longitude":139.439472}},{"type":"Feature","geometry":{"type":"Point","coordinates":[139.46001,35.481643]},"properties":{"cartodb_id":121,"__4":1,"ref":21,"id":121,"ref_yamato_type":"公共施設AED","__3":"なし","__2":" 24/7","opening_hour":" 24/7","aed_type":"日本光電 AED2100","description":"設置場所：2階警防課前","__1":"2階警防課前","address":"大和市深見西4-4-6","_":"消防本部","name":"消防本部 AED","name_en":"AED(Automated External Defibrillator)","name_ja":"AED（自動体外式除細動器）","latitude":35.4816427,"longitude":139.4600102}},{"type":"Feature","geometry":{"type":"Point","coordinates":[139.454676,35.490612]},"properties":{"cartodb_id":122,"__4":3,"ref":22,"id":122,"ref_yamato_type":"公共施設AED","__3":"","__2":"","opening_hour":"開館時間内","aed_type":"日本光電 AED2100","description":"設置場所：1階ロビー","__1":"1階ロビー","address":"大和市鶴間1-31-7","_":"大和市保健福祉ｾﾝﾀｰ","name":"大和市保健福祉ｾﾝﾀｰ AED","name_en":"AED(Automated External Defibrillator)","name_ja":"AED（自動体外式除細動器）","latitude":35.49061202,"longitude":139.4546757}},{"type":"Feature","geometry":{"type":"Point","coordinates":[139.45889,35.513893]},"properties":{"cartodb_id":123,"__4":1,"ref":23,"id":123,"ref_yamato_type":"公共施設AED","__3":"","__2":"","opening_hour":"開館時間内","aed_type":"日本光電 AED2100","description":"設置場所：1階ロビー","__1":"1階ロビー","address":"大和市下鶴間504-1","_":"コミュニティセンター公所会館","name":"コミュニティセンター公所会館 AED","name_en":"AED(Automated External Defibrillator)","name_ja":"AED（自動体外式除細動器）","latitude":35.51389293,"longitude":139.4588898}},{"type":"Feature","geometry":{"type":"Point","coordinates":[139.446453,35.512]},"properties":{"cartodb_id":124,"__4":1,"ref":24,"id":124,"ref_yamato_type":"公共施設AED","__3":"","__2":"","opening_hour":"開館時間内","aed_type":"日本光電 AED2100","description":"設置場所：1階ロビー","__1":"1階ロビー","address":"大和市下鶴間4444-2","_":"コミュニティセンター中央林間会館","name":"コミュニティセンター中央林間会館 AED","name_en":"AED(Automated External Defibrillator)","name_ja":"AED（自動体外式除細動器）","latitude":35.51200022,"longitude":139.4464528}},{"type":"Feature","geometry":{"type":"Point","coordinates":[139.462893,35.497798]},"properties":{"cartodb_id":125,"__4":1,"ref":25,"id":125,"ref_yamato_type":"公共施設AED","__3":"","__2":"","opening_hour":"開館時間内","aed_type":"日本光電 AED2100","description":"設置場所：1階ロビー","__1":"1階ロビー","address":"大和市下鶴間2516-2","_":"コミュニティセンター下鶴間会館","name":"コミュニティセンター下鶴間会館 AED","name_en":"AED(Automated External Defibrillator)","name_ja":"AED（自動体外式除細動器）","latitude":35.49779781,"longitude":139.4628926}},{"type":"Feature","geometry":{"type":"Point","coordinates":[139.454624,35.491091]},"properties":{"cartodb_id":126,"__4":1,"ref":26,"id":126,"ref_yamato_type":"公共施設AED","__3":"","__2":"","opening_hour":"開館時間内","aed_type":"日本光電 AED2100","description":"設置場所：1階ロビー","__1":"1階ロビー","address":"大和市鶴間2-12-35","_":"コミュニティセンター鶴間会館","name":"コミュニティセンター鶴間会館 AED","name_en":"AED(Automated External Defibrillator)","name_ja":"AED（自動体外式除細動器）","latitude":35.49109128,"longitude":139.4546236}},{"type":"Feature","geometry":{"type":"Point","coordinates":[139.447684,35.489701]},"properties":{"cartodb_id":127,"__4":1,"ref":27,"id":127,"ref_yamato_type":"公共施設AED","__3":"","__2":"","opening_hour":"開館時間内","aed_type":"日本光電 AED2100","description":"設置場所：1階ロビー","__1":"1階ロビー","address":"大和市西鶴間2-4-20","_":"コミュニティセンター西鶴間会館","name":"コミュニティセンター西鶴間会館 AED","name_en":"AED(Automated External Defibrillator)","name_ja":"AED（自動体外式除細動器）","latitude":35.48970076,"longitude":139.4476839}},{"type":"Feature","geometry":{"type":"Point","coordinates":[139.465295,35.486117]},"properties":{"cartodb_id":128,"__4":1,"ref":28,"id":128,"ref_yamato_type":"公共施設AED","__3":"","__2":"","opening_hour":"開館時間内","aed_type":"日本光電 AED2100","description":"設置場所：1階ロビー","__1":"1階ロビー","address":"大和市深見498-5","_":"コミュニティセンター深見北会館","name":"コミュニティセンター深見北会館 AED","name_en":"AED(Automated External Defibrillator)","name_ja":"AED（自動体外式除細動器）","latitude":35.4861171,"longitude":139.4652954}},{"type":"Feature","geometry":{"type":"Point","coordinates":[139.453075,35.479404]},"properties":{"cartodb_id":129,"__4":1,"ref":29,"id":129,"ref_yamato_type":"公共施設AED","__3":"","__2":"","opening_hour":"開館時間内","aed_type":"日本光電 AED2100","description":"設置場所：1階ロビー","__1":"1階ロビー","address":"大和市上草柳5-3-11","_":"コミュニティセンター上草柳会館","name":"コミュニティセンター上草柳会館 AED","name_en":"AED(Automated External Defibrillator)","name_ja":"AED（自動体外式除細動器）","latitude":35.47940397,"longitude":139.4530747}},{"type":"Feature","geometry":{"type":"Point","coordinates":[139.453104,35.471272]},"properties":{"cartodb_id":130,"__4":1,"ref":30,"id":130,"ref_yamato_type":"公共施設AED","__3":"","__2":"","opening_hour":"開館時間内","aed_type":"日本光電 AED2100","description":"設置場所：2階ロビー","__1":"2階ロビー","address":"大和市下草柳552-1","_":"コミュニティセンター草柳会館","name":"コミュニティセンター草柳会館 AED","name_en":"AED(Automated External Defibrillator)","name_ja":"AED（自動体外式除細動器）","latitude":35.47127207,"longitude":139.4531043}},{"type":"Feature","geometry":{"type":"Point","coordinates":[139.469427,35.465327]},"properties":{"cartodb_id":131,"__4":1,"ref":31,"id":131,"ref_yamato_type":"公共施設AED","__3":"","__2":"","opening_hour":"開館時間内","aed_type":"日本光電 AED2100","description":"設置場所：1階ロビー","__1":"1階ロビー","address":"大和市深見台1-9-19","_":"コミュニティセンター深見南会館","name":"コミュニティセンター深見南会館 AED","name_en":"AED(Automated External Defibrillator)","name_ja":"AED（自動体外式除細動器）","latitude":35.46532732,"longitude":139.4694269}},{"type":"Feature","geometry":{"type":"Point","coordinates":[139.459911,35.463821]},"properties":{"cartodb_id":132,"__4":1,"ref":32,"id":132,"ref_yamato_type":"公共施設AED","__3":"","__2":"","opening_hour":"開館時間内","aed_type":"日本光電 AED2100","description":"設置場所：1階ロビー","__1":"1階ロビー","address":"大和市中央6-5-19","_":"コミュニティセンター下草柳会館","name":"コミュニティセンター下草柳会館 AED","name_en":"AED(Automated External Defibrillator)","name_ja":"AED（自動体外式除細動器）","latitude":35.46382124,"longitude":139.4599108}},{"type":"Feature","geometry":{"type":"Point","coordinates":[139.463324,35.456357]},"properties":{"cartodb_id":133,"__4":1,"ref":33,"id":133,"ref_yamato_type":"公共施設AED","__3":"","__2":"","opening_hour":"開館時間内","aed_type":"日本光電 AED2100","description":"設置場所：1階ロビー","__1":"1階ロビー","address":"大和市柳橋2-12-2","_":"コミュニティセンター柳橋会館","name":"コミュニティセンター柳橋会館 AED","name_en":"AED(Automated External Defibrillator)","name_ja":"AED（自動体外式除細動器）","latitude":35.45635713,"longitude":139.4633239}},{"type":"Feature","geometry":{"type":"Point","coordinates":[139.461137,35.441888]},"properties":{"cartodb_id":134,"__4":1,"ref":34,"id":134,"ref_yamato_type":"公共施設AED","__3":"","__2":"","opening_hour":"開館時間内","aed_type":"日本光電 AED2100","description":"設置場所：1階ロビー","__1":"1階ロビー","address":"大和市代官1-22-3","_":"コミュニティセンター福田会館","name":"コミュニティセンター福田会館 AED","name_en":"AED(Automated External Defibrillator)","name_ja":"AED（自動体外式除細動器）","latitude":35.4418884,"longitude":139.4611369}},{"type":"Feature","geometry":{"type":"Point","coordinates":[139.470915,35.440804]},"properties":{"cartodb_id":135,"__4":1,"ref":35,"id":135,"ref_yamato_type":"公共施設AED","__3":"","__2":"","opening_hour":"開館時間内","aed_type":"日本光電 AED2100","description":"設置場所：1階ロビー","__1":"1階ロビー","address":"大和市上和田2700-18","_":"コミュニティセンター上和田会館","name":"コミュニティセンター上和田会館 AED","name_en":"AED(Automated External Defibrillator)","name_ja":"AED（自動体外式除細動器）","latitude":35.44080374,"longitude":139.4709149}},{"type":"Feature","geometry":{"type":"Point","coordinates":[139.469823,35.425567]},"properties":{"cartodb_id":136,"__4":1,"ref":36,"id":136,"ref_yamato_type":"公共施設AED","__3":"","__2":"","opening_hour":"開館時間内","aed_type":"日本光電 AED2100","description":"設置場所：1階ロビー","__1":"1階ロビー","address":"大和市下和田791-2","_":"コミュニティセンター下和田会館","name":"コミュニティセンター下和田会館 AED","name_en":"AED(Automated External Defibrillator)","name_ja":"AED（自動体外式除細動器）","latitude":35.42556684,"longitude":139.4698233}},{"type":"Feature","geometry":{"type":"Point","coordinates":[139.455075,35.485935]},"properties":{"cartodb_id":137,"__4":1,"ref":37,"id":137,"ref_yamato_type":"公共施設AED","__3":"","__2":"","opening_hour":"開校時間内","aed_type":"日本光電 AED2100","description":"設置場所：1階昇降口","__1":"1階昇降口","address":"大和市深見西7-5","_":"大和中学校","name":"大和中学校 AED","name_en":"AED(Automated External Defibrillator)","name_ja":"AED（自動体外式除細動器）","latitude":35.48593459,"longitude":139.4550753}},{"type":"Feature","geometry":{"type":"Point","coordinates":[139.465012,35.464713]},"properties":{"cartodb_id":138,"__4":1,"ref":38,"id":138,"ref_yamato_type":"公共施設AED","__3":"","__2":"","opening_hour":"開校時間内","aed_type":"日本光電 AED2100","description":"設置場所：1階コンコース","__1":"1階コンコース","address":"大和市大和南2-11-1","_":"光丘中学校","name":"光丘中学校 AED","name_en":"AED(Automated External Defibrillator)","name_ja":"AED（自動体外式除細動器）","latitude":35.46471275,"longitude":139.4650116}},{"type":"Feature","geometry":{"type":"Point","coordinates":[139.472512,35.43085]},"properties":{"cartodb_id":139,"__4":1,"ref":39,"id":139,"ref_yamato_type":"公共施設AED","__3":"","__2":"","opening_hour":"開校時間内","aed_type":"日本光電 AED2100","description":"設置場所：1階昇降口","__1":"1階昇降口","address":"大和市福田2000","_":"渋谷中学校","name":"渋谷中学校 AED","name_en":"AED(Automated External Defibrillator)","name_ja":"AED（自動体外式除細動器）","latitude":35.43085004,"longitude":139.4725117}},{"type":"Feature","geometry":{"type":"Point","coordinates":[139.453785,35.508885]},"properties":{"cartodb_id":140,"__4":1,"ref":40,"id":140,"ref_yamato_type":"公共施設AED","__3":"","__2":"","opening_hour":"開校時間内","aed_type":"日本光電 AED2100","description":"設置場所：1階昇降口","__1":"1階昇降口","address":"大和市つきみ野3-5-1","_":"つきみ野中学校","name":"つきみ野中学校 AED","name_en":"AED(Automated External Defibrillator)","name_ja":"AED（自動体外式除細動器）","latitude":35.50888509,"longitude":139.4537846}},{"type":"Feature","geometry":{"type":"Point","coordinates":[139.45419,35.496201]},"properties":{"cartodb_id":141,"__4":1,"ref":41,"id":141,"ref_yamato_type":"公共施設AED","__3":"","__2":"","opening_hour":"開校時間内","aed_type":"日本光電 AED2100","description":"設置場所：2階職員室内","__1":"2階職員室内","address":"大和市下鶴間3016","_":"鶴間中学校","name":"鶴間中学校 AED","name_en":"AED(Automated External Defibrillator)","name_ja":"AED（自動体外式除細動器）","latitude":35.49620066,"longitude":139.4541903}},{"type":"Feature","geometry":{"type":"Point","coordinates":[139.461467,35.457029]},"properties":{"cartodb_id":142,"__4":1,"ref":42,"id":142,"ref_yamato_type":"公共施設AED","__3":"","__2":"","opening_hour":"開校時間内","aed_type":"日本光電 AED2100","description":"設置場所：1階昇降口","__1":"1階昇降口","address":"大和市柳橋4-5050","_":"引地台中学校","name":"引地台中学校 AED","name_en":"AED(Automated External Defibrillator)","name_ja":"AED（自動体外式除細動器）","latitude":35.45702917,"longitude":139.4614666}},{"type":"Feature","geometry":{"type":"Point","coordinates":[139.479249,35.448845]},"properties":{"cartodb_id":143,"__4":1,"ref":43,"id":143,"ref_yamato_type":"公共施設AED","__3":"","__2":"","opening_hour":"開校時間内","aed_type":"日本光電 AED2100","description":"設置場所：1階職員用昇降口","__1":"1階職員用昇降口","address":"大和市上和田1314-1","_":"上和田中学校","name":"上和田中学校 AED","name_en":"AED(Automated External Defibrillator)","name_ja":"AED（自動体外式除細動器）","latitude":35.44884531,"longitude":139.4792488}},{"type":"Feature","geometry":{"type":"Point","coordinates":[139.436144,35.496799]},"properties":{"cartodb_id":144,"__4":1,"ref":44,"id":144,"ref_yamato_type":"公共施設AED","__3":"","__2":"","opening_hour":"開校時間内","aed_type":"日本光電 AED2100","description":"設置場所：1階昇降口","__1":"1階昇降口","address":"大和市南林間9-3-1","_":"南林間中学校","name":"南林間中学校 AED","name_en":"AED(Automated External Defibrillator)","name_ja":"AED（自動体外式除細動器）","latitude":35.49679896,"longitude":139.4361444}},{"type":"Feature","geometry":{"type":"Point","coordinates":[139.46155,35.425974]},"properties":{"cartodb_id":145,"__4":1,"ref":45,"id":145,"ref_yamato_type":"公共施設AED","__3":"","__2":"","opening_hour":"開校時間内","aed_type":"日本光電 AED2100","description":"設置場所：2階職員室前","__1":"2階職員室前","address":"大和市福田1569-1","_":"下福田中学校","name":"下福田中学校 AED","name_en":"AED(Automated External Defibrillator)","name_ja":"AED（自動体外式除細動器）","latitude":35.42597448,"longitude":139.4615499}},{"type":"Feature","geometry":{"type":"Point","coordinates":[139.462241,35.509208]},"properties":{"cartodb_id":146,"__4":1,"ref":46,"id":146,"ref_yamato_type":"公共施設AED","__3":"","__2":"","opening_hour":"開校時間内","aed_type":"日本光電 AED2100","description":"設置場所：1階昇降口","__1":"1階昇降口","address":"大和市下鶴間685","_":"北大和小学校","name":"北大和小学校 AED","name_en":"AED(Automated External Defibrillator)","name_ja":"AED（自動体外式除細動器）","latitude":35.50920786,"longitude":139.4622413}},{"type":"Feature","geometry":{"type":"Point","coordinates":[139.449015,35.496788]},"properties":{"cartodb_id":147,"__4":1,"ref":47,"id":147,"ref_yamato_type":"公共施設AED","__3":"","__2":"","opening_hour":"開校時間内","aed_type":"日本光電 AED2100","description":"設置場所：1階昇降口","__1":"1階昇降口","address":"大和市林間1-5-18","_":"林間小学校","name":"林間小学校 AED","name_en":"AED(Automated External Defibrillator)","name_ja":"AED（自動体外式除細動器）","latitude":35.49678845,"longitude":139.4490154}},{"type":"Feature","geometry":{"type":"Point","coordinates":[139.46192,35.487386]},"properties":{"cartodb_id":148,"__4":1,"ref":48,"id":148,"ref_yamato_type":"公共施設AED","__3":"","__2":"","opening_hour":"開校時間内","aed_type":"日本光電 AED2100","description":"設置場所：1階廊下","__1":"1階廊下","address":"大和市深見西8-7-1","_":"大和小学校","name":"大和小学校 AED","name_en":"AED(Automated External Defibrillator)","name_ja":"AED（自動体外式除細動器）","latitude":35.48738611,"longitude":139.4619202}},{"type":"Feature","geometry":{"type":"Point","coordinates":[139.454762,35.472027]},"properties":{"cartodb_id":149,"__4":1,"ref":49,"id":149,"ref_yamato_type":"公共施設AED","__3":"","__2":"","opening_hour":"開校時間内","aed_type":"日本光電 AED2100","description":"設置場所：1階昇降口","__1":"1階昇降口","address":"大和市中央3-6-1","_":"草柳小学校","name":"草柳小学校 AED","name_en":"AED(Automated External Defibrillator)","name_ja":"AED（自動体外式除細動器）","latitude":35.4720268,"longitude":139.454762}},{"type":"Feature","geometry":{"type":"Point","coordinates":[139.469591,35.468074]},"properties":{"cartodb_id":150,"__4":1,"ref":50,"id":150,"ref_yamato_type":"公共施設AED","__3":"","__2":"","opening_hour":"開校時間内","aed_type":"日本光電 AED2100","description":"設置場所：1階昇降口","__1":"1階昇降口","address":"大和市深見台2-9-1","_":"深見小学校","name":"深見小学校 AED","name_en":"AED(Automated External Defibrillator)","name_ja":"AED（自動体外式除細動器）","latitude":35.46807386,"longitude":139.4695911}},{"type":"Feature","geometry":{"type":"Point","coordinates":[139.468507,35.453142]},"properties":{"cartodb_id":151,"__4":1,"ref":51,"id":151,"ref_yamato_type":"公共施設AED","__3":"","__2":"","opening_hour":"開校時間内","aed_type":"日本光電 AED2100","description":"設置場所：1階昇降口","__1":"1階昇降口","address":"大和市上和田853-1","_":"桜丘小学校","name":"桜丘小学校 AED","name_en":"AED(Automated External Defibrillator)","name_ja":"AED（自動体外式除細動器）","latitude":35.45314249,"longitude":139.4685071}},{"type":"Feature","geometry":{"type":"Point","coordinates":[139.466708,35.431555]},"properties":{"cartodb_id":152,"__4":1,"ref":52,"id":152,"ref_yamato_type":"公共施設AED","__3":"","__2":"","opening_hour":"開校時間内","aed_type":"日本光電 AED2100","description":"設置場所：1階昇降口","__1":"1階昇降口","address":"大和市下和田929","_":"渋谷小学校","name":"渋谷小学校 AED","name_en":"AED(Automated External Defibrillator)","name_ja":"AED（自動体外式除細動器）","latitude":35.43155534,"longitude":139.4667084}},{"type":"Feature","geometry":{"type":"Point","coordinates":[139.444312,35.487386]},"properties":{"cartodb_id":153,"__4":1,"ref":53,"id":153,"ref_yamato_type":"公共施設AED","__3":"","__2":"","opening_hour":"開校時間内","aed_type":"日本光電 AED2100","description":"設置場所：1階昇降口","__1":"1階昇降口","address":"大和市西鶴間2-25-43","_":"西鶴間小学校","name":"西鶴間小学校 AED","name_en":"AED(Automated External Defibrillator)","name_ja":"AED（自動体外式除細動器）","latitude":35.48738582,"longitude":139.4443121}},{"type":"Feature","geometry":{"type":"Point","coordinates":[139.437029,35.502684]},"properties":{"cartodb_id":154,"__4":1,"ref":54,"id":154,"ref_yamato_type":"公共施設AED","__3":"","__2":"","opening_hour":"開校時間内","aed_type":"日本光電 AED2100","description":"設置場所：1階昇降口","__1":"1階昇降口","address":"大和市下鶴間4237","_":"緑野小学校","name":"緑野小学校 AED","name_en":"AED(Automated External Defibrillator)","name_ja":"AED（自動体外式除細動器）","latitude":35.50268442,"longitude":139.4370287}},{"type":"Feature","geometry":{"type":"Point","coordinates":[139.470271,35.441003]},"properties":{"cartodb_id":155,"__4":1,"ref":55,"id":155,"ref_yamato_type":"公共施設AED","__3":"","__2":"","opening_hour":"開校時間内","aed_type":"日本光電 AED2100","description":"設置場所：1階昇降口","__1":"1階昇降口","address":"大和市上和田2695","_":"上和田小学校","name":"上和田小学校 AED","name_en":"AED(Automated External Defibrillator)","name_ja":"AED（自動体外式除細動器）","latitude":35.44100339,"longitude":139.4702713}},{"type":"Feature","geometry":{"type":"Point","coordinates":[139.462293,35.460193]},"properties":{"cartodb_id":156,"__4":1,"ref":56,"id":156,"ref_yamato_type":"公共施設AED","__3":"","__2":"","opening_hour":"開校時間内","aed_type":"日本光電 AED2100","description":"設置場所：2階廊下","__1":"2階廊下","address":"大和市柳橋1-17-7","_":"柳橋小学校","name":"柳橋小学校 AED","name_en":"AED(Automated External Defibrillator)","name_ja":"AED（自動体外式除細動器）","latitude":35.4601933,"longitude":139.4622933}},{"type":"Feature","geometry":{"type":"Point","coordinates":[139.436517,35.495956]},"properties":{"cartodb_id":157,"__4":1,"ref":57,"id":157,"ref_yamato_type":"公共施設AED","__3":"","__2":"","opening_hour":"開校時間内","aed_type":"日本光電 AED2100","description":"設置場所：1階昇降口","__1":"1階昇降口","address":"大和市南林間9-3-2","_":"南林間小学校","name":"南林間小学校 AED","name_en":"AED(Automated External Defibrillator)","name_ja":"AED（自動体外式除細動器）","latitude":35.49595577,"longitude":139.4365165}},{"type":"Feature","geometry":{"type":"Point","coordinates":[139.457652,35.431554]},"properties":{"cartodb_id":160,"__4":1,"ref":60,"id":160,"ref_yamato_type":"公共施設AED","__3":"","__2":"","opening_hour":"開校時間内","aed_type":"日本光電 AED2100","description":"設置場所：1階昇降口","__1":"1階昇降口","address":"大和市福田570","_":"下福田小学校","name":"下福田小学校 AED","name_en":"AED(Automated External Defibrillator)","name_ja":"AED（自動体外式除細動器）","latitude":35.43155352,"longitude":139.4576523}},{"type":"Feature","geometry":{"type":"Point","coordinates":[139.469384,35.477126]},"properties":{"cartodb_id":161,"__4":1,"ref":61,"id":161,"ref_yamato_type":"公共施設AED","__3":"","__2":"","opening_hour":"開校時間内","aed_type":"日本光電 AED2100","description":"設置場所：1階昇降口","__1":"1階昇降口","address":"大和市深見1805","_":"大和東小学校","name":"大和東小学校 AED","name_en":"AED(Automated External Defibrillator)","name_ja":"AED（自動体外式除細動器）","latitude":35.47712583,"longitude":139.4693843}},{"type":"Feature","geometry":{"type":"Point","coordinates":[139.438619,35.474569]},"properties":{"cartodb_id":162,"__4":1,"ref":62,"id":162,"ref_yamato_type":"公共施設AED","__3":"","__2":"","opening_hour":"開校時間内","aed_type":"日本光電 AED2100","description":"設置場所：1階昇降口","__1":"1階昇降口","address":"大和市桜森3-16-31","_":"文ヶ岡小学校","name":"文ヶ岡小学校 AED","name_en":"AED(Automated External Defibrillator)","name_ja":"AED（自動体外式除細動器）","latitude":35.47456895,"longitude":139.4386194}},{"type":"Feature","geometry":{"type":"Point","coordinates":[139.449692,35.517341]},"properties":{"cartodb_id":163,"__4":1,"ref":63,"id":163,"ref_yamato_type":"公共施設AED","__3":"","__2":"","opening_hour":"開校時間内","aed_type":"日本光電 AED2100","description":"設置場所：1階昇降口","__1":"1階昇降口","address":"大和市下鶴間1450-29","_":"中央林間小学校","name":"中央林間小学校 AED","name_en":"AED(Automated External Defibrillator)","name_ja":"AED（自動体外式除細動器）","latitude":35.51734099,"longitude":139.4496924}},{"type":"Feature","geometry":{"type":"Point","coordinates":[139.459569,35.459903]},"properties":{"cartodb_id":164,"__4":1,"ref":64,"id":164,"ref_yamato_type":"公共施設AED","__3":"","__2":"","opening_hour":"開校時間内","aed_type":"日本光電 AED2100","description":"設置場所：1階昇降口","__1":"1階昇降口","address":"大和市草柳3-1-2","_":"引地台小学校","name":"引地台小学校 AED","name_en":"AED(Automated External Defibrillator)","name_ja":"AED（自動体外式除細動器）","latitude":35.45990318,"longitude":139.4595694}},{"type":"Feature","geometry":{"type":"Point","coordinates":[139.454269,35.5136]},"properties":{"cartodb_id":166,"__4":1,"ref":66,"id":166,"ref_yamato_type":"公共施設AED","__3":"","__2":"","opening_hour":"開館時間内","aed_type":"日本光電 AED2100","description":"設置場所：事務所内","__1":"事務所内","address":"大和市つきみ野7-3-2","_":"つる舞の里歴史資料館","name":"つる舞の里歴史資料館 AED","name_en":"AED(Automated External Defibrillator)","name_ja":"AED（自動体外式除細動器）","latitude":35.5136,"longitude":139.454269}},{"type":"Feature","geometry":{"type":"Point","coordinates":[139.457601,35.47434]},"properties":{"cartodb_id":167,"__4":1,"ref":67,"id":167,"ref_yamato_type":"公共施設AED","__3":"第3月曜","__2":"9:00～21:00","opening_hour":"開館時間内","aed_type":"","description":"設置場所：1階ロビー","__1":"1階ロビー","address":"大和市上草柳1-1-1","_":"大和ｽﾎﾟｰﾂｾﾝﾀｰ体育館","name":"大和ｽﾎﾟｰﾂｾﾝﾀｰ体育館 AED","name_en":"AED(Automated External Defibrillator)","name_ja":"AED（自動体外式除細動器）","latitude":35.47434022,"longitude":139.457601}},{"type":"Feature","geometry":{"type":"Point","coordinates":[139.45706,35.474995]},"properties":{"cartodb_id":168,"__4":1,"ref":68,"id":168,"ref_yamato_type":"公共施設AED","__3":"","__2":"","opening_hour":"開館時間内","aed_type":"","description":"設置場所：1階ロビー","__1":"1階ロビー","address":"大和市上草柳1-1-1","_":"大和ｽﾎﾟｰﾂｾﾝﾀｰ競技場","name":"大和ｽﾎﾟｰﾂｾﾝﾀｰ競技場 AED","name_en":"AED(Automated External Defibrillator)","name_ja":"AED（自動体外式除細動器）","latitude":35.47499479,"longitude":139.45706}},{"type":"Feature","geometry":{"type":"Point","coordinates":[139.458871,35.456947]},"properties":{"cartodb_id":169,"__4":1,"ref":69,"id":169,"ref_yamato_type":"公共施設AED","__3":"","__2":"","opening_hour":"開館時間内","aed_type":"","description":"設置場所：1階ロビー","__1":"1階ロビー","address":"大和市柳橋4-5000","_":"引地台温水プール","name":"引地台温水プール AED","name_en":"AED(Automated External Defibrillator)","name_ja":"AED（自動体外式除細動器）","latitude":35.45694707,"longitude":139.458871}},{"type":"Feature","geometry":{"type":"Point","coordinates":[139.461063,35.455407]},"properties":{"cartodb_id":170,"__4":1,"ref":70,"id":170,"ref_yamato_type":"公共施設AED","__3":"","__2":"","opening_hour":"開館時間内","aed_type":"","description":"設置場所：1階入口奥","__1":"1階入口奥","address":"大和市柳橋4-5000-1","_":"引地台野球場","name":"引地台野球場 AED","name_en":"AED(Automated External Defibrillator)","name_ja":"AED（自動体外式除細動器）","latitude":35.45540656,"longitude":139.4610632}},{"type":"Feature","geometry":{"type":"Point","coordinates":[139.446255,35.487937]},"properties":{"cartodb_id":171,"__4":1,"ref":71,"id":171,"ref_yamato_type":"公共施設AED","__3":"","__2":"","opening_hour":"開館時間内","aed_type":"","description":"設置場所：1階ロビー","__1":"1階ロビー","address":"大和市西鶴間2-24-1","_":"障害福祉センター松風園","name":"障害福祉センター松風園 AED","name_en":"AED(Automated External Defibrillator)","name_ja":"AED（自動体外式除細動器）","latitude":35.48793736,"longitude":139.4462548}},{"type":"Feature","geometry":{"type":"Point","coordinates":[139.463627,35.456427]},"properties":{"cartodb_id":172,"__4":1,"ref":72,"id":172,"ref_yamato_type":"公共施設AED","__3":"","__2":"","opening_hour":"開館時間内","aed_type":"","description":"設置場所：1階ロビー","__1":"1階ロビー","address":"大和市柳橋2-11","_":"まごころ地域福祉ｾﾝﾀｰ","name":"まごころ地域福祉ｾﾝﾀｰ AED","name_en":"AED(Automated External Defibrillator)","name_ja":"AED（自動体外式除細動器）","latitude":35.45642653,"longitude":139.4636266}},{"type":"Feature","geometry":{"type":"Point","coordinates":[139.457246,35.455779]},"properties":{"cartodb_id":173,"__4":1,"ref":73,"id":173,"ref_yamato_type":"公共施設AED","__3":"","__2":"","opening_hour":"開館時間内","aed_type":"","description":"設置場所：2階入口","__1":"2階入口","address":"大和市柳橋3-12-1","_":"柳橋ふれあいプラザ","name":"柳橋ふれあいプラザ AED","name_en":"AED(Automated External Defibrillator)","name_ja":"AED（自動体外式除細動器）","latitude":35.45577862,"longitude":139.4572465}},{"type":"Feature","geometry":{"type":"Point","coordinates":[139.438659,35.481056]},"properties":{"cartodb_id":174,"__4":1,"ref":74,"id":174,"ref_yamato_type":"公共施設AED","__3":"","__2":"","opening_hour":"開館時間内","aed_type":"","description":"設置場所：事務所内","__1":"事務所内","address":"大和市西鶴間8-10-8","_":"大和斎場","name":"大和斎場 AED","name_en":"AED(Automated External Defibrillator)","name_ja":"AED（自動体外式除細動器）","latitude":35.4810561,"longitude":139.4386586}},{"type":"Feature","geometry":{"type":"Point","coordinates":[139.454676,35.490612]},"properties":{"cartodb_id":175,"__4":1,"ref":75,"id":175,"ref_yamato_type":"公共施設AED","__3":"","__2":"","opening_hour":"開館時間内","aed_type":"","description":"設置場所：5階","__1":"5階","address":"大和市鶴間1-31-7","_":"保健福祉センター5階","name":"保健福祉センター5階 AED","name_en":"AED(Automated External Defibrillator)","name_ja":"AED（自動体外式除細動器）","latitude":35.49061202,"longitude":139.4546757}},{"type":"Feature","geometry":{"type":"Point","coordinates":[139.454676,35.490612]},"properties":{"cartodb_id":176,"__4":1,"ref":76,"id":176,"ref_yamato_type":"公共施設AED","__3":"","__2":"","opening_hour":"開館時間内","aed_type":"","description":"設置場所：受付","__1":"受付","address":"大和市鶴間1-31-7","_":"老人福祉センター（保健福祉センター3階）","name":"老人福祉センター（保健福祉センター3階） AED","name_en":"AED(Automated External Defibrillator)","name_ja":"AED（自動体外式除細動器）","latitude":35.49061202,"longitude":139.4546757}},{"type":"Feature","geometry":{"type":"Point","coordinates":[139.455656,35.489692]},"properties":{"cartodb_id":177,"__4":1,"ref":77,"id":177,"ref_yamato_type":"公共施設AED","__3":"","__2":"","opening_hour":"開館時間内","aed_type":"","description":"設置場所：2階講習室前","__1":"2階講習室前","address":"大和市鶴間1-28-5","_":"地域医療センター","name":"地域医療センター AED","name_en":"AED(Automated External Defibrillator)","name_ja":"AED（自動体外式除細動器）","latitude":35.48969171,"longitude":139.4556557}},{"type":"Feature","geometry":{"type":"Point","coordinates":[139.463934,35.432771]},"properties":{"cartodb_id":178,"__4":1,"ref":78,"id":178,"ref_yamato_type":"公共施設AED","__3":"","__2":"","opening_hour":"開所時間内","aed_type":"","description":"設置場所：交流スペース内","__1":"交流スペース内","address":"大和市福田2021-2","_":"ぶらっと高座渋谷","name":"ぶらっと高座渋谷 AED","name_en":"AED(Automated External Defibrillator)","name_ja":"AED（自動体外式除細動器）","latitude":35.43277147,"longitude":139.4639339}},{"type":"Feature","geometry":{"type":"Point","coordinates":[139.45107,35.438385]},"properties":{"cartodb_id":179,"__4":1,"ref":79,"id":179,"ref_yamato_type":"公共施設AED","__3":"","__2":"","opening_hour":"開所時間内","aed_type":"","description":"設置場所：わんぱく広場倉庫内","__1":"わんぱく広場倉庫内","address":"大和市福田4112","_":"大和ゆとりの森","name":"大和ゆとりの森 AED","name_en":"AED(Automated External Defibrillator)","name_ja":"AED（自動体外式除細動器）","latitude":35.43838468,"longitude":139.45107}},{"type":"Feature","geometry":{"type":"Point","coordinates":[139.451855,35.436999]},"properties":{"cartodb_id":180,"__4":1,"ref":80,"id":180,"ref_yamato_type":"公共施設AED","__3":"","__2":"","opening_hour":"開所時間内","aed_type":"","description":"設置場所：仲良しプラザ内","__1":"仲良しプラザ内","address":"大和市福田4112","_":"大和ゆとりの森（仲良しプラザ）","name":"大和ゆとりの森（仲良しプラザ） AED","name_en":"AED(Automated External Defibrillator)","name_ja":"AED（自動体外式除細動器）","latitude":35.43699922,"longitude":139.4518547}},{"type":"Feature","geometry":{"type":"Point","coordinates":[139.444534,35.477585]},"properties":{"cartodb_id":181,"__4":1,"ref":81,"id":181,"ref_yamato_type":"公共施設AED","__3":"","__2":"","opening_hour":"開所時間内","aed_type":"","description":"設置場所：事務所内","__1":"事務所内","address":"大和市上草柳1728","_":"自然観察センター・しらかしのいえ","name":"自然観察センター・しらかしのいえ AED","name_en":"AED(Automated External Defibrillator)","name_ja":"AED（自動体外式除細動器）","latitude":35.47758475,"longitude":139.4445338}},{"type":"Feature","geometry":{"type":"Point","coordinates":[139.439191,35.508651]},"properties":{"cartodb_id":182,"__4":1,"ref":82,"id":182,"ref_yamato_type":"公共施設AED","__3":"","__2":"","opening_hour":"開園時間内","aed_type":"","description":"設置場所：慈緑庵書院事務所内","__1":"慈緑庵書院事務所内","address":"大和市中央林間5-17","_":"多胡記念公園","name":"多胡記念公園 AED","name_en":"AED(Automated External Defibrillator)","name_ja":"AED（自動体外式除細動器）","latitude":35.50865141,"longitude":139.4391907}},{"type":"Feature","geometry":{"type":"Point","coordinates":[139.443261,35.508049]},"properties":{"cartodb_id":183,"__4":1,"ref":83,"id":183,"ref_yamato_type":"公共施設AED","__3":"","__2":"","opening_hour":"開所時間内","aed_type":"","description":"設置場所：交流スペース内","__1":"交流スペース内","address":"大和市中央林間3-11-20","_":"ぷらっと中央林間","name":"ぷらっと中央林間 AED","name_en":"AED(Automated External Defibrillator)","name_ja":"AED（自動体外式除細動器）","latitude":35.50804885,"longitude":139.4432605}},{"type":"Feature","geometry":{"type":"Point","coordinates":[139.470758,35.459749]},"properties":{"cartodb_id":184,"__4":1,"ref":84,"id":184,"ref_yamato_type":"公共施設AED","__3":"","__2":"","opening_hour":"開所時間内","aed_type":"","description":"設置場所：管理本館玄関ホール内","__1":"管理本館玄関ホール内","address":"大和市深見3811","_":"中部浄化センター","name":"中部浄化センター AED","name_en":"AED(Automated External Defibrillator)","name_ja":"AED（自動体外式除細動器）","latitude":35.45974873,"longitude":139.4707579}},{"type":"Feature","geometry":{"type":"Point","coordinates":[139.449048,35.509413]},"properties":{"cartodb_id":185,"__4":1,"ref":1,"id":185,"ref_yamato_type":"やまとAED救急ステーション","__3":"なし","__2":"10:00～25:00","opening_hour":"営業時間内","aed_type":"日本光電 AED9231","description":"設置場所：ｻﾐｯﾄｽﾄｱ ﾚｼﾞｶｳﾝﾀｰ横","__1":"ｻﾐｯﾄｽﾄｱ ﾚｼﾞｶｳﾝﾀｰ横","address":"大和市下鶴間1598-1","_":"LAPLA中央林間","name":"LAPLA中央林間 AED","name_en":"AED(Automated External Defibrillator)","name_ja":"AED（自動体外式除細動器）","latitude":35.50941263,"longitude":139.4490478}},{"type":"Feature","geometry":{"type":"Point","coordinates":[139.457265,35.503117]},"properties":{"cartodb_id":186,"__4":1,"ref":2,"id":186,"ref_yamato_type":"やまとAED救急ステーション","__3":"なし","__2":"9:00～22:00","opening_hour":"営業時間内","aed_type":"フィリップスFRX","description":"設置場所：1F ｴｽｶﾚｰﾀｰ区画内","__1":"1F ｴｽｶﾚｰﾀｰ区画内","address":"大和市つきみ野1-6-1","_":"つきみ野イオン","name":"つきみ野イオン AED","name_en":"AED(Automated External Defibrillator)","name_ja":"AED（自動体外式除細動器）","latitude":35.50311726,"longitude":139.4572651}},{"type":"Feature","geometry":{"type":"Point","coordinates":[139.451901,35.490406]},"properties":{"cartodb_id":187,"__4":1,"ref":3,"id":187,"ref_yamato_type":"やまとAED救急ステーション","__3":"なし","__2":"8:30～23:00","opening_hour":"開所時間内","aed_type":"日本光電 AED2100","description":"設置場所：1F フロント内","__1":"1F フロント内","address":"大和市鶴間2-1-20","_":"ルネサンス鶴間","name":"ルネサンス鶴間 AED","name_en":"AED(Automated External Defibrillator)","name_ja":"AED（自動体外式除細動器）","latitude":35.49040583,"longitude":139.4519007}},{"type":"Feature","geometry":{"type":"Point","coordinates":[139.441311,35.483929]},"properties":{"cartodb_id":188,"__4":1,"ref":4,"id":188,"ref_yamato_type":"やまとAED救急ステーション","__3":"なし","__2":"9:00～17:30","opening_hour":"開所時間内","aed_type":"メドトロニックCRプラス","description":"設置場所：ふるさと館2F 介護ｽﾃｰｼｮﾝ内","__1":"ふるさと館2F 介護ｽﾃｰｼｮﾝ内","address":"大和市西鶴間8-1-2","_":"サンホーム鶴間","name":"サンホーム鶴間 AED","name_en":"AED(Automated External Defibrillator)","name_ja":"AED（自動体外式除細動器）","latitude":35.48392899,"longitude":139.4413114}},{"type":"Feature","geometry":{"type":"Point","coordinates":[139.45696,35.49091]},"properties":{"cartodb_id":189,"__4":2,"ref":5,"id":189,"ref_yamato_type":"やまとAED救急ステーション","__3":"なし","__2":"10:00～22:00","opening_hour":"営業時間内","aed_type":"メドトロニックCRプラス","description":"設置場所：1F 防災センター内、2F 救護室内","__1":"1F 防災センター内、2F 救護室内","address":"大和市下鶴間1-3-1","_":"イトーヨーカ堂大和鶴間店","name":"イトーヨーカ堂大和鶴間店 AED","name_en":"AED(Automated External Defibrillator)","name_ja":"AED（自動体外式除細動器）","latitude":35.49090977,"longitude":139.4569599}},{"type":"Feature","geometry":{"type":"Point","coordinates":[139.457762,35.48876]},"properties":{"cartodb_id":190,"__4":3,"ref":6,"id":190,"ref_yamato_type":"やまとAED救急ステーション","__3":"なし","__2":"10:00～23:00","opening_hour":"営業時間内","aed_type":"フィリップスM5066A","description":"設置場所：1F 防災センター、2F 中央エスカレーター、3F 中央エスカレーター","__1":"1F 防災センター、2F 中央エスカレーター、3F 中央エスカレーター","address":"大和市下鶴間1-2-1","_":"イオンモール大和","name":"イオンモール大和 AED","name_en":"AED(Automated External Defibrillator)","name_ja":"AED（自動体外式除細動器）","latitude":35.48875987,"longitude":139.4577619}},{"type":"Feature","geometry":{"type":"Point","coordinates":[139.452639,35.510189]},"properties":{"cartodb_id":302,"__4":1,"ref":3,"id":303,"ref_yamato_type":"保育園・幼稚園AED","__3":"","__2":"","opening_hour":"開園時間内","aed_type":"","description":"","__1":"","address":"大和市下鶴間1591","_":"つきみ野幼稚園","name":"つきみ野幼稚園 AED","name_en":"AED(Automated External Defibrillator)","name_ja":"AED（自動体外式除細動器）","latitude":35.51018927,"longitude":139.4526389}},{"type":"Feature","geometry":{"type":"Point","coordinates":[139.464045,35.481208]},"properties":{"cartodb_id":191,"__4":1,"ref":7,"id":191,"ref_yamato_type":"やまとAED救急ステーション","__3":"なし","__2":"9:00～19:50(日・祝16:40まで)","opening_hour":"開所時間内","aed_type":"フィリップスM5066A","description":"設置場所：1F 予約機横","__1":"1F 予約機横","address":"大和市深見西4-3-29","_":"大和自動車学校","name":"大和自動車学校 AED","name_en":"AED(Automated External Defibrillator)","name_ja":"AED（自動体外式除細動器）","latitude":35.48120826,"longitude":139.464045}},{"type":"Feature","geometry":{"type":"Point","coordinates":[139.459895,35.469813]},"properties":{"cartodb_id":192,"__4":1,"ref":8,"id":192,"ref_yamato_type":"やまとAED救急ステーション","__3":"なし","__2":"10:00～22:00","opening_hour":"営業時間内","aed_type":"フィリップスFR2","description":"設置場所：1F ロビー内","__1":"1F ロビー内","address":"大和市中央4-1-20","_":"東横イン大和駅前店","name":"東横イン大和駅前店 AED","name_en":"AED(Automated External Defibrillator)","name_ja":"AED（自動体外式除細動器）","latitude":35.46981307,"longitude":139.4598955}},{"type":"Feature","geometry":{"type":"Point","coordinates":[139.460325,35.46686]},"properties":{"cartodb_id":193,"__4":2,"ref":9,"id":193,"ref_yamato_type":"やまとAED救急ステーション","__3":"なし","__2":"9:00～22:00","opening_hour":"営業時間内","aed_type":"メドトロニックCRプラス/日本光電 AED2100","description":"設置場所：2Fﾌﾛﾝﾄﾛﾋﾞｰ、4Fﾃﾆｽﾌﾛﾝﾄｶｳﾝﾀｰ","__1":"2Fﾌﾛﾝﾄﾛﾋﾞｰ、4Fﾃﾆｽﾌﾛﾝﾄｶｳﾝﾀｰ","address":"大和市中央5-14-4","_":"メガロス大和","name":"メガロス大和 AED","name_en":"AED(Automated External Defibrillator)","name_ja":"AED（自動体外式除細動器）","latitude":35.46685976,"longitude":139.4603255}},{"type":"Feature","geometry":{"type":"Point","coordinates":[139.467807,35.459529]},"properties":{"cartodb_id":194,"__4":1,"ref":10,"id":194,"ref_yamato_type":"やまとAED救急ステーション","__3":"なし","__2":"10:00～24:00","opening_hour":"営業時間内","aed_type":"フィリップスＨＳ-１","description":"設置場所：1F フロント内","__1":"1F フロント内","address":"大和市深見3875-1","_":"桜ケ丘ボウリングセンター","name":"桜ケ丘ボウリングセンター AED","name_en":"AED(Automated External Defibrillator)","name_ja":"AED（自動体外式除細動器）","latitude":35.45952906,"longitude":139.4678072}},{"type":"Feature","geometry":{"type":"Point","coordinates":[139.464244,35.449883]},"properties":{"cartodb_id":195,"__4":1,"ref":11,"id":195,"ref_yamato_type":"やまとAED救急ステーション","__3":"日・祝","__2":"8:00～19:30","opening_hour":"営業時間内","aed_type":"日本光電 AED1200","description":"設置場所：1F 施術室内","__1":"1F 施術室内","address":"大和市福田2-14-4","_":"内藤接骨院","name":"内藤接骨院 AED","name_en":"AED(Automated External Defibrillator)","name_ja":"AED（自動体外式除細動器）","latitude":35.44988304,"longitude":139.4642444}},{"type":"Feature","geometry":{"type":"Point","coordinates":[139.465865,35.43304]},"properties":{"cartodb_id":196,"__4":1,"ref":12,"id":196,"ref_yamato_type":"やまとAED救急ステーション","__3":"なし","__2":"9:00～23:00","opening_hour":"営業時間内","aed_type":"日本光電 AED2100","description":"設置場所：1F 景品フロント内","__1":"1F 景品フロント内","address":"大和市福田2026","_":"大魔人高座渋谷店","name":"大魔人高座渋谷店 AED","name_en":"AED(Automated External Defibrillator)","name_ja":"AED（自動体外式除細動器）","latitude":35.43304034,"longitude":139.4658651}},{"type":"Feature","geometry":{"type":"Point","coordinates":[139.461731,35.468006]},"properties":{"cartodb_id":197,"__4":1,"ref":13,"id":197,"ref_yamato_type":"やまとAED救急ステーション","__3":"土・日・祝","__2":"8:30～17:00","opening_hour":"開庁時間内","aed_type":"日本光電 AED1200","description":"設置場所：1F ロビー内","__1":"1F ロビー内","address":"大和市中央1-5-40","_":"大和商工会議所","name":"大和商工会議所 AED","name_en":"AED(Automated External Defibrillator)","name_ja":"AED（自動体外式除細動器）","latitude":35.46800552,"longitude":139.4617308}},{"type":"Feature","geometry":{"type":"Point","coordinates":[139.453657,35.490433]},"properties":{"cartodb_id":198,"__4":1,"ref":15,"id":199,"ref_yamato_type":"やまとAED救急ステーション","__3":"木・日・祝","__2":"9:00～19:00","opening_hour":"診療時間内","aed_type":"日本光電 AED1200","description":"設置場所：１階眼科歯科受付","__1":"１階眼科歯科受付","address":"大和市鶴間1-31-1","_":"大和クリニックモール","name":"大和クリニックモール AED","name_en":"AED(Automated External Defibrillator)","name_ja":"AED（自動体外式除細動器）","latitude":35.49043275,"longitude":139.4536574}},{"type":"Feature","geometry":{"type":"Point","coordinates":[139.453095,35.490574]},"properties":{"cartodb_id":199,"__4":1,"ref":16,"id":200,"ref_yamato_type":"やまとAED救急ステーション","__3":"土(第2.4.5)・日・祝","__2":"9:00～18:00","opening_hour":"診療時間内","aed_type":"日本光電 AED1200","description":"設置場所：１階クリニック受付","__1":"１階クリニック受付","address":"大和市鶴間2-11-29","_":"第2大和クリニックモール","name":"第2大和クリニックモール AED","name_en":"AED(Automated External Defibrillator)","name_ja":"AED（自動体外式除細動器）","latitude":35.4905738,"longitude":139.4530953}},{"type":"Feature","geometry":{"type":"Point","coordinates":[139.434983,35.501445]},"properties":{"cartodb_id":200,"__4":1,"ref":17,"id":201,"ref_yamato_type":"やまとAED救急ステーション","__3":"土・日・祝","__2":"8:00～16:45","opening_hour":"営業時間内","aed_type":"日本光電 AED2150","description":"設置場所：守衛所内","__1":"守衛所内","address":"大和市下鶴間3825","_":"ユニプレス株式会社","name":"ユニプレス株式会社 AED","name_en":"AED(Automated External Defibrillator)","name_ja":"AED（自動体外式除細動器）","latitude":35.50144494,"longitude":139.4349828}},{"type":"Feature","geometry":{"type":"Point","coordinates":[139.468403,35.436928]},"properties":{"cartodb_id":201,"__4":1,"ref":18,"id":202,"ref_yamato_type":"やまとAED救急ステーション","__3":"なし","__2":"9:00～18:00","opening_hour":"開所時間内","aed_type":"フィリップスＨＳ-１","description":"設置場所：１階デイフロア壁","__1":"１階デイフロア壁","address":"大和市上和田3467-1","_":"特別養護老人ホーム ひまわりの郷","name":"特別養護老人ホーム ひまわりの郷 AED","name_en":"AED(Automated External Defibrillator)","name_ja":"AED（自動体外式除細動器）","latitude":35.43692782,"longitude":139.468403}},{"type":"Feature","geometry":{"type":"Point","coordinates":[139.464873,35.469549]},"properties":{"cartodb_id":295,"__4":1,"ref":10,"id":296,"ref_yamato_type":"郵便局AED","__3":"土・日・祝","__2":"","opening_hour":"営業時間内","aed_type":"日本光電 AED2100","description":"設置場所：事務室","__1":"事務室","address":"大和市大和南1-8-9","_":"南大和郵便局","name":"南大和郵便局 AED","name_en":"AED(Automated External Defibrillator)","name_ja":"AED（自動体外式除細動器）","latitude":35.46954892,"longitude":139.4648726}},{"type":"Feature","geometry":{"type":"Point","coordinates":[139.47073,35.441643]},"properties":{"cartodb_id":202,"__4":2,"ref":19,"id":203,"ref_yamato_type":"やまとAED救急ステーション","__3":"なし","__2":"8:30～19:00","opening_hour":"開所時間内","aed_type":"日本光電 AED9100/2100","description":"設置場所：２階、３階サービスステーション","__1":"２階、３階サービスステーション","address":"大和市上和田2633","_":"しょうじゅの里大和","name":"しょうじゅの里大和 AED","name_en":"AED(Automated External Defibrillator)","name_ja":"AED（自動体外式除細動器）","latitude":35.44164258,"longitude":139.4707296}},{"type":"Feature","geometry":{"type":"Point","coordinates":[139.456358,35.451495]},"properties":{"cartodb_id":203,"__4":3,"ref":20,"id":204,"ref_yamato_type":"やまとAED救急ステーション","__3":"土・日・祝","__2":"8:00～17:00","opening_hour":"営業時間内","aed_type":"日本光電 AED2100","description":"設置場所：本館事務所入り口、現場事務所、型彫工場２階事務所","__1":"本館事務所入り口、現場事務所、型彫工場２階事務所","address":"大和市柳橋5-12-30","_":"図南鍛工株式会社","name":"図南鍛工株式会社 AED","name_en":"AED(Automated External Defibrillator)","name_ja":"AED（自動体外式除細動器）","latitude":35.45149528,"longitude":139.4563577}},{"type":"Feature","geometry":{"type":"Point","coordinates":[139.460739,35.477709]},"properties":{"cartodb_id":204,"__4":1,"ref":21,"id":205,"ref_yamato_type":"やまとAED救急ステーション","__3":"土・日・祝","__2":"8:15～17:00","opening_hour":"営業時間内","aed_type":"日本光電 AED9231","description":"設置場所：1F玄関ロビー","__1":"1F玄関ロビー","address":"大和市深見西1-5-28","_":"岡野電線㈱","name":"岡野電線㈱ AED","name_en":"AED(Automated External Defibrillator)","name_ja":"AED（自動体外式除細動器）","latitude":35.47770885,"longitude":139.4607392}},{"type":"Feature","geometry":{"type":"Point","coordinates":[139.434341,35.495814]},"properties":{"cartodb_id":205,"__4":1,"ref":22,"id":206,"ref_yamato_type":"やまとAED救急ステーション","__3":"火曜日","__2":"9:30～18:00","opening_hour":"営業時間内","aed_type":"オムロンHDF3000","description":"設置場所：クラブハウス1Fロビー","__1":"クラブハウス1Fロビー","address":"大和市南林間9-7-13","_":"南林間テニスクラブ","name":"南林間テニスクラブ AED","name_en":"AED(Automated External Defibrillator)","name_ja":"AED（自動体外式除細動器）","latitude":35.49581353,"longitude":139.4343406}},{"type":"Feature","geometry":{"type":"Point","coordinates":[139.472536,35.459231]},"properties":{"cartodb_id":206,"__4":1,"ref":23,"id":207,"ref_yamato_type":"やまとAED救急ステーション","__3":"なし","__2":"9:00～17:00","opening_hour":"開館時間内","aed_type":"フィリップスFRX","description":"設置場所：会館内管理事務室","__1":"会館内管理事務室","address":"大和市上和田178-1","_":"相鉄コープ自治会館","name":"相鉄コープ自治会館 AED","name_en":"AED(Automated External Defibrillator)","name_ja":"AED（自動体外式除細動器）","latitude":35.45923143,"longitude":139.4725357}},{"type":"Feature","geometry":{"type":"Point","coordinates":[139.458572,35.438588]},"properties":{"cartodb_id":207,"__4":1,"ref":24,"id":208,"ref_yamato_type":"やまとAED救急ステーション","__3":"水・土12:30以降","__2":"8:30～18:30","opening_hour":"診療時間内","aed_type":"日本光電 AED2100","description":"設置場所：受付内","__1":"受付内","address":"大和市福田3759-1 桜一番館101号室","_":"いわま接骨院","name":"いわま接骨院 AED","name_en":"AED(Automated External Defibrillator)","name_ja":"AED（自動体外式除細動器）","latitude":35.4385881,"longitude":139.4585724}},{"type":"Feature","geometry":{"type":"Point","coordinates":[139.445648,35.493859]},"properties":{"cartodb_id":208,"__4":1,"ref":25,"id":209,"ref_yamato_type":"やまとAED救急ステーション","__3":"水(午後) ・日・祝","__2":"8:00～19:00","opening_hour":"診療時間内","aed_type":"日本光電 AED1200","description":"設置場所：診療室","__1":"診療室","address":"大和市南林間1-18-3","_":"さんご接骨院","name":"さんご接骨院 AED","name_en":"AED(Automated External Defibrillator)","name_ja":"AED（自動体外式除細動器）","latitude":35.4938591,"longitude":139.4456477}},{"type":"Feature","geometry":{"type":"Point","coordinates":[139.462191,35.466573]},"properties":{"cartodb_id":209,"__4":1,"ref":26,"id":210,"ref_yamato_type":"やまとAED救急ステーション","__3":"木・日・祝","__2":"8:30～17:15","opening_hour":"開庁時間内","aed_type":"日本光電 AED2100","description":"設置場所：１階事務室","__1":"１階事務室","address":"大和市中央1-5-26","_":"大和保健福祉事務所","name":"大和保健福祉事務所 AED","name_en":"AED(Automated External Defibrillator)","name_ja":"AED（自動体外式除細動器）","latitude":35.46657272,"longitude":139.4621909}},{"type":"Feature","geometry":{"type":"Point","coordinates":[139.447071,35.494996]},"properties":{"cartodb_id":210,"__4":1,"ref":27,"id":211,"ref_yamato_type":"やまとAED救急ステーション","__3":"土・日・祝","__2":"9:30～19:00","opening_hour":"診療時間内","aed_type":"日本光電 AED9200","description":"設置場所：診察室","__1":"診察室","address":"大和市南林間1-8-3","_":"青木歯科医院","name":"青木歯科医院 AED","name_en":"AED(Automated External Defibrillator)","name_ja":"AED（自動体外式除細動器）","latitude":35.49499604,"longitude":139.4470713}},{"type":"Feature","geometry":{"type":"Point","coordinates":[139.448114,35.494888]},"properties":{"cartodb_id":211,"__4":1,"ref":28,"id":212,"ref_yamato_type":"やまとAED救急ステーション","__3":"木・日・祝","__2":"9:00～19:30","opening_hour":"診療時間内","aed_type":"日本光電 AED2100","description":"設置場所：待合室","__1":"待合室","address":"大和市南林間1-3-9","_":"小俣歯科医院","name":"小俣歯科医院 AED","name_en":"AED(Automated External Defibrillator)","name_ja":"AED（自動体外式除細動器）","latitude":35.49488771,"longitude":139.4481142}},{"type":"Feature","geometry":{"type":"Point","coordinates":[139.467476,35.450121]},"properties":{"cartodb_id":212,"__4":1,"ref":29,"id":213,"ref_yamato_type":"やまとAED救急ステーション","__3":"木・祝","__2":"10:00～20:00","opening_hour":"診療時間内","aed_type":"日本光電 AED9200","description":"設置場所：受付横","__1":"受付横","address":"大和市上和田979-1 シルバーコーポ桜ケ丘2F","_":"嶋村歯科医院","name":"嶋村歯科医院 AED","name_en":"AED(Automated External Defibrillator)","name_ja":"AED（自動体外式除細動器）","latitude":35.45012148,"longitude":139.4674755}},{"type":"Feature","geometry":{"type":"Point","coordinates":[139.461941,35.503904]},"properties":{"cartodb_id":213,"__4":2,"ref":30,"id":214,"ref_yamato_type":"やまとAED救急ステーション","__3":"なし","__2":"9:00～23:00","opening_hour":"営業時間内","aed_type":"日本光電 AED1200/フィリップスFRX","description":"設置場所：１階及び２階フロント","__1":"１階及び２階フロント","address":"大和市つきみ野2-1-8","_":"アリーナつきみ野スポーツクラブ","name":"アリーナつきみ野スポーツクラブ AED","name_en":"AED(Automated External Defibrillator)","name_ja":"AED（自動体外式除細動器）","latitude":35.50390441,"longitude":139.4619406}},{"type":"Feature","geometry":{"type":"Point","coordinates":[139.458109,35.511671]},"properties":{"cartodb_id":214,"__4":1,"ref":31,"id":215,"ref_yamato_type":"やまとAED救急ステーション","__3":"日・祝","__2":"9:00～18:00","opening_hour":"診療時間内","aed_type":"フィリップスＨＳ-１","description":"設置場所：診察室","__1":"診察室","address":"大和市つきみ野5-14-15","_":"田尻下歯科医院","name":"田尻下歯科医院 AED","name_en":"AED(Automated External Defibrillator)","name_ja":"AED（自動体外式除細動器）","latitude":35.51167081,"longitude":139.4581094}},{"type":"Feature","geometry":{"type":"Point","coordinates":[139.450075,35.496014]},"properties":{"cartodb_id":215,"__4":1,"ref":32,"id":216,"ref_yamato_type":"やまとAED救急ステーション","__3":"水・日・祝","__2":"9:30～19:00","opening_hour":"診療時間内","aed_type":"日本光電 AED2100","description":"設置場所：受付","__1":"受付","address":"大和市林間1-6-11","_":"林歯科医院","name":"林歯科医院 AED","name_en":"AED(Automated External Defibrillator)","name_ja":"AED（自動体外式除細動器）","latitude":35.49601378,"longitude":139.4500748}},{"type":"Feature","geometry":{"type":"Point","coordinates":[139.450238,35.490267]},"properties":{"cartodb_id":216,"__4":1,"ref":33,"id":217,"ref_yamato_type":"やまとAED救急ステーション","__3":"日・祝","__2":"9:30～19:00、(土)17:30","opening_hour":"診療時間内","aed_type":"日本光電 AED9200","description":"設置場所：診察室","__1":"診察室","address":"大和市西鶴間1-3-2 曽根ビル2階","_":"石塚歯科医院","name":"石塚歯科医院 AED","name_en":"AED(Automated External Defibrillator)","name_ja":"AED（自動体外式除細動器）","latitude":35.49026697,"longitude":139.4502382}},{"type":"Feature","geometry":{"type":"Point","coordinates":[139.464619,35.450726]},"properties":{"cartodb_id":217,"__4":1,"ref":34,"id":218,"ref_yamato_type":"やまとAED救急ステーション","__3":"なし","__2":"8:00～21:00","opening_hour":"営業時間内","aed_type":"日本光電 AED9231","description":"設置場所：ＡＴＭコーナー","__1":"ＡＴＭコーナー","address":"大和市福田1-8-7","_":"平塚信用金庫 桜ケ丘支店","name":"平塚信用金庫 桜ケ丘支店 AED","name_en":"AED(Automated External Defibrillator)","name_ja":"AED（自動体外式除細動器）","latitude":35.45072625,"longitude":139.4646187}},{"type":"Feature","geometry":{"type":"Point","coordinates":[139.463238,35.471359]},"properties":{"cartodb_id":218,"__4":1,"ref":35,"id":219,"ref_yamato_type":"やまとAED救急ステーション","__3":"木","__2":"9:00～23:00","opening_hour":"営業時間内","aed_type":"日本光電 AED2100","description":"設置場所：１Ｆ ジムスペース","__1":"１Ｆ ジムスペース","address":"大和市大和東3-2-1","_":"スポーツクラブルネサンス大和","name":"スポーツクラブルネサンス大和 AED","name_en":"AED(Automated External Defibrillator)","name_ja":"AED（自動体外式除細動器）","latitude":35.47135934,"longitude":139.463238}},{"type":"Feature","geometry":{"type":"Point","coordinates":[139.462473,35.504076]},"properties":{"cartodb_id":219,"__4":1,"ref":36,"id":220,"ref_yamato_type":"やまとAED救急ステーション","__3":"なし","__2":"24時間","opening_hour":"24時間","aed_type":"日本光電 AED2100","description":"設置場所：エントランス","__1":"エントランス","address":"大和市つきみ野2-1-6","_":"パールコートつきみ野","name":"パールコートつきみ野 AED","name_en":"AED(Automated External Defibrillator)","name_ja":"AED（自動体外式除細動器）","latitude":35.50407615,"longitude":139.4624735}},{"type":"Feature","geometry":{"type":"Point","coordinates":[139.448817,35.516292]},"properties":{"cartodb_id":220,"__4":1,"ref":37,"id":221,"ref_yamato_type":"やまとAED救急ステーション","__3":"なし","__2":"9:00～19:00","opening_hour":"営業時間内","aed_type":"フィリップスＨＳ-１","description":"設置場所：中央林間テニスクラブ フロント","__1":"中央林間テニスクラブ フロント","address":"大和市下鶴間1450","_":"中央林間テニスクラブ","name":"中央林間テニスクラブ AED","name_en":"AED(Automated External Defibrillator)","name_ja":"AED（自動体外式除細動器）","latitude":35.51629181,"longitude":139.4488171}},{"type":"Feature","geometry":{"type":"Point","coordinates":[139.46627,35.435186]},"properties":{"cartodb_id":221,"__4":6,"ref":38,"id":222,"ref_yamato_type":"やまとAED救急ステーション","__3":"なし","__2":"9:00～22:00","opening_hour":"営業時間内","aed_type":"フィリップスFRX","description":"設置場所：1Fｻｰﾋﾞｽｶｳﾝﾀｰ、3F集中ﾚｼﾞ他５か所","__1":"1Fｻｰﾋﾞｽｶｳﾝﾀｰ、3F集中ﾚｼﾞ他５か所","address":"大和市下和田1216-1","_":"イオン大和店","name":"イオン大和店 AED","name_en":"AED(Automated External Defibrillator)","name_ja":"AED（自動体外式除細動器）","latitude":35.43518599,"longitude":139.4662705}},{"type":"Feature","geometry":{"type":"Point","coordinates":[139.465727,35.494787]},"properties":{"cartodb_id":222,"__4":1,"ref":39,"id":223,"ref_yamato_type":"やまとAED救急ステーション","__3":"日・祝・盆","__2":"24時間","opening_hour":"24時間","aed_type":"フィリップスＨＳ-１","description":"設置場所：２階事務所","__1":"２階事務所","address":"大和市下鶴間2594","_":"㈱ＮＩＰＰＯ大和合材工場","name":"㈱ＮＩＰＰＯ大和合材工場 AED","name_en":"AED(Automated External Defibrillator)","name_ja":"AED（自動体外式除細動器）","latitude":35.49478685,"longitude":139.4657267}},{"type":"Feature","geometry":{"type":"Point","coordinates":[139.460298,35.45909]},"properties":{"cartodb_id":223,"__4":1,"ref":40,"id":224,"ref_yamato_type":"やまとAED救急ステーション","__3":"土・日・祝","__2":"8:30～17:15","opening_hour":"営業時間内","aed_type":"メドトロニックCRプラス","description":"設置場所：事務所入口（２階）","__1":"事務所入口（２階）","address":"大和市柳橋4-7-4","_":"共同カイテック株式会社 神奈川技術センター","name":"共同カイテック株式会社 神奈川技術センター AED","name_en":"AED(Automated External Defibrillator)","name_ja":"AED（自動体外式除細動器）","latitude":35.45908969,"longitude":139.4602976}},{"type":"Feature","geometry":{"type":"Point","coordinates":[139.456185,35.510125]},"properties":{"cartodb_id":224,"__4":1,"ref":41,"id":225,"ref_yamato_type":"やまとAED救急ステーション","__3":"土・日・祝","__2":"10:00～15:00","opening_hour":"開館時間内","aed_type":"日本光電 AED1200","description":"設置場所：自治会館１階ホール","__1":"自治会館１階ホール","address":"大和市つきみ野5-7-2","_":"つきみ野自治会館","name":"つきみ野自治会館 AED","name_en":"AED(Automated External Defibrillator)","name_ja":"AED（自動体外式除細動器）","latitude":35.51012495,"longitude":139.4561846}},{"type":"Feature","geometry":{"type":"Point","coordinates":[139.46208,35.479486]},"properties":{"cartodb_id":225,"__4":1,"ref":42,"id":226,"ref_yamato_type":"やまとAED救急ステーション","__3":"土・日・祝","__2":"8:30～17:30","opening_hour":"営業時間内","aed_type":"フィリップスＨＳ-１","description":"設置場所：守衛所横カウンター横","__1":"守衛所横カウンター横","address":"大和市深見西4-1-62","_":"極東開発株式会社 横浜工場","name":"極東開発株式会社 横浜工場 AED","name_en":"AED(Automated External Defibrillator)","name_ja":"AED（自動体外式除細動器）","latitude":35.4794857,"longitude":139.4620801}},{"type":"Feature","geometry":{"type":"Point","coordinates":[139.470043,35.48181]},"properties":{"cartodb_id":226,"__4":1,"ref":43,"id":227,"ref_yamato_type":"やまとAED救急ステーション","__3":"","__2":"8:30～17:30","opening_hour":"開館時間内","aed_type":"日本光電 AED2100","description":"設置場所：事務室内","__1":"事務室内","address":"大和市深見941-1","_":"ワークステーション・菜の花","name":"ワークステーション・菜の花 AED","name_en":"AED(Automated External Defibrillator)","name_ja":"AED（自動体外式除細動器）","latitude":35.48180977,"longitude":139.4700434}},{"type":"Feature","geometry":{"type":"Point","coordinates":[139.44407,35.511386]},"properties":{"cartodb_id":303,"__4":1,"ref":4,"id":304,"ref_yamato_type":"保育園・幼稚園AED","__3":"","__2":"","opening_hour":"開園時間内","aed_type":"","description":"","__1":"","address":"大和市下鶴間4428-3","_":"十六山保育園","name":"十六山保育園 AED","name_en":"AED(Automated External Defibrillator)","name_ja":"AED（自動体外式除細動器）","latitude":35.51138592,"longitude":139.4440704}},{"type":"Feature","geometry":{"type":"Point","coordinates":[139.451838,35.487173]},"properties":{"cartodb_id":227,"__4":1,"ref":44,"id":228,"ref_yamato_type":"やまとAED救急ステーション","__3":"水・日・祝","__2":"8:30～17:30、(土)～13:00","opening_hour":"診療時間内","aed_type":"日本光電 AED9100","description":"設置場所：小児科 診察室","__1":"小児科 診察室","address":"大和市西鶴間3-5-6-110","_":"小林国際クリニック","name":"小林国際クリニック AED","name_en":"AED(Automated External Defibrillator)","name_ja":"AED（自動体外式除細動器）","latitude":35.4871731,"longitude":139.4518384}},{"type":"Feature","geometry":{"type":"Point","coordinates":[139.459234,35.460615]},"properties":{"cartodb_id":228,"__4":1,"ref":45,"id":229,"ref_yamato_type":"やまとAED救急ステーション","__3":"なし","__2":"24時間","opening_hour":"24時間","aed_type":"日本光電 AED2100","description":"設置場所：玄関内","__1":"玄関内","address":"大和市中央6-12-4","_":"高齢者地域密着型サービス施設 ゆらり","name":"高齢者地域密着型サービス施設 ゆらり AED","name_en":"AED(Automated External Defibrillator)","name_ja":"AED（自動体外式除細動器）","latitude":35.4606151,"longitude":139.4592336}},{"type":"Feature","geometry":{"type":"Point","coordinates":[139.435393,35.495201]},"properties":{"cartodb_id":229,"__4":1,"ref":46,"id":230,"ref_yamato_type":"やまとAED救急ステーション","__3":"なし","__2":"8:30～19:00","opening_hour":"診療時間内","aed_type":"日本光電 AED9231","description":"設置場所：１階ロビー","__1":"１階ロビー","address":"大和市南林間9-8-2","_":"大和成和病院","name":"大和成和病院 AED","name_en":"AED(Automated External Defibrillator)","name_ja":"AED（自動体外式除細動器）","latitude":35.49520068,"longitude":139.4353932}},{"type":"Feature","geometry":{"type":"Point","coordinates":[139.464701,35.451524]},"properties":{"cartodb_id":230,"__4":2,"ref":47,"id":231,"ref_yamato_type":"やまとAED救急ステーション","__3":"なし","__2":"24時間","opening_hour":"24時間","aed_type":"日本光電 AED2100/9100","description":"設置場所：１階外来処置室・４階病棟","__1":"１階外来処置室・４階病棟","address":"大和市福田1-7-1","_":"桜ヶ丘中央病院","name":"桜ヶ丘中央病院 AED","name_en":"AED(Automated External Defibrillator)","name_ja":"AED（自動体外式除細動器）","latitude":35.45152384,"longitude":139.4647007}},{"type":"Feature","geometry":{"type":"Point","coordinates":[139.464577,35.470229]},"properties":{"cartodb_id":231,"__4":1,"ref":48,"id":232,"ref_yamato_type":"やまとAED救急ステーション","__3":"木・日・祝","__2":"9:00～18:30","opening_hour":"診療時間内","aed_type":"フィリップスＨＳ-１","description":"設置場所：クリニック内","__1":"クリニック内","address":"大和市大和東1-9-25","_":"のぶきよ耳鼻咽喉科クリニック","name":"のぶきよ耳鼻咽喉科クリニック AED","name_en":"AED(Automated External Defibrillator)","name_ja":"AED（自動体外式除細動器）","latitude":35.47022934,"longitude":139.4645772}},{"type":"Feature","geometry":{"type":"Point","coordinates":[139.470855,35.469976]},"properties":{"cartodb_id":232,"__4":1,"ref":49,"id":233,"ref_yamato_type":"やまとAED救急ステーション","__3":"木・土日(午後)","__2":"9:15～11:45、15:00～18:00","opening_hour":"診療時間内","aed_type":"フィリップスFR2","description":"設置場所：受付","__1":"受付","address":"大和市深見台3-5-28","_":"深見台中央医院","name":"深見台中央医院 AED","name_en":"AED(Automated External Defibrillator)","name_ja":"AED（自動体外式除細動器）","latitude":35.46997605,"longitude":139.4708548}},{"type":"Feature","geometry":{"type":"Point","coordinates":[139.453341,35.50287]},"properties":{"cartodb_id":233,"__4":2,"ref":50,"id":234,"ref_yamato_type":"やまとAED救急ステーション","__3":"","__2":"8:50～17:30","opening_hour":"営業時間内","aed_type":"メドトロニックCRプラス","description":"設置場所：西門警備室・南門警備室","__1":"西門警備室・南門警備室","address":"大和市下鶴間1742-7","_":"三機工業株式会社 大和事業所","name":"三機工業株式会社 大和事業所 AED","name_en":"AED(Automated External Defibrillator)","name_ja":"AED（自動体外式除細動器）","latitude":35.5028701,"longitude":139.4533413}},{"type":"Feature","geometry":{"type":"Point","coordinates":[139.461242,35.468446]},"properties":{"cartodb_id":234,"__4":1,"ref":51,"id":235,"ref_yamato_type":"やまとAED救急ステーション","__3":"なし","__2":"24時間","opening_hour":"24時間","aed_type":"ゾールメディカルAEDプラス","description":"設置場所：フロント","__1":"フロント","address":"大和市中央1-3-19","_":"大和第一ホテル","name":"大和第一ホテル AED","name_en":"AED(Automated External Defibrillator)","name_ja":"AED（自動体外式除細動器）","latitude":35.46844555,"longitude":139.4612421}},{"type":"Feature","geometry":{"type":"Point","coordinates":[139.453555,35.477607]},"properties":{"cartodb_id":235,"__4":1,"ref":52,"id":236,"ref_yamato_type":"やまとAED救急ステーション","__3":"なし","__2":"9:30～17:45","opening_hour":"営業時間内","aed_type":"日本光電 AED2100","description":"設置場所：従業員用出入口付近","__1":"従業員用出入口付近","address":"大和市上草柳3-19-28","_":"㈱ﾃｸﾉﾛｼﾞｰﾈｯﾄﾜｰｸ 東日本事業本部 神奈川北技術センター","name":"㈱ﾃｸﾉﾛｼﾞｰﾈｯﾄﾜｰｸ 東日本事業本部 神奈川北技術センター AED","name_en":"AED(Automated External Defibrillator)","name_ja":"AED（自動体外式除細動器）","latitude":35.47760688,"longitude":139.4535554}},{"type":"Feature","geometry":{"type":"Point","coordinates":[139.458933,35.47932]},"properties":{"cartodb_id":236,"__4":1,"ref":53,"id":237,"ref_yamato_type":"やまとAED救急ステーション","__3":"祝日","__2":"9:00～20:00","opening_hour":"営業時間内","aed_type":"日本光電 AED2100","description":"設置場所：ショールーム玄関左側","__1":"ショールーム玄関左側","address":"大和市深見西3-2-30","_":"日本住宅ツーバイ","name":"日本住宅ツーバイ AED","name_en":"AED(Automated External Defibrillator)","name_ja":"AED（自動体外式除細動器）","latitude":35.47932037,"longitude":139.458933}},{"type":"Feature","geometry":{"type":"Point","coordinates":[139.444654,35.475073]},"properties":{"cartodb_id":237,"__4":1,"ref":54,"id":238,"ref_yamato_type":"やまとAED救急ステーション","__3":"","__2":"9:00～17:30(1・2月17:20)","opening_hour":"営業時間内","aed_type":"日本光電 AED9231","description":"設置場所：第２工場中２階 男子更衣室入口前","__1":"第２工場中２階 男子更衣室入口前","address":"大和市上草柳193","_":"巴工業株式会社 サガミ工場","name":"巴工業株式会社 サガミ工場 AED","name_en":"AED(Automated External Defibrillator)","name_ja":"AED（自動体外式除細動器）","latitude":35.47507276,"longitude":139.4446536}},{"type":"Feature","geometry":{"type":"Point","coordinates":[139.449156,35.491319]},"properties":{"cartodb_id":238,"__4":1,"ref":55,"id":239,"ref_yamato_type":"やまとAED救急ステーション","__3":"","__2":"9:00～17:00","opening_hour":"開所時間内","aed_type":"日本光電 AED1200","description":"設置場所：事務所入口の右側机上","__1":"事務所入口の右側机上","address":"大和市西鶴間1-11-15 ｼｬﾛｰﾑ1階","_":"ﾜｰｶｰｽﾞ・ｺﾚｸﾃｨﾌﾞ想","name":"ﾜｰｶｰｽﾞ・ｺﾚｸﾃｨﾌﾞ想 AED","name_en":"AED(Automated External Defibrillator)","name_ja":"AED（自動体外式除細動器）","latitude":35.49131938,"longitude":139.449156}},{"type":"Feature","geometry":{"type":"Point","coordinates":[139.464793,35.454861]},"properties":{"cartodb_id":239,"__4":1,"ref":56,"id":240,"ref_yamato_type":"やまとAED救急ステーション","__3":"なし","__2":"24時間","opening_hour":"24時間","aed_type":"日本光電 AED2100","description":"設置場所：エントランス","__1":"エントランス","address":"大和市柳橋3-5-4","_":"ネオマイム桜ヶ丘 管理組合","name":"ネオマイム桜ヶ丘 管理組合 AED","name_en":"AED(Automated External Defibrillator)","name_ja":"AED（自動体外式除細動器）","latitude":35.45486076,"longitude":139.4647931}},{"type":"Feature","geometry":{"type":"Point","coordinates":[139.464001,35.423941]},"properties":{"cartodb_id":240,"__4":1,"ref":57,"id":241,"ref_yamato_type":"やまとAED救急ステーション","__3":"なし","__2":"9:00～17:00","opening_hour":"開所時間内","aed_type":"フィリップスＨＳ-１","description":"設置場所：玄関フロアー","__1":"玄関フロアー","address":"大和市福田1551","_":"社会福祉法人 敬愛会","name":"社会福祉法人 敬愛会 AED","name_en":"AED(Automated External Defibrillator)","name_ja":"AED（自動体外式除細動器）","latitude":35.42394055,"longitude":139.4640014}},{"type":"Feature","geometry":{"type":"Point","coordinates":[139.449985,35.509131]},"properties":{"cartodb_id":241,"__4":1,"ref":58,"id":242,"ref_yamato_type":"やまとAED救急ステーション","__3":"なし","__2":"10:00～23:30","opening_hour":"営業時間内","aed_type":"日本光電 AED2100","description":"設置場所：２階 ジムエリア","__1":"２階 ジムエリア","address":"大和市下鶴間1596-8","_":"ﾌｨｯﾄﾈｽ＆ｽﾊﾟ あすウェル中央林間","name":"ﾌｨｯﾄﾈｽ＆ｽﾊﾟ あすウェル中央林間 AED","name_en":"AED(Automated External Defibrillator)","name_ja":"AED（自動体外式除細動器）","latitude":35.50913072,"longitude":139.449985}},{"type":"Feature","geometry":{"type":"Point","coordinates":[139.461205,35.469949]},"properties":{"cartodb_id":242,"__4":1,"ref":59,"id":243,"ref_yamato_type":"やまとAED救急ステーション","__3":"なし","__2":"4:30～25:30","opening_hour":"営業時間内","aed_type":"メドトロニックCRプラス","description":"設置場所：地下１階ホーム中央付近","__1":"地下１階ホーム中央付近","address":"大和市中央2-1-1","_":"相模鉄道株式会社 大和駅","name":"相模鉄道株式会社 大和駅 AED","name_en":"AED(Automated External Defibrillator)","name_ja":"AED（自動体外式除細動器）","latitude":35.46994878,"longitude":139.4612053}},{"type":"Feature","geometry":{"type":"Point","coordinates":[139.440749,35.470646]},"properties":{"cartodb_id":243,"__4":1,"ref":60,"id":244,"ref_yamato_type":"やまとAED救急ステーション","__3":"なし","__2":"4:30～25:30","opening_hour":"営業時間内","aed_type":"メドトロニックCRプラス","description":"設置場所：駅事務所改札を入った右側壁面","__1":"駅事務所改札を入った右側壁面","address":"大和市桜森3-1-1","_":"相模鉄道株式会社 相模大塚駅","name":"相模鉄道株式会社 相模大塚駅 AED","name_en":"AED(Automated External Defibrillator)","name_ja":"AED（自動体外式除細動器）","latitude":35.47064626,"longitude":139.4407486}},{"type":"Feature","geometry":{"type":"Point","coordinates":[139.444982,35.507532]},"properties":{"cartodb_id":244,"__4":1,"ref":61,"id":245,"ref_yamato_type":"やまとAED救急ステーション","__3":"なし","__2":"5:00～25:00","opening_hour":"営業時間内","aed_type":"フィリップスFRX","description":"設置場所：自動改札機横","__1":"自動改札機横","address":"大和市中央林間4-6-3","_":"東急電鉄株式会社 中央林間駅","name":"東急電鉄株式会社 中央林間駅 AED","name_en":"AED(Automated External Defibrillator)","name_ja":"AED（自動体外式除細動器）","latitude":35.50753162,"longitude":139.444982}},{"type":"Feature","geometry":{"type":"Point","coordinates":[139.45807,35.510341]},"properties":{"cartodb_id":245,"__4":1,"ref":62,"id":246,"ref_yamato_type":"やまとAED救急ステーション","__3":"なし","__2":"5:00～25:20","opening_hour":"営業時間内","aed_type":"フィリップスFRX","description":"設置場所：改札口横","__1":"改札口横","address":"大和市つきみ野5-8-1","_":"東急電鉄株式会社 つきみ野駅","name":"東急電鉄株式会社 つきみ野駅 AED","name_en":"AED(Automated External Defibrillator)","name_ja":"AED（自動体外式除細動器）","latitude":35.51034127,"longitude":139.4580699}},{"type":"Feature","geometry":{"type":"Point","coordinates":[139.461522,35.469684]},"properties":{"cartodb_id":246,"__4":1,"ref":63,"id":247,"ref_yamato_type":"やまとAED救急ステーション","__3":"なし","__2":"5:00～25:00","opening_hour":"営業時間内","aed_type":"フィリップスＨＳ-１","description":"設置場所：駅南口改札内","__1":"駅南口改札内","address":"大和市大和南1-1-1","_":"小田急電鉄株式会社 大和駅","name":"小田急電鉄株式会社 大和駅 AED","name_en":"AED(Automated External Defibrillator)","name_ja":"AED（自動体外式除細動器）","latitude":35.46968408,"longitude":139.461522}},{"type":"Feature","geometry":{"type":"Point","coordinates":[139.444197,35.507475]},"properties":{"cartodb_id":247,"__4":1,"ref":64,"id":248,"ref_yamato_type":"やまとAED救急ステーション","__3":"なし","__2":"5:00～25:00","opening_hour":"営業時間内","aed_type":"フィリップスM5066A","description":"設置場所：改札内コンコース","__1":"改札内コンコース","address":"大和市中央林間3-3-8","_":"小田急電鉄株式会社 中央林間駅","name":"小田急電鉄株式会社 中央林間駅 AED","name_en":"AED(Automated External Defibrillator)","name_ja":"AED（自動体外式除細動器）","latitude":35.50747534,"longitude":139.4441967}},{"type":"Feature","geometry":{"type":"Point","coordinates":[139.448041,35.495779]},"properties":{"cartodb_id":248,"__4":1,"ref":65,"id":249,"ref_yamato_type":"やまとAED救急ステーション","__3":"なし","__2":"5:00～25:00","opening_hour":"営業時間内","aed_type":"日本光電 AED2100","description":"設置場所：改札内コンコース自動販売機","__1":"改札内コンコース自動販売機","address":"大和市南林間1-6-11","_":"小田急電鉄株式会社 南林間駅","name":"小田急電鉄株式会社 南林間駅 AED","name_en":"AED(Automated External Defibrillator)","name_ja":"AED（自動体外式除細動器）","latitude":35.49577932,"longitude":139.4480413}},{"type":"Feature","geometry":{"type":"Point","coordinates":[139.45081,35.490261]},"properties":{"cartodb_id":249,"__4":1,"ref":66,"id":250,"ref_yamato_type":"やまとAED救急ステーション","__3":"なし","__2":"5:00～25:00","opening_hour":"営業時間内","aed_type":"日本光電 AED2100","description":"設置場所：改札内コンコース自動販売機","__1":"改札内コンコース自動販売機","address":"大和市鶴間1-1-1","_":"小田急電鉄株式会社 鶴間駅","name":"小田急電鉄株式会社 鶴間駅 AED","name_en":"AED(Automated External Defibrillator)","name_ja":"AED（自動体外式除細動器）","latitude":35.49026079,"longitude":139.4508103}},{"type":"Feature","geometry":{"type":"Point","coordinates":[139.465755,35.450597]},"properties":{"cartodb_id":250,"__4":1,"ref":67,"id":251,"ref_yamato_type":"やまとAED救急ステーション","__3":"なし","__2":"5:00～25:00","opening_hour":"営業時間内","aed_type":"日本光電 AED2100","description":"設置場所：改札内コンコース自動販売機","__1":"改札内コンコース自動販売機","address":"大和市福田5522","_":"小田急電鉄株式会社 桜ヶ丘駅","name":"小田急電鉄株式会社 桜ヶ丘駅 AED","name_en":"AED(Automated External Defibrillator)","name_ja":"AED（自動体外式除細動器）","latitude":35.45059745,"longitude":139.4657546}},{"type":"Feature","geometry":{"type":"Point","coordinates":[139.464716,35.432547]},"properties":{"cartodb_id":251,"__4":1,"ref":68,"id":252,"ref_yamato_type":"やまとAED救急ステーション","__3":"なし","__2":"5:00～25:00","opening_hour":"営業時間内","aed_type":"フィリップスＨＳ-１","description":"設置場所：下りホーム自動販売機","__1":"下りホーム自動販売機","address":"大和市福田2019","_":"小田急電鉄株式会社 高座渋谷駅","name":"小田急電鉄株式会社 高座渋谷駅 AED","name_en":"AED(Automated External Defibrillator)","name_ja":"AED（自動体外式除細動器）","latitude":35.43254654,"longitude":139.4647157}},{"type":"Feature","geometry":{"type":"Point","coordinates":[139.440071,35.482712]},"properties":{"cartodb_id":252,"__4":1,"ref":69,"id":253,"ref_yamato_type":"やまとAED救急ステーション","__3":"","__2":"8:00～17:00","opening_hour":"営業時間内","aed_type":"日本光電 AED2100","description":"設置場所：事務所勝手口横","__1":"事務所勝手口横","address":"大和市西鶴間8-8-4","_":"ＴＳﾈｯﾄﾜｰｸ株式会社 神奈川流通センター","name":"ＴＳﾈｯﾄﾜｰｸ株式会社 神奈川流通センター AED","name_en":"AED(Automated External Defibrillator)","name_ja":"AED（自動体外式除細動器）","latitude":35.48271244,"longitude":139.4400713}},{"type":"Feature","geometry":{"type":"Point","coordinates":[139.445554,35.507293]},"properties":{"cartodb_id":253,"__4":1,"ref":70,"id":254,"ref_yamato_type":"やまとAED救急ステーション","__3":"なし","__2":"10:00～23:00","opening_hour":"営業時間内","aed_type":"フィリップスＨＳ-１","description":"設置場所：レジ前サッカー台","__1":"レジ前サッカー台","address":"大和市中央林間4-12-1","_":"中央林間とうきゅう","name":"中央林間とうきゅう AED","name_en":"AED(Automated External Defibrillator)","name_ja":"AED（自動体外式除細動器）","latitude":35.50729286,"longitude":139.4455541}},{"type":"Feature","geometry":{"type":"Point","coordinates":[139.441612,35.473972]},"properties":{"cartodb_id":254,"__4":1,"ref":71,"id":255,"ref_yamato_type":"やまとAED救急ステーション","__3":"なし","__2":"7:00～20:00","opening_hour":"開所時間内","aed_type":"日本光電 AED2100","description":"設置場所：正面横掲示板、正面玄関","__1":"正面横掲示板、正面玄関","address":"大和市上草柳164-5","_":"社会福祉法人プレマ会 みなみ風","name":"社会福祉法人プレマ会 みなみ風 AED","name_en":"AED(Automated External Defibrillator)","name_ja":"AED（自動体外式除細動器）","latitude":35.47397155,"longitude":139.4416122}},{"type":"Feature","geometry":{"type":"Point","coordinates":[139.461098,35.464328]},"properties":{"cartodb_id":255,"__4":1,"ref":72,"id":256,"ref_yamato_type":"やまとAED救急ステーション","__3":"","__2":"9:30～20:00","opening_hour":"営業時間内","aed_type":"日本光電 AED2100","description":"設置場所：店舗入口","__1":"店舗入口","address":"大和市中央7-5-28","_":"株式会社 ｽﾀｲﾘｯｼｭﾎ-ﾑ","name":"株式会社 ｽﾀｲﾘｯｼｭﾎ-ﾑ AED","name_en":"AED(Automated External Defibrillator)","name_ja":"AED（自動体外式除細動器）","latitude":35.46432803,"longitude":139.4610979}},{"type":"Feature","geometry":{"type":"Point","coordinates":[139.438859,35.477269]},"properties":{"cartodb_id":256,"__4":1,"ref":73,"id":257,"ref_yamato_type":"やまとAED救急ステーション","__3":"","__2":"8:00～17:00","opening_hour":"営業時間内","aed_type":"日本光電 AED2100","description":"設置場所：正面玄関横","__1":"正面玄関横","address":"大和市上草柳172","_":"日新工業株式会社","name":"日新工業株式会社 AED","name_en":"AED(Automated External Defibrillator)","name_ja":"AED（自動体外式除細動器）","latitude":35.47726912,"longitude":139.4388589}},{"type":"Feature","geometry":{"type":"Point","coordinates":[139.467904,35.470456]},"properties":{"cartodb_id":257,"__4":1,"ref":74,"id":258,"ref_yamato_type":"やまとAED救急ステーション","__3":"","__2":"9:00～17:25","opening_hour":"営業時間内","aed_type":"日本光電 AED2100","description":"設置場所：事務所２階入口","__1":"事務所２階入口","address":"大和市深見台3-1-13","_":"日本総合住生活㈱神奈川西支店","name":"日本総合住生活㈱神奈川西支店 AED","name_en":"AED(Automated External Defibrillator)","name_ja":"AED（自動体外式除細動器）","latitude":35.47045563,"longitude":139.4679037}},{"type":"Feature","geometry":{"type":"Point","coordinates":[139.446799,35.510956]},"properties":{"cartodb_id":258,"__4":1,"ref":75,"id":259,"ref_yamato_type":"やまとAED救急ステーション","__3":"なし","__2":"24時間","opening_hour":"24時間","aed_type":"日本光電 AED2100","description":"設置場所：エスケアライフ大和玄関内","__1":"エスケアライフ大和玄関内","address":"大和市中央林間6-8-6","_":"エスケアライフ大和","name":"エスケアライフ大和 AED","name_en":"AED(Automated External Defibrillator)","name_ja":"AED（自動体外式除細動器）","latitude":35.51095641,"longitude":139.446799}},{"type":"Feature","geometry":{"type":"Point","coordinates":[139.466343,35.465908]},"properties":{"cartodb_id":259,"__4":1,"ref":76,"id":260,"ref_yamato_type":"やまとAED救急ステーション","__3":"水・日・祝","__2":"9:30～19:00","opening_hour":"診療時間内","aed_type":"フィリップスＨＳ-１","description":"設置場所：診療室内","__1":"診療室内","address":"大和市大和南2-10-4","_":"ちひろ歯科医院","name":"ちひろ歯科医院 AED","name_en":"AED(Automated External Defibrillator)","name_ja":"AED（自動体外式除細動器）","latitude":35.46590781,"longitude":139.4663434}},{"type":"Feature","geometry":{"type":"Point","coordinates":[139.438884,35.479399]},"properties":{"cartodb_id":260,"__4":1,"ref":77,"id":261,"ref_yamato_type":"やまとAED救急ステーション","__3":"","__2":"8:00～17:00","opening_hour":"営業時間内","aed_type":"日本光電 AED2100","description":"設置場所：正門正面の工場入口左側","__1":"正門正面の工場入口左側","address":"大和市上草柳５６５","_":"日新工業株式会社 鶴間製造課","name":"日新工業株式会社 鶴間製造課 AED","name_en":"AED(Automated External Defibrillator)","name_ja":"AED（自動体外式除細動器）","latitude":35.47939859,"longitude":139.4388835}},{"type":"Feature","geometry":{"type":"Point","coordinates":[139.458986,35.477986]},"properties":{"cartodb_id":261,"__4":1,"ref":78,"id":262,"ref_yamato_type":"やまとAED救急ステーション","__3":"","__2":"9:00～18:00","opening_hour":"営業時間内","aed_type":"日本光電 AED2100","description":"設置場所：社屋１階 正面入口受付内","__1":"社屋１階 正面入口受付内","address":"大和市深見西3-1-47","_":"株式会社 ウイル","name":"株式会社 ウイル AED","name_en":"AED(Automated External Defibrillator)","name_ja":"AED（自動体外式除細動器）","latitude":35.47798581,"longitude":139.4589859}},{"type":"Feature","geometry":{"type":"Point","coordinates":[139.46288,35.491174]},"properties":{"cartodb_id":262,"__4":1,"ref":79,"id":263,"ref_yamato_type":"やまとAED救急ステーション","__3":"月(第1、3)・火","__2":"9:30～19:00","opening_hour":"営業時間内","aed_type":"日本光電 AED2150","description":"設置場所：ショールーム内","__1":"ショールーム内","address":"大和市下鶴間2-11-15","_":"神奈川トヨタ自動車㈱大和店","name":"神奈川トヨタ自動車㈱大和店 AED","name_en":"AED(Automated External Defibrillator)","name_ja":"AED（自動体外式除細動器）","latitude":35.49117351,"longitude":139.46288}},{"type":"Feature","geometry":{"type":"Point","coordinates":[139.463064,35.505127]},"properties":{"cartodb_id":263,"__4":1,"ref":80,"id":264,"ref_yamato_type":"やまとAED救急ステーション","__3":"","__2":"9:00～18:00","opening_hour":"開所時間内","aed_type":"フィリップスＨＳ-１","description":"設置場所：エントランス内","__1":"エントランス内","address":"大和市つきみ野2-7-18","_":"セントケア大和デイサービスセンター","name":"セントケア大和デイサービスセンター AED","name_en":"AED(Automated External Defibrillator)","name_ja":"AED（自動体外式除細動器）","latitude":35.50512653,"longitude":139.4630643}},{"type":"Feature","geometry":{"type":"Point","coordinates":[139.448728,35.481664]},"properties":{"cartodb_id":264,"__4":1,"ref":81,"id":265,"ref_yamato_type":"やまとAED救急ステーション","__3":"","__2":"9:00～18:00","opening_hour":"開所時間内","aed_type":"フィリップスＨＳ-１","description":"設置場所：エントランス内","__1":"エントランス内","address":"大和市上草柳8-13-17","_":"セントケア上草柳","name":"セントケア上草柳 AED","name_en":"AED(Automated External Defibrillator)","name_ja":"AED（自動体外式除細動器）","latitude":35.48166433,"longitude":139.4487276}},{"type":"Feature","geometry":{"type":"Point","coordinates":[139.466044,35.470473]},"properties":{"cartodb_id":265,"__4":1,"ref":82,"id":266,"ref_yamato_type":"やまとAED救急ステーション","__3":"水","__2":"9:30～17:00","opening_hour":"営業時間内","aed_type":"フィリップスＨＳ-１","description":"設置場所：事務室前棚","__1":"事務室前棚","address":"大和市大和東1-11-5","_":"㈱ジェイコムイーストかながわセントラル局","name":"㈱ジェイコムイーストかながわセントラル局 AED","name_en":"AED(Automated External Defibrillator)","name_ja":"AED（自動体外式除細動器）","latitude":35.47047283,"longitude":139.466044}},{"type":"Feature","geometry":{"type":"Point","coordinates":[139.448289,35.493659]},"properties":{"cartodb_id":266,"__4":1,"ref":83,"id":267,"ref_yamato_type":"やまとAED救急ステーション","__3":"木","__2":"10:00～20:00","opening_hour":"営業時間内","aed_type":"日本光電 AED2100","description":"設置場所：３Ｆ フロント","__1":"３Ｆ フロント","address":"大和市南林間１－２－１６","_":"スポーツクラブNAS㈱南林間事業所","name":"スポーツクラブNAS㈱南林間事業所 AED","name_en":"AED(Automated External Defibrillator)","name_ja":"AED（自動体外式除細動器）","latitude":35.49365868,"longitude":139.4482886}},{"type":"Feature","geometry":{"type":"Point","coordinates":[139.46833,35.480611]},"properties":{"cartodb_id":267,"__4":1,"ref":84,"id":268,"ref_yamato_type":"やまとAED救急ステーション","__3":"なし","__2":"9:00～18:00","opening_hour":"開所時間内","aed_type":"フィリップスＨＳ-１","description":"設置場所：２階 医務室","__1":"２階 医務室","address":"大和市深見1736-2","_":"特別養護老人ホーム 晃風園ぬくもり","name":"特別養護老人ホーム 晃風園ぬくもり AED","name_en":"AED(Automated External Defibrillator)","name_ja":"AED（自動体外式除細動器）","latitude":35.48061109,"longitude":139.4683295}},{"type":"Feature","geometry":{"type":"Point","coordinates":[139.458289,35.460779]},"properties":{"cartodb_id":268,"__4":1,"ref":85,"id":269,"ref_yamato_type":"やまとAED救急ステーション","__3":"なし","__2":"9:00～18:00","opening_hour":"開所時間内","aed_type":"日本光電 AED1200","description":"設置場所：１階 医務室","__1":"１階 医務室","address":"大和市草柳2-15-1","_":"特別養護老人ホーム 晃風園","name":"特別養護老人ホーム 晃風園 AED","name_en":"AED(Automated External Defibrillator)","name_ja":"AED（自動体外式除細動器）","latitude":35.46077929,"longitude":139.4582886}},{"type":"Feature","geometry":{"type":"Point","coordinates":[139.440472,35.469738]},"properties":{"cartodb_id":269,"__4":1,"ref":86,"id":270,"ref_yamato_type":"やまとAED救急ステーション","__3":"土・日・祝日","__2":"8:45～17:30","opening_hour":"開庁時間内","aed_type":"フィリップスＨＳ-１","description":"設置場所：事務所内","__1":"事務所内","address":"大和市桜森2-3-9クリオ相模大塚壱番館１F","_":"一般社団法人 大和青色申告会","name":"一般社団法人 大和青色申告会 AED","name_en":"AED(Automated External Defibrillator)","name_ja":"AED（自動体外式除細動器）","latitude":35.46973777,"longitude":139.4404716}},{"type":"Feature","geometry":{"type":"Point","coordinates":[139.445572,35.497963]},"properties":{"cartodb_id":270,"__4":1,"ref":87,"id":271,"ref_yamato_type":"やまとAED救急ステーション","__3":"日・祝","__2":"9:00～22:00","opening_hour":"診療時間内","aed_type":"日本光電 AED2100","description":"設置場所：受付カウンター横","__1":"受付カウンター横","address":"大和市南林間2-6-20","_":"やすらか治療院","name":"やすらか治療院 AED","name_en":"AED(Automated External Defibrillator)","name_ja":"AED（自動体外式除細動器）","latitude":35.49796346,"longitude":139.4455725}},{"type":"Feature","geometry":{"type":"Point","coordinates":[139.466243,35.485165]},"properties":{"cartodb_id":271,"__4":1,"ref":88,"id":272,"ref_yamato_type":"やまとAED救急ステーション","__3":"","__2":"9:00～22:00","opening_hour":"営業時間内","aed_type":"日本光電 AED2100","description":"設置場所：・2階事務所玄関脇","__1":"・2階事務所玄関脇","address":"大和市深見東3-6-14","_":"株式会社クリエイトフォース大和住宅事業部","name":"株式会社クリエイトフォース大和住宅事業部 AED","name_en":"AED(Automated External Defibrillator)","name_ja":"AED（自動体外式除細動器）","latitude":35.485165,"longitude":139.466243}},{"type":"Feature","geometry":{"type":"Point","coordinates":[139.464913,35.482147]},"properties":{"cartodb_id":272,"__4":1,"ref":89,"id":273,"ref_yamato_type":"やまとAED救急ステーション","__3":"水","__2":"9:30～19:00","opening_hour":"営業時間内","aed_type":"ゾールメディカルAEDプラス","description":"設置場所：・ショールーム内","__1":"・ショールーム内","address":"大和市深見東3-1-2","_":"フォルクスワーゲン大和","name":"フォルクスワーゲン大和 AED","name_en":"AED(Automated External Defibrillator)","name_ja":"AED（自動体外式除細動器）","latitude":35.482147,"longitude":139.464913}},{"type":"Feature","geometry":{"type":"Point","coordinates":[139.445331,35.508202]},"properties":{"cartodb_id":273,"__4":1,"ref":90,"id":274,"ref_yamato_type":"やまとAED救急ステーション","__3":"なし","__2":"6:00～24:00","opening_hour":"営業時間内","aed_type":"ゾールメディカルAEDプラス","description":"設置場所：・ATMコーナー内","__1":"・ATMコーナー内","address":"大和市中央林間4-14-1","_":"株式会社横浜銀行中央林間支店","name":"株式会社横浜銀行中央林間支店 AED","name_en":"AED(Automated External Defibrillator)","name_ja":"AED（自動体外式除細動器）","latitude":35.508202,"longitude":139.445331}},{"type":"Feature","geometry":{"type":"Point","coordinates":[139.446772,35.495814]},"properties":{"cartodb_id":274,"__4":1,"ref":91,"id":275,"ref_yamato_type":"やまとAED救急ステーション","__3":"なし","__2":"7:45～21:00 (平日)","opening_hour":"営業時間内","aed_type":"ゾールメディカルAEDプラス","description":"設置場所：・ATMコーナー内","__1":"・ATMコーナー内","address":"大和市南林間2-11-2","_":"株式会社横浜銀行南林間支店","name":"株式会社横浜銀行南林間支店 AED","name_en":"AED(Automated External Defibrillator)","name_ja":"AED（自動体外式除細動器）","latitude":35.495814,"longitude":139.446772}},{"type":"Feature","geometry":{"type":"Point","coordinates":[139.457082,35.490824]},"properties":{"cartodb_id":275,"__4":1,"ref":92,"id":276,"ref_yamato_type":"やまとAED救急ステーション","__3":"なし","__2":"6:00～24:00","opening_hour":"営業時間内","aed_type":"ゾールメディカルAEDプラス","description":"設置場所：・ATMコーナー内","__1":"・ATMコーナー内","address":"大和市下鶴間1-3-1ｲﾄｰﾖｰｶﾄﾞｰ大和鶴間店2階","_":"株式会社横浜銀行大和オークシティ出張所","name":"株式会社横浜銀行大和オークシティ出張所 AED","name_en":"AED(Automated External Defibrillator)","name_ja":"AED（自動体外式除細動器）","latitude":35.490824,"longitude":139.457082}},{"type":"Feature","geometry":{"type":"Point","coordinates":[139.462495,35.470033]},"properties":{"cartodb_id":276,"__4":1,"ref":93,"id":277,"ref_yamato_type":"やまとAED救急ステーション","__3":"なし","__2":"6:00～24:00","opening_hour":"営業時間内","aed_type":"ゾールメディカルAEDプラス","description":"設置場所：・ATMコーナー内","__1":"・ATMコーナー内","address":"大和市大和東1-8-1","_":"株式会社横浜銀行大和支店","name":"株式会社横浜銀行大和支店 AED","name_en":"AED(Automated External Defibrillator)","name_ja":"AED（自動体外式除細動器）","latitude":35.470033,"longitude":139.462495}},{"type":"Feature","geometry":{"type":"Point","coordinates":[139.464621,35.450287]},"properties":{"cartodb_id":277,"__4":1,"ref":94,"id":278,"ref_yamato_type":"やまとAED救急ステーション","__3":"なし","__2":"7:45～21:00 (平日)","opening_hour":"営業時間内","aed_type":"ゾールメディカルAEDプラス","description":"設置場所：・ATMコーナー内","__1":"・ATMコーナー内","address":"大和市福田2-3-18","_":"株式会社横浜銀行桜ケ丘支店","name":"株式会社横浜銀行桜ケ丘支店 AED","name_en":"AED(Automated External Defibrillator)","name_ja":"AED（自動体外式除細動器）","latitude":35.450287,"longitude":139.464621}},{"type":"Feature","geometry":{"type":"Point","coordinates":[139.465545,35.433723]},"properties":{"cartodb_id":278,"__4":1,"ref":95,"id":279,"ref_yamato_type":"やまとAED救急ステーション","__3":"なし","__2":"7:45～21:00 (平日)","opening_hour":"営業時間内","aed_type":"ゾールメディカルAEDプラス","description":"設置場所：・ATMコーナー内","__1":"・ATMコーナー内","address":"大和市福田2081-4","_":"株式会社横浜銀行高座渋谷支店","name":"株式会社横浜銀行高座渋谷支店 AED","name_en":"AED(Automated External Defibrillator)","name_ja":"AED（自動体外式除細動器）","latitude":35.433723,"longitude":139.465545}},{"type":"Feature","geometry":{"type":"Point","coordinates":[139.448145,35.513894]},"properties":{"cartodb_id":279,"__4":1,"ref":96,"id":280,"ref_yamato_type":"やまとAED救急ステーション","__3":"","__2":"8:00～19:30","opening_hour":"開所時間内","aed_type":"フィリップスＨＳ-１","description":"設置場所：・1階事務所カウンター","__1":"・1階事務所カウンター","address":"大和市下鶴間1500-1","_":"介護老人保健施設 大地","name":"介護老人保健施設 大地 AED","name_en":"AED(Automated External Defibrillator)","name_ja":"AED（自動体外式除細動器）","latitude":35.513894,"longitude":139.448145}},{"type":"Feature","geometry":{"type":"Point","coordinates":[139.459679,35.453276]},"properties":{"cartodb_id":331,"__4":1,"ref":32,"id":332,"ref_yamato_type":"保育園・幼稚園AED","__3":"","__2":"","opening_hour":"開園時間内","aed_type":"","description":"","__1":"","address":"大和市福田8-22-5","_":"福田保育園","name":"福田保育園 AED","name_en":"AED(Automated External Defibrillator)","name_ja":"AED（自動体外式除細動器）","latitude":35.45327604,"longitude":139.4596787}},{"type":"Feature","geometry":{"type":"Point","coordinates":[139.436796,35.494926]},"properties":{"cartodb_id":280,"__4":1,"ref":97,"id":281,"ref_yamato_type":"やまとAED救急ステーション","__3":"","__2":"9:00～19:00","opening_hour":"開所時間内","aed_type":"日本光電 AED2100","description":"設置場所：・1階事務所内","__1":"・1階事務所内","address":"大和市南林間9-1-7","_":"花物語やまと西","name":"花物語やまと西 AED","name_en":"AED(Automated External Defibrillator)","name_ja":"AED（自動体外式除細動器）","latitude":35.494926,"longitude":139.436796}},{"type":"Feature","geometry":{"type":"Point","coordinates":[139.449357,35.487354]},"properties":{"cartodb_id":281,"__4":1,"ref":98,"id":282,"ref_yamato_type":"やまとAED救急ステーション","__3":"土・日・祝","__2":"8:30～17:15","opening_hour":"開庁時間内","aed_type":"日本光電 AED2100","description":"設置場所：・1階事務室","__1":"・1階事務室","address":"大和市西鶴間3-12-18","_":"神奈川県企業庁大和水道営業所","name":"神奈川県企業庁大和水道営業所 AED","name_en":"AED(Automated External Defibrillator)","name_ja":"AED（自動体外式除細動器）","latitude":35.487354,"longitude":139.449357}},{"type":"Feature","geometry":{"type":"Point","coordinates":[139.442793,35.507735]},"properties":{"cartodb_id":282,"__4":1,"ref":99,"id":283,"ref_yamato_type":"やまとAED救急ステーション","__3":"土・日・祝","__2":"7:30～20:00","opening_hour":"営業時間内","aed_type":"フィリップスＨＳ-１","description":"設置場所：・事務所右側入口ｶｳﾝﾀｰ脇","__1":"・事務所右側入口ｶｳﾝﾀｰ脇","address":"大和市中央林間3-11-2","_":"株式会社藤田工業","name":"株式会社藤田工業 AED","name_en":"AED(Automated External Defibrillator)","name_ja":"AED（自動体外式除細動器）","latitude":35.507735,"longitude":139.442793}},{"type":"Feature","geometry":{"type":"Point","coordinates":[139.459206,35.466654]},"properties":{"cartodb_id":283,"__4":1,"ref":100,"id":284,"ref_yamato_type":"やまとAED救急ステーション","__3":"土・日・祝","__2":"8:30～17:00","opening_hour":"開庁時間内","aed_type":"日本光電 AED2100","description":"設置場所：・1階総合窓口","__1":"・1階総合窓口","address":"大和市中央5-14-22","_":"大和税務署","name":"大和税務署 AED","name_en":"AED(Automated External Defibrillator)","name_ja":"AED（自動体外式除細動器）","latitude":35.466654,"longitude":139.459206}},{"type":"Feature","geometry":{"type":"Point","coordinates":[139.457862,35.49886]},"properties":{"cartodb_id":284,"__4":1,"ref":101,"id":285,"ref_yamato_type":"やまとAED救急ステーション","__3":"なし","__2":"24時間","opening_hour":"開所時間内","aed_type":"日本光電 AED2100","description":"設置場所：・事務室","__1":"・事務室","address":"大和市下鶴間2973-2","_":"花物語やまと","name":"花物語やまと AED","name_en":"AED(Automated External Defibrillator)","name_ja":"AED（自動体外式除細動器）","latitude":35.49886,"longitude":139.457862}},{"type":"Feature","geometry":{"type":"Point","coordinates":[139.463743,35.510552]},"properties":{"cartodb_id":285,"__4":1,"ref":102,"id":286,"ref_yamato_type":"やまとAED救急ステーション","__3":"土(第2)・日・祝","__2":"8:30～18:30","opening_hour":"営業時間内","aed_type":"日本光電 AED2100","description":"設置場所：・事務所受付カウンター","__1":"・事務所受付カウンター","address":"大和市下鶴間623-1","_":"株式会社篤厚自動車","name":"株式会社篤厚自動車 AED","name_en":"AED(Automated External Defibrillator)","name_ja":"AED（自動体外式除細動器）","latitude":35.510552,"longitude":139.463743}},{"type":"Feature","geometry":{"type":"Point","coordinates":[139.459861,35.479302]},"properties":{"cartodb_id":286,"__4":1,"ref":1,"id":287,"ref_yamato_type":"郵便局AED","__3":"なし","__2":"","opening_hour":"営業時間内","aed_type":"日本光電 AED2100","description":"設置場所：店内中央","__1":"店内中央","address":"大和市深見西3-1-29","_":"大和郵便局","name":"大和郵便局 AED","name_en":"AED(Automated External Defibrillator)","name_ja":"AED（自動体外式除細動器）","latitude":35.47930249,"longitude":139.4598607}},{"type":"Feature","geometry":{"type":"Point","coordinates":[139.443029,35.507447]},"properties":{"cartodb_id":287,"__4":1,"ref":2,"id":288,"ref_yamato_type":"郵便局AED","__3":"土・日・祝","__2":"","opening_hour":"営業時間内","aed_type":"日本光電 AED2100","description":"設置場所：待合室","__1":"待合室","address":"大和市中央林間3-10-15","_":"中央林間駅前郵便局","name":"中央林間駅前郵便局 AED","name_en":"AED(Automated External Defibrillator)","name_ja":"AED（自動体外式除細動器）","latitude":35.50744718,"longitude":139.4430295}},{"type":"Feature","geometry":{"type":"Point","coordinates":[139.455553,35.511507]},"properties":{"cartodb_id":288,"__4":1,"ref":3,"id":289,"ref_yamato_type":"郵便局AED","__3":"土・日・祝","__2":"","opening_hour":"営業時間内","aed_type":"日本光電 AED2100","description":"設置場所：カウンター内","__1":"カウンター内","address":"大和市つきみ野6-9-5","_":"つきみ野郵便局","name":"つきみ野郵便局 AED","name_en":"AED(Automated External Defibrillator)","name_ja":"AED（自動体外式除細動器）","latitude":35.5115069,"longitude":139.4555527}},{"type":"Feature","geometry":{"type":"Point","coordinates":[139.446371,35.49641]},"properties":{"cartodb_id":289,"__4":1,"ref":4,"id":290,"ref_yamato_type":"郵便局AED","__3":"土・日・祝","__2":"","opening_hour":"営業時間内","aed_type":"日本光電 AED2100","description":"設置場所：カウンター内","__1":"カウンター内","address":"大和市南林間2-10-12","_":"南林間駅前郵便局","name":"南林間駅前郵便局 AED","name_en":"AED(Automated External Defibrillator)","name_ja":"AED（自動体外式除細動器）","latitude":35.49640997,"longitude":139.4463707}},{"type":"Feature","geometry":{"type":"Point","coordinates":[139.436886,35.490982]},"properties":{"cartodb_id":290,"__4":1,"ref":5,"id":291,"ref_yamato_type":"郵便局AED","__3":"土・日・祝","__2":"","opening_hour":"営業時間内","aed_type":"日本光電 AED2100","description":"設置場所：待合室","__1":"待合室","address":"大和市南林間6-23-23","_":"大和南林間六郵便局","name":"大和南林間六郵便局 AED","name_en":"AED(Automated External Defibrillator)","name_ja":"AED（自動体外式除細動器）","latitude":35.49098178,"longitude":139.4368857}},{"type":"Feature","geometry":{"type":"Point","coordinates":[139.460109,35.494135]},"properties":{"cartodb_id":291,"__4":1,"ref":6,"id":292,"ref_yamato_type":"郵便局AED","__3":"土・日・祝","__2":"","opening_hour":"営業時間内","aed_type":"日本光電 AED2100","description":"設置場所：事務室","__1":"事務室","address":"大和市下鶴間2773-6","_":"大和下鶴間郵便局","name":"大和下鶴間郵便局 AED","name_en":"AED(Automated External Defibrillator)","name_ja":"AED（自動体外式除細動器）","latitude":35.49413515,"longitude":139.4601088}},{"type":"Feature","geometry":{"type":"Point","coordinates":[139.448125,35.488155]},"properties":{"cartodb_id":292,"__4":1,"ref":7,"id":293,"ref_yamato_type":"郵便局AED","__3":"土・日・祝","__2":"","opening_hour":"営業時間内","aed_type":"日本光電 AED2100","description":"設置場所：カウンター内","__1":"カウンター内","address":"大和市西鶴間2-1-16","_":"鶴間駅前郵便局","name":"鶴間駅前郵便局 AED","name_en":"AED(Automated External Defibrillator)","name_ja":"AED（自動体外式除細動器）","latitude":35.48815462,"longitude":139.4481254}},{"type":"Feature","geometry":{"type":"Point","coordinates":[139.45411,35.477534]},"properties":{"cartodb_id":293,"__4":1,"ref":8,"id":294,"ref_yamato_type":"郵便局AED","__3":"土・日・祝","__2":"","opening_hour":"営業時間内","aed_type":"日本光電 AED2100","description":"設置場所：カウンター横","__1":"カウンター横","address":"大和市上草柳4-3-9","_":"大和上草柳郵便局","name":"大和上草柳郵便局 AED","name_en":"AED(Automated External Defibrillator)","name_ja":"AED（自動体外式除細動器）","latitude":35.47753406,"longitude":139.45411}},{"type":"Feature","geometry":{"type":"Point","coordinates":[139.439369,35.471204]},"properties":{"cartodb_id":294,"__4":1,"ref":9,"id":295,"ref_yamato_type":"郵便局AED","__3":"土・日・祝","__2":"","opening_hour":"営業時間内","aed_type":"日本光電 AED2100","description":"設置場所：カウンター横","__1":"カウンター横","address":"大和市桜森3-8-4","_":"相模大塚駅前郵便局","name":"相模大塚駅前郵便局 AED","name_en":"AED(Automated External Defibrillator)","name_ja":"AED（自動体外式除細動器）","latitude":35.47120377,"longitude":139.4393689}},{"type":"Feature","geometry":{"type":"Point","coordinates":[139.46092,35.466609]},"properties":{"cartodb_id":296,"__4":1,"ref":11,"id":297,"ref_yamato_type":"郵便局AED","__3":"土・日・祝","__2":"","opening_hour":"営業時間内","aed_type":"日本光電 AED2100","description":"設置場所：待合室","__1":"待合室","address":"大和市中央1-6-15","_":"大和中央一郵便局","name":"大和中央一郵便局 AED","name_en":"AED(Automated External Defibrillator)","name_ja":"AED（自動体外式除細動器）","latitude":35.46660899,"longitude":139.4609205}},{"type":"Feature","geometry":{"type":"Point","coordinates":[139.464769,35.457423]},"properties":{"cartodb_id":297,"__4":1,"ref":12,"id":298,"ref_yamato_type":"郵便局AED","__3":"土・日・祝","__2":"","opening_hour":"営業時間内","aed_type":"日本光電 AED2100","description":"設置場所：待合室","__1":"待合室","address":"大和市柳橋2-4-13","_":"大和柳橋郵便局","name":"大和柳橋郵便局 AED","name_en":"AED(Automated External Defibrillator)","name_ja":"AED（自動体外式除細動器）","latitude":35.45742332,"longitude":139.4647695}},{"type":"Feature","geometry":{"type":"Point","coordinates":[139.467523,35.450631]},"properties":{"cartodb_id":298,"__4":1,"ref":13,"id":299,"ref_yamato_type":"郵便局AED","__3":"土・日・祝","__2":"","opening_hour":"営業時間内","aed_type":"日本光電 AED2100","description":"設置場所：カウンター内","__1":"カウンター内","address":"大和市上和田949-4","_":"大和桜ヶ丘郵便局","name":"大和桜ヶ丘郵便局 AED","name_en":"AED(Automated External Defibrillator)","name_ja":"AED（自動体外式除細動器）","latitude":35.45063128,"longitude":139.4675235}},{"type":"Feature","geometry":{"type":"Point","coordinates":[139.458858,35.438674]},"properties":{"cartodb_id":299,"__4":1,"ref":14,"id":300,"ref_yamato_type":"郵便局AED","__3":"土・日・祝","__2":"","opening_hour":"営業時間内","aed_type":"日本光電 AED2100","description":"設置場所：カウンター内","__1":"カウンター内","address":"大和市福田3759-3","_":"大和福田郵便局","name":"大和福田郵便局 AED","name_en":"AED(Automated External Defibrillator)","name_ja":"AED（自動体外式除細動器）","latitude":35.43867397,"longitude":139.4588576}},{"type":"Feature","geometry":{"type":"Point","coordinates":[139.459569,35.511688]},"properties":{"cartodb_id":300,"__4":1,"ref":1,"id":301,"ref_yamato_type":"保育園・幼稚園AED","__3":"","__2":"","opening_hour":"開園時間内","aed_type":"","description":"","__1":"","address":"大和市下鶴間525","_":"つきみ野すこやか保育園","name":"つきみ野すこやか保育園 AED","name_en":"AED(Automated External Defibrillator)","name_ja":"AED（自動体外式除細動器）","latitude":35.51168846,"longitude":139.4595694}},{"type":"Feature","geometry":{"type":"Point","coordinates":[139.4483,35.511395]},"properties":{"cartodb_id":301,"__4":1,"ref":2,"id":302,"ref_yamato_type":"保育園・幼稚園AED","__3":"土・日・祝","__2":"9:00～17:00","opening_hour":"開園時間内","aed_type":"フィリップスFRX / ＣＵﾒﾃﾞｨｶﾙ ＣＵ－ＥＲ１","description":"設置場所：一階事務室内 2台","__1":"一階事務室内 2台","address":"大和市下鶴間1533","_":"でんえん幼稚園","name":"でんえん幼稚園 AED","name_en":"AED(Automated External Defibrillator)","name_ja":"AED（自動体外式除細動器）","latitude":35.51139461,"longitude":139.4482996}},{"type":"Feature","geometry":{"type":"Point","coordinates":[139.441296,35.505355]},"properties":{"cartodb_id":304,"__4":1,"ref":5,"id":305,"ref_yamato_type":"保育園・幼稚園AED","__3":"","__2":"","opening_hour":"開園時間内","aed_type":"","description":"","__1":"","address":"大和市中央林間1-22-20","_":"松原学園幼稚園","name":"松原学園幼稚園 AED","name_en":"AED(Automated External Defibrillator)","name_ja":"AED（自動体外式除細動器）","latitude":35.50535466,"longitude":139.4412963}},{"type":"Feature","geometry":{"type":"Point","coordinates":[139.446078,35.511011]},"properties":{"cartodb_id":305,"__4":1,"ref":6,"id":306,"ref_yamato_type":"保育園・幼稚園AED","__3":"","__2":"","opening_hour":"開園時間内","aed_type":"","description":"","__1":"","address":"大和市中央林間6-7-13","_":"中央林間幼稚園","name":"中央林間幼稚園 AED","name_en":"AED(Automated External Defibrillator)","name_ja":"AED（自動体外式除細動器）","latitude":35.51101074,"longitude":139.446078}},{"type":"Feature","geometry":{"type":"Point","coordinates":[139.439097,35.505202]},"properties":{"cartodb_id":306,"__4":1,"ref":7,"id":307,"ref_yamato_type":"保育園・幼稚園AED","__3":"","__2":"","opening_hour":"開園時間内","aed_type":"","description":"","__1":"","address":"大和市中央林間西4-27-12","_":"緑野保育園","name":"緑野保育園 AED","name_en":"AED(Automated External Defibrillator)","name_ja":"AED（自動体外式除細動器）","latitude":35.5052018,"longitude":139.4390971}},{"type":"Feature","geometry":{"type":"Point","coordinates":[139.444883,35.496322]},"properties":{"cartodb_id":307,"__4":1,"ref":8,"id":308,"ref_yamato_type":"保育園・幼稚園AED","__3":"","__2":"","opening_hour":"開園時間内","aed_type":"","description":"","__1":"","address":"大和市南林間2-14-8","_":"高座みどり幼稚園","name":"高座みどり幼稚園 AED","name_en":"AED(Automated External Defibrillator)","name_ja":"AED（自動体外式除細動器）","latitude":35.49632201,"longitude":139.444883}},{"type":"Feature","geometry":{"type":"Point","coordinates":[139.442925,35.499145]},"properties":{"cartodb_id":308,"__4":1,"ref":9,"id":309,"ref_yamato_type":"保育園・幼稚園AED","__3":"","__2":"","opening_hour":"開園時間内","aed_type":"","description":"","__1":"","address":"大和市南林間3-10-1","_":"聖セシリア幼稚園","name":"聖セシリア幼稚園 AED","name_en":"AED(Automated External Defibrillator)","name_ja":"AED（自動体外式除細動器）","latitude":35.49914506,"longitude":139.4429254}},{"type":"Feature","geometry":{"type":"Point","coordinates":[139.440063,35.495126]},"properties":{"cartodb_id":309,"__4":1,"ref":10,"id":310,"ref_yamato_type":"保育園・幼稚園AED","__3":"","__2":"","opening_hour":"開園時間内","aed_type":"","description":"","__1":"","address":"大和市南林間7-4-1","_":"スミレ幼稚園","name":"スミレ幼稚園 AED","name_en":"AED(Automated External Defibrillator)","name_ja":"AED（自動体外式除細動器）","latitude":35.49512606,"longitude":139.4400626}},{"type":"Feature","geometry":{"type":"Point","coordinates":[139.436205,35.493235]},"properties":{"cartodb_id":310,"__4":1,"ref":11,"id":311,"ref_yamato_type":"保育園・幼稚園AED","__3":"","__2":"","opening_hour":"開園時間内","aed_type":"","description":"","__1":"","address":"大和市南林間7-21-26","_":"南林間保育園","name":"南林間保育園 AED","name_en":"AED(Automated External Defibrillator)","name_ja":"AED（自動体外式除細動器）","latitude":35.49323488,"longitude":139.4362053}},{"type":"Feature","geometry":{"type":"Point","coordinates":[139.445931,35.500441]},"properties":{"cartodb_id":311,"__4":1,"ref":12,"id":312,"ref_yamato_type":"保育園・幼稚園AED","__3":"","__2":"","opening_hour":"開園時間内","aed_type":"","description":"","__1":"","address":"大和市林間2-6-14","_":"モニカ保育園","name":"モニカ保育園 AED","name_en":"AED(Automated External Defibrillator)","name_ja":"AED（自動体外式除細動器）","latitude":35.50044107,"longitude":139.4459311}},{"type":"Feature","geometry":{"type":"Point","coordinates":[139.464232,35.492352]},"properties":{"cartodb_id":312,"__4":1,"ref":13,"id":313,"ref_yamato_type":"保育園・幼稚園AED","__3":"","__2":"","opening_hour":"開園時間内","aed_type":"","description":"","__1":"","address":"大和市下鶴間2748-2","_":"保育園おひさまのほっぺ","name":"保育園おひさまのほっぺ AED","name_en":"AED(Automated External Defibrillator)","name_ja":"AED（自動体外式除細動器）","latitude":35.49235173,"longitude":139.4642321}},{"type":"Feature","geometry":{"type":"Point","coordinates":[139.458675,35.498986]},"properties":{"cartodb_id":313,"__4":1,"ref":14,"id":314,"ref_yamato_type":"保育園・幼稚園AED","__3":"","__2":"","opening_hour":"開園時間内","aed_type":"","description":"","__1":"","address":"大和市下鶴間2919","_":"大和山王幼稚園","name":"大和山王幼稚園 AED","name_en":"AED(Automated External Defibrillator)","name_ja":"AED（自動体外式除細動器）","latitude":35.49898639,"longitude":139.458675}},{"type":"Feature","geometry":{"type":"Point","coordinates":[139.454718,35.488342]},"properties":{"cartodb_id":314,"__4":1,"ref":15,"id":315,"ref_yamato_type":"保育園・幼稚園AED","__3":"","__2":"","opening_hour":"開園時間内","aed_type":"","description":"","__1":"","address":"大和市鶴間1-25-3","_":"若葉保育園","name":"若葉保育園 AED","name_en":"AED(Automated External Defibrillator)","name_ja":"AED（自動体外式除細動器）","latitude":35.4883422,"longitude":139.4547179}},{"type":"Feature","geometry":{"type":"Point","coordinates":[139.451619,35.485879]},"properties":{"cartodb_id":315,"__4":1,"ref":16,"id":316,"ref_yamato_type":"保育園・幼稚園AED","__3":"","__2":"","opening_hour":"開園時間内","aed_type":"","description":"","__1":"","address":"大和市西鶴間3-7-19","_":"つるま幼稚園","name":"つるま幼稚園 AED","name_en":"AED(Automated External Defibrillator)","name_ja":"AED（自動体外式除細動器）","latitude":35.48587906,"longitude":139.4516186}},{"type":"Feature","geometry":{"type":"Point","coordinates":[139.440185,35.485183]},"properties":{"cartodb_id":316,"__4":1,"ref":17,"id":317,"ref_yamato_type":"保育園・幼稚園AED","__3":"","__2":"","opening_hour":"開園時間内","aed_type":"","description":"","__1":"","address":"大和市西鶴間8-4-20","_":"若草保育園","name":"若草保育園 AED","name_en":"AED(Automated External Defibrillator)","name_ja":"AED（自動体外式除細動器）","latitude":35.48518253,"longitude":139.440185}},{"type":"Feature","geometry":{"type":"Point","coordinates":[139.440662,35.472565]},"properties":{"cartodb_id":317,"__4":1,"ref":18,"id":318,"ref_yamato_type":"保育園・幼稚園AED","__3":"","__2":"","opening_hour":"開園時間内","aed_type":"","description":"","__1":"","address":"大和市桜森3-5-25","_":"さくらの森保育園","name":"さくらの森保育園 AED","name_en":"AED(Automated External Defibrillator)","name_ja":"AED（自動体外式除細動器）","latitude":35.47256459,"longitude":139.4406623}},{"type":"Feature","geometry":{"type":"Point","coordinates":[139.464867,35.484697]},"properties":{"cartodb_id":318,"__4":1,"ref":19,"id":319,"ref_yamato_type":"保育園・幼稚園AED","__3":"","__2":"","opening_hour":"開園時間内","aed_type":"","description":"","__1":"","address":"大和市深見東3-5-16","_":"ふかみ幼稚園","name":"ふかみ幼稚園 AED","name_en":"AED(Automated External Defibrillator)","name_ja":"AED（自動体外式除細動器）","latitude":35.48469676,"longitude":139.4648667}},{"type":"Feature","geometry":{"type":"Point","coordinates":[139.46117,35.467888]},"properties":{"cartodb_id":319,"__4":1,"ref":20,"id":320,"ref_yamato_type":"保育園・幼稚園AED","__3":"","__2":"","opening_hour":"開園時間内","aed_type":"","description":"","__1":"","address":"大和市中央1-4-19 ２階","_":"アスク大和保育園","name":"アスク大和保育園 AED","name_en":"AED(Automated External Defibrillator)","name_ja":"AED（自動体外式除細動器）","latitude":35.46788846,"longitude":139.4611703}},{"type":"Feature","geometry":{"type":"Point","coordinates":[139.456711,35.46615]},"properties":{"cartodb_id":320,"__4":1,"ref":21,"id":321,"ref_yamato_type":"保育園・幼稚園AED","__3":"","__2":"","opening_hour":"開園時間内","aed_type":"","description":"","__1":"","address":"大和市中央5-9-5","_":"やなぎ幼稚園","name":"やなぎ幼稚園 AED","name_en":"AED(Automated External Defibrillator)","name_ja":"AED（自動体外式除細動器）","latitude":35.46614978,"longitude":139.4567108}},{"type":"Feature","geometry":{"type":"Point","coordinates":[139.459043,35.46253]},"properties":{"cartodb_id":321,"__4":1,"ref":22,"id":322,"ref_yamato_type":"保育園・幼稚園AED","__3":"","__2":"","opening_hour":"開園時間内","aed_type":"","description":"","__1":"","address":"大和市中央６－８－２７","_":"草柳保育園","name":"草柳保育園 AED","name_en":"AED(Automated External Defibrillator)","name_ja":"AED（自動体外式除細動器）","latitude":35.46253011,"longitude":139.4590425}},{"type":"Feature","geometry":{"type":"Point","coordinates":[139.464552,35.467369]},"properties":{"cartodb_id":322,"__4":1,"ref":23,"id":323,"ref_yamato_type":"保育園・幼稚園AED","__3":"","__2":"","opening_hour":"開園時間内","aed_type":"","description":"","__1":"","address":"大和市大和南2-5-19","_":"大和小鳩幼稚園","name":"大和小鳩幼稚園 AED","name_en":"AED(Automated External Defibrillator)","name_ja":"AED（自動体外式除細動器）","latitude":35.46736857,"longitude":139.4645524}},{"type":"Feature","geometry":{"type":"Point","coordinates":[139.463892,35.470439]},"properties":{"cartodb_id":323,"__4":1,"ref":24,"id":324,"ref_yamato_type":"保育園・幼稚園AED","__3":"","__2":"","opening_hour":"開園時間内","aed_type":"","description":"","__1":"","address":"大和市大和東１－７－１６","_":"大和幼稚園","name":"大和幼稚園 AED","name_en":"AED(Automated External Defibrillator)","name_ja":"AED（自動体外式除細動器）","latitude":35.47043936,"longitude":139.4638924}},{"type":"Feature","geometry":{"type":"Point","coordinates":[139.466864,35.47379]},"properties":{"cartodb_id":324,"__4":1,"ref":25,"id":325,"ref_yamato_type":"保育園・幼稚園AED","__3":"","__2":"","opening_hour":"開園時間内","aed_type":"","description":"","__1":"","address":"大和市深見台4-10-23","_":"深見台保育園","name":"深見台保育園 AED","name_en":"AED(Automated External Defibrillator)","name_ja":"AED（自動体外式除細動器）","latitude":35.47378965,"longitude":139.4668643}},{"type":"Feature","geometry":{"type":"Point","coordinates":[139.468604,35.450874]},"properties":{"cartodb_id":325,"__4":1,"ref":26,"id":326,"ref_yamato_type":"保育園・幼稚園AED","__3":"","__2":"","opening_hour":"開園時間内","aed_type":"","description":"","__1":"","address":"大和市上和田936","_":"大和桜ヶ丘幼稚園","name":"大和桜ヶ丘幼稚園 AED","name_en":"AED(Automated External Defibrillator)","name_ja":"AED（自動体外式除細動器）","latitude":35.45087373,"longitude":139.4686043}},{"type":"Feature","geometry":{"type":"Point","coordinates":[139.472163,35.43704]},"properties":{"cartodb_id":326,"__4":1,"ref":27,"id":327,"ref_yamato_type":"保育園・幼稚園AED","__3":"","__2":"","opening_hour":"開園時間内","aed_type":"","description":"","__1":"","address":"大和市上和田3221","_":"上和田保育園","name":"上和田保育園 AED","name_en":"AED(Automated External Defibrillator)","name_ja":"AED（自動体外式除細動器）","latitude":35.43704017,"longitude":139.4721627}},{"type":"Feature","geometry":{"type":"Point","coordinates":[139.472519,35.43166]},"properties":{"cartodb_id":327,"__4":1,"ref":28,"id":328,"ref_yamato_type":"保育園・幼稚園AED","__3":"","__2":"","opening_hour":"開園時間内","aed_type":"","description":"","__1":"","address":"大和市下和田32","_":"大和あけぼの幼稚園","name":"大和あけぼの幼稚園 AED","name_en":"AED(Automated External Defibrillator)","name_ja":"AED（自動体外式除細動器）","latitude":35.43166022,"longitude":139.4725188}},{"type":"Feature","geometry":{"type":"Point","coordinates":[139.472207,35.428343]},"properties":{"cartodb_id":328,"__4":1,"ref":29,"id":329,"ref_yamato_type":"保育園・幼稚園AED","__3":"","__2":"","opening_hour":"開園時間内","aed_type":"","description":"","__1":"","address":"大和市下和田262","_":"下和田保育園","name":"下和田保育園 AED","name_en":"AED(Automated External Defibrillator)","name_ja":"AED（自動体外式除細動器）","latitude":35.42834296,"longitude":139.4722071}},{"type":"Feature","geometry":{"type":"Point","coordinates":[139.463258,35.44246]},"properties":{"cartodb_id":329,"__4":1,"ref":30,"id":330,"ref_yamato_type":"保育園・幼稚園AED","__3":"","__2":"","opening_hour":"開園時間内","aed_type":"","description":"","__1":"","address":"大和市福田5-17-1","_":"もみの木保育園","name":"もみの木保育園 AED","name_en":"AED(Automated External Defibrillator)","name_ja":"AED（自動体外式除細動器）","latitude":35.44245988,"longitude":139.463258}},{"type":"Feature","geometry":{"type":"Point","coordinates":[139.462863,35.442235]},"properties":{"cartodb_id":330,"__4":1,"ref":31,"id":331,"ref_yamato_type":"保育園・幼稚園AED","__3":"","__2":"","opening_hour":"開園時間内","aed_type":"","description":"","__1":"","address":"大和市福田5-17-2","_":"モミヤマ幼稚園","name":"モミヤマ幼稚園 AED","name_en":"AED(Automated External Defibrillator)","name_ja":"AED（自動体外式除細動器）","latitude":35.44223525,"longitude":139.4628631}},{"type":"Feature","geometry":{"type":"Point","coordinates":[139.463054,35.429344]},"properties":{"cartodb_id":332,"__4":1,"ref":33,"id":333,"ref_yamato_type":"保育園・幼稚園AED","__3":"","__2":"","opening_hour":"開園時間内","aed_type":"","description":"","__1":"","address":"大和市福田1698-1","_":"大和みどりが丘幼稚園","name":"大和みどりが丘幼稚園 AED","name_en":"AED(Automated External Defibrillator)","name_ja":"AED（自動体外式除細動器）","latitude":35.42934375,"longitude":139.4630543}},{"type":"Feature","geometry":{"type":"Point","coordinates":[139.456102,35.43427]},"properties":{"cartodb_id":333,"__4":1,"ref":34,"id":334,"ref_yamato_type":"保育園・幼稚園AED","__3":"","__2":"","opening_hour":"開園時間内","aed_type":"","description":"","__1":"","address":"大和市福田6002","_":"渋谷保育園","name":"渋谷保育園 AED","name_en":"AED(Automated External Defibrillator)","name_ja":"AED（自動体外式除細動器）","latitude":35.43427034,"longitude":139.4561024}}]}